{
  "type": "FeatureCollection",
  "generator": "trail-nepal-manual",
  "copyright": "Approximate waypoints for Annapurna Base Camp Trek, Nepal",
  "timestamp": "2026-05-07T07:46:26.619Z",
  "features": [
    {
      "type": "Feature",
      "properties": {
        "name": "Annapurna Base Camp Trek",
        "from": "Nayapul",
        "to": "Annapurna Base Camp",
        "network": "nwn",
        "route": "hiking",
        "country": "Nepal",
        "wikidata": "Q1064424"
      },
      "geometry": {
        "type": "LineString",
        "coordinates": [
          [83.784, 28.373],
          [83.78412, 28.37348],
          [83.78424, 28.37396],
          [83.78436, 28.37444],
          [83.78448, 28.37492],
          [83.7846, 28.3754],
          [83.78472, 28.37588],
          [83.78484, 28.37636],
          [83.78496, 28.37684],
          [83.78508, 28.37732],
          [83.7852, 28.3778],
          [83.78532, 28.37828],
          [83.78544, 28.37876],
          [83.78556, 28.37924],
          [83.78568, 28.37972],
          [83.7858, 28.3802],
          [83.78592, 28.38068],
          [83.78604, 28.38116],
          [83.78616, 28.38164],
          [83.78628, 28.38212],
          [83.7864, 28.3826],
          [83.78652, 28.38308],
          [83.78664, 28.38356],
          [83.78676, 28.38404],
          [83.78688, 28.38452],
          [83.787, 28.385],
          [83.78712, 28.38548],
          [83.78724, 28.38596],
          [83.78736, 28.38644],
          [83.78748, 28.38692],
          [83.7876, 28.3874],
          [83.78772, 28.38788],
          [83.78784, 28.38836],
          [83.78796, 28.38884],
          [83.78808, 28.38932],
          [83.7882, 28.3898],
          [83.78832, 28.39028],
          [83.78844, 28.39076],
          [83.78856, 28.39124],
          [83.78868, 28.39172],
          [83.7888, 28.3922],
          [83.78892, 28.39268],
          [83.78904, 28.39316],
          [83.78916, 28.39364],
          [83.78928, 28.39412],
          [83.7894, 28.3946],
          [83.78952, 28.39508],
          [83.78964, 28.39556],
          [83.78976, 28.39604],
          [83.78988, 28.39652],
          [83.79, 28.397],
          [83.79028, 28.39768],
          [83.79056, 28.39836],
          [83.79084, 28.39904],
          [83.79112, 28.39972],
          [83.7914, 28.4004],
          [83.79168, 28.40108],
          [83.79196, 28.40176],
          [83.79224, 28.40244],
          [83.79252, 28.40312],
          [83.7928, 28.4038],
          [83.79308, 28.40448],
          [83.79336, 28.40516],
          [83.79364, 28.40584],
          [83.79392, 28.40652],
          [83.7942, 28.4072],
          [83.79448, 28.40788],
          [83.79476, 28.40856],
          [83.79504, 28.40924],
          [83.79532, 28.40992],
          [83.7956, 28.4106],
          [83.79588, 28.41128],
          [83.79616, 28.41196],
          [83.79644, 28.41264],
          [83.79672, 28.41332],
          [83.797, 28.414],
          [83.79616, 28.41396],
          [83.79532, 28.41392],
          [83.79448, 28.41388],
          [83.79364, 28.41384],
          [83.7928, 28.4138],
          [83.79196, 28.41376],
          [83.79112, 28.41372],
          [83.79028, 28.41368],
          [83.78944, 28.41364],
          [83.7886, 28.4136],
          [83.78776, 28.41356],
          [83.78692, 28.41352],
          [83.78608, 28.41348],
          [83.78524, 28.41344],
          [83.7844, 28.4134],
          [83.78356, 28.41336],
          [83.78272, 28.41332],
          [83.78188, 28.41328],
          [83.78104, 28.41324],
          [83.7802, 28.4132],
          [83.77936, 28.41316],
          [83.77852, 28.41312],
          [83.77768, 28.41308],
          [83.77684, 28.41304],
          [83.776, 28.413],
          [83.77416, 28.41268],
          [83.77232, 28.41236],
          [83.77048, 28.41204],
          [83.76864, 28.41172],
          [83.7668, 28.4114],
          [83.76496, 28.41108],
          [83.76312, 28.41076],
          [83.76128, 28.41044],
          [83.75944, 28.41012],
          [83.7576, 28.4098],
          [83.75576, 28.40948],
          [83.75392, 28.40916],
          [83.75208, 28.40884],
          [83.75024, 28.40852],
          [83.7484, 28.4082],
          [83.74656, 28.40788],
          [83.74472, 28.40756],
          [83.74288, 28.40724],
          [83.74104, 28.40692],
          [83.7392, 28.4066],
          [83.73736, 28.40628],
          [83.73552, 28.40596],
          [83.73368, 28.40564],
          [83.73184, 28.40532],
          [83.73, 28.405],
          [83.7288, 28.40488],
          [83.7276, 28.40476],
          [83.7264, 28.40464],
          [83.7252, 28.40452],
          [83.724, 28.4044],
          [83.7228, 28.40428],
          [83.7216, 28.40416],
          [83.7204, 28.40404],
          [83.7192, 28.40392],
          [83.718, 28.4038],
          [83.7168, 28.40368],
          [83.7156, 28.40356],
          [83.7144, 28.40344],
          [83.7132, 28.40332],
          [83.712, 28.4032],
          [83.7108, 28.40308],
          [83.7096, 28.40296],
          [83.7084, 28.40284],
          [83.7072, 28.40272],
          [83.706, 28.4026],
          [83.7048, 28.40248],
          [83.7036, 28.40236],
          [83.7024, 28.40224],
          [83.7012, 28.40212],
          [83.7, 28.402],
          [83.7006, 28.40292],
          [83.7012, 28.40384],
          [83.7018, 28.40476],
          [83.7024, 28.40568],
          [83.703, 28.4066],
          [83.7036, 28.40752],
          [83.7042, 28.40844],
          [83.7048, 28.40936],
          [83.7054, 28.41028],
          [83.706, 28.4112],
          [83.7066, 28.41212],
          [83.7072, 28.41304],
          [83.7078, 28.41396],
          [83.7084, 28.41488],
          [83.709, 28.4158],
          [83.7096, 28.41672],
          [83.7102, 28.41764],
          [83.7108, 28.41856],
          [83.7114, 28.41948],
          [83.712, 28.4204],
          [83.7126, 28.42132],
          [83.7132, 28.42224],
          [83.7138, 28.42316],
          [83.7144, 28.42408],
          [83.715, 28.425],
          [83.7156, 28.42564],
          [83.7162, 28.42628],
          [83.7168, 28.42692],
          [83.7174, 28.42756],
          [83.718, 28.4282],
          [83.7186, 28.42884],
          [83.7192, 28.42948],
          [83.7198, 28.43012],
          [83.7204, 28.43076],
          [83.721, 28.4314],
          [83.7216, 28.43204],
          [83.7222, 28.43268],
          [83.7228, 28.43332],
          [83.7234, 28.43396],
          [83.724, 28.4346],
          [83.7246, 28.43524],
          [83.7252, 28.43588],
          [83.7258, 28.43652],
          [83.7264, 28.43716],
          [83.727, 28.4378],
          [83.7276, 28.43844],
          [83.7282, 28.43908],
          [83.7288, 28.43972],
          [83.7294, 28.44036],
          [83.73, 28.441],
          [83.73128, 28.44168],
          [83.73256, 28.44236],
          [83.73384, 28.44304],
          [83.73512, 28.44372],
          [83.7364, 28.4444],
          [83.73768, 28.44508],
          [83.73896, 28.44576],
          [83.74024, 28.44644],
          [83.74152, 28.44712],
          [83.7428, 28.4478],
          [83.74408, 28.44848],
          [83.74536, 28.44916],
          [83.74664, 28.44984],
          [83.74792, 28.45052],
          [83.7492, 28.4512],
          [83.75048, 28.45188],
          [83.75176, 28.45256],
          [83.75304, 28.45324],
          [83.75432, 28.45392],
          [83.7556, 28.4546],
          [83.75688, 28.45528],
          [83.75816, 28.45596],
          [83.75944, 28.45664],
          [83.76072, 28.45732],
          [83.762, 28.458],
          [83.76368, 28.45884],
          [83.76536, 28.45968],
          [83.76704, 28.46052],
          [83.76872, 28.46136],
          [83.7704, 28.4622],
          [83.77208, 28.46304],
          [83.77376, 28.46388],
          [83.77544, 28.46472],
          [83.77712, 28.46556],
          [83.7788, 28.4664],
          [83.78048, 28.46724],
          [83.78216, 28.46808],
          [83.78384, 28.46892],
          [83.78552, 28.46976],
          [83.7872, 28.4706],
          [83.78888, 28.47144],
          [83.79056, 28.47228],
          [83.79224, 28.47312],
          [83.79392, 28.47396],
          [83.7956, 28.4748],
          [83.79728, 28.47564],
          [83.79896, 28.47648],
          [83.80064, 28.47732],
          [83.80232, 28.47816],
          [83.804, 28.479],
          [83.80456, 28.4796],
          [83.80512, 28.4802],
          [83.80568, 28.4808],
          [83.80624, 28.4814],
          [83.8068, 28.482],
          [83.80736, 28.4826],
          [83.80792, 28.4832],
          [83.80848, 28.4838],
          [83.80904, 28.4844],
          [83.8096, 28.485],
          [83.81016, 28.4856],
          [83.81072, 28.4862],
          [83.81128, 28.4868],
          [83.81184, 28.4874],
          [83.8124, 28.488],
          [83.81296, 28.4886],
          [83.81352, 28.4892],
          [83.81408, 28.4898],
          [83.81464, 28.4904],
          [83.8152, 28.491],
          [83.81576, 28.4916],
          [83.81632, 28.4922],
          [83.81688, 28.4928],
          [83.81744, 28.4934],
          [83.818, 28.494],
          [83.8184, 28.49452],
          [83.8188, 28.49504],
          [83.8192, 28.49556],
          [83.8196, 28.49608],
          [83.82, 28.4966],
          [83.8204, 28.49712],
          [83.8208, 28.49764],
          [83.8212, 28.49816],
          [83.8216, 28.49868],
          [83.822, 28.4992],
          [83.8224, 28.49972],
          [83.8228, 28.50024],
          [83.8232, 28.50076],
          [83.8236, 28.50128],
          [83.824, 28.5018],
          [83.8244, 28.50232],
          [83.8248, 28.50284],
          [83.8252, 28.50336],
          [83.8256, 28.50388],
          [83.826, 28.5044],
          [83.8264, 28.50492],
          [83.8268, 28.50544],
          [83.8272, 28.50596],
          [83.8276, 28.50648],
          [83.828, 28.507],
          [83.8284, 28.50744],
          [83.8288, 28.50788],
          [83.8292, 28.50832],
          [83.8296, 28.50876],
          [83.83, 28.5092],
          [83.8304, 28.50964],
          [83.8308, 28.51008],
          [83.8312, 28.51052],
          [83.8316, 28.51096],
          [83.832, 28.5114],
          [83.8324, 28.51184],
          [83.8328, 28.51228],
          [83.8332, 28.51272],
          [83.8336, 28.51316],
          [83.834, 28.5136],
          [83.8344, 28.51404],
          [83.8348, 28.51448],
          [83.8352, 28.51492],
          [83.8356, 28.51536],
          [83.836, 28.5158],
          [83.8364, 28.51624],
          [83.8368, 28.51668],
          [83.8372, 28.51712],
          [83.8376, 28.51756],
          [83.838, 28.518],
          [83.8384, 28.51836],
          [83.8388, 28.51872],
          [83.8392, 28.51908],
          [83.8396, 28.51944],
          [83.84, 28.5198],
          [83.8404, 28.52016],
          [83.8408, 28.52052],
          [83.8412, 28.52088],
          [83.8416, 28.52124],
          [83.842, 28.5216],
          [83.8424, 28.52196],
          [83.8428, 28.52232],
          [83.8432, 28.52268],
          [83.8436, 28.52304],
          [83.844, 28.5234],
          [83.8444, 28.52376],
          [83.8448, 28.52412],
          [83.8452, 28.52448],
          [83.8456, 28.52484],
          [83.846, 28.5252],
          [83.8464, 28.52556],
          [83.8468, 28.52592],
          [83.8472, 28.52628],
          [83.8476, 28.52664],
          [83.848, 28.527],
          [83.84824, 28.52724],
          [83.84848, 28.52748],
          [83.84872, 28.52772],
          [83.84896, 28.52796],
          [83.8492, 28.5282],
          [83.84944, 28.52844],
          [83.84968, 28.52868],
          [83.84992, 28.52892],
          [83.85016, 28.52916],
          [83.8504, 28.5294],
          [83.85064, 28.52964],
          [83.85088, 28.52988],
          [83.85112, 28.53012],
          [83.85136, 28.53036],
          [83.8516, 28.5306],
          [83.85184, 28.53084],
          [83.85208, 28.53108],
          [83.85232, 28.53132],
          [83.85256, 28.53156],
          [83.8528, 28.5318],
          [83.85304, 28.53204],
          [83.85328, 28.53228],
          [83.85352, 28.53252],
          [83.85376, 28.53276],
          [83.854, 28.533],
          [83.85432, 28.53308],
          [83.85464, 28.53316],
          [83.85496, 28.53324],
          [83.85528, 28.53332],
          [83.8556, 28.5334],
          [83.85592, 28.53348],
          [83.85624, 28.53356],
          [83.85656, 28.53364],
          [83.85688, 28.53372],
          [83.8572, 28.5338],
          [83.85752, 28.53388],
          [83.85784, 28.53396],
          [83.85816, 28.53404],
          [83.85848, 28.53412],
          [83.8588, 28.5342],
          [83.85912, 28.53428],
          [83.85944, 28.53436],
          [83.85976, 28.53444],
          [83.86008, 28.53452],
          [83.8604, 28.5346],
          [83.86072, 28.53468],
          [83.86104, 28.53476],
          [83.86136, 28.53484],
          [83.86168, 28.53492],
          [83.862, 28.535],
          [83.8626, 28.53484],
          [83.8632, 28.53468],
          [83.8638, 28.53452],
          [83.8644, 28.53436],
          [83.865, 28.5342],
          [83.8656, 28.53404],
          [83.8662, 28.53388],
          [83.8668, 28.53372],
          [83.8674, 28.53356],
          [83.868, 28.5334],
          [83.8686, 28.53324],
          [83.8692, 28.53308],
          [83.8698, 28.53292],
          [83.8704, 28.53276],
          [83.871, 28.5326],
          [83.8716, 28.53244],
          [83.8722, 28.53228],
          [83.8728, 28.53212],
          [83.8734, 28.53196],
          [83.874, 28.5318],
          [83.8746, 28.53164],
          [83.8752, 28.53148],
          [83.8758, 28.53132],
          [83.8764, 28.53116],
          [83.877, 28.531]
        ]
      }
    }
  ]
}
