{"type":"FeatureCollection","generator":"trail-nepal osm-router","copyright":"Route traced from OpenStreetMap walkable network (ODbL). © OpenStreetMap contributors.","features":[{"type":"Feature","properties":{"name":"Dhulikhel to Namobuddha Hike","route":"hiking","source":"OpenStreetMap","routeType":"point-to-point"},"geometry":{"type":"LineString","coordinates":[[85.552786,27.618774],[85.552891,27.618695],[85.552983,27.618595],[85.55308,27.61849],[85.553166,27.618374],[85.553123,27.618286],[85.553087,27.618063],[85.553296,27.618027],[85.553366,27.617945],[85.553523,27.617678],[85.553616,27.617521],[85.553695,27.617416],[85.553741,27.617383],[85.553833,27.61735],[85.553915,27.617332],[85.55398,27.617337],[85.554205,27.617382],[85.554273,27.617393],[85.554431,27.617423],[85.554722,27.617451],[85.554909,27.617454],[85.55507,27.617442],[85.555184,27.617423],[85.555286,27.617402],[85.55543,27.617352],[85.555663,27.617242],[85.55587,27.617142],[85.556178,27.617013],[85.556466,27.61691],[85.556697,27.616858],[85.556818,27.616804],[85.556972,27.616663],[85.557029,27.616589],[85.557101,27.616525],[85.557227,27.61646],[85.55741,27.616394],[85.55765,27.616347],[85.557739,27.616352],[85.557809,27.616361],[85.557932,27.616383],[85.558072,27.616406],[85.558108,27.616416],[85.558257,27.616505],[85.55833,27.616409],[85.558672,27.616133],[85.558897,27.615893],[85.559244,27.615509],[85.559566,27.615295],[85.559578,27.61522],[85.559553,27.615125],[85.559561,27.615048],[85.559592,27.614981],[85.559734,27.614878],[85.559847,27.614798],[85.560026,27.6147],[85.560194,27.614658],[85.560357,27.614619],[85.560571,27.614617],[85.560763,27.614686],[85.561018,27.614798],[85.561303,27.614919],[85.561559,27.615033],[85.561764,27.615128],[85.562065,27.615228],[85.562688,27.615419],[85.562792,27.615481],[85.562946,27.615424],[85.563148,27.615383],[85.563314,27.615368],[85.563321,27.61535],[85.563336,27.615317],[85.563366,27.615242],[85.563446,27.614938],[85.563476,27.614881],[85.563557,27.614854],[85.563669,27.614708],[85.563719,27.614606],[85.563762,27.614491],[85.56384,27.614357],[85.563857,27.614301],[85.563856,27.614193],[85.563898,27.614118],[85.563923,27.614035],[85.563933,27.613938],[85.563958,27.613899],[85.564049,27.613823],[85.564172,27.613697],[85.564247,27.613568],[85.564271,27.613521],[85.564363,27.613386],[85.564392,27.613287],[85.564411,27.613214],[85.564491,27.613094],[85.564576,27.612959],[85.564611,27.612918],[85.56487,27.612793],[85.565071,27.61273],[85.56517,27.612635],[85.565219,27.612588],[85.565283,27.612531],[85.56543,27.612477],[85.56568,27.612355],[85.565802,27.612271],[85.565941,27.612214],[85.566108,27.612178],[85.566432,27.611984],[85.566638,27.611865],[85.566927,27.611585],[85.5669,27.611471],[85.567023,27.611076],[85.567177,27.610947],[85.567233,27.61073],[85.567116,27.610622],[85.567066,27.610555],[85.567157,27.610346],[85.567293,27.610304],[85.567589,27.610193],[85.567661,27.610139],[85.5677,27.610098],[85.567773,27.610143],[85.567809,27.610174],[85.567863,27.610265],[85.567998,27.610454],[85.567986,27.610518],[85.567994,27.610546],[85.568021,27.610576],[85.567994,27.610546],[85.567986,27.610518],[85.567998,27.610454],[85.567863,27.610265],[85.567809,27.610174],[85.567773,27.610143],[85.5677,27.610098],[85.567751,27.610069],[85.567871,27.610021],[85.567998,27.60996],[85.568073,27.6099],[85.568117,27.609861],[85.568137,27.609843],[85.568148,27.609812],[85.568174,27.609734],[85.568223,27.60966],[85.568257,27.609594],[85.568271,27.609568],[85.568333,27.609453],[85.568373,27.609358],[85.568403,27.609275],[85.568421,27.609245],[85.56843,27.609185],[85.568449,27.60912],[85.568448,27.609046],[85.568431,27.608986],[85.568528,27.608936],[85.568584,27.608919],[85.568622,27.608891],[85.568659,27.608843],[85.568721,27.608788],[85.568775,27.608757],[85.568826,27.608716],[85.568837,27.608684],[85.568843,27.608632],[85.568833,27.608586],[85.568799,27.60847],[85.568834,27.608365],[85.568895,27.608294],[85.569,27.608239],[85.569024,27.608185],[85.569086,27.608116],[85.56911,27.60808],[85.569157,27.608029],[85.569176,27.607984],[85.569187,27.607922],[85.569205,27.607819],[85.569237,27.607751],[85.569287,27.607693],[85.569345,27.607673],[85.569413,27.607671],[85.569446,27.607682],[85.569502,27.607678],[85.569593,27.607655],[85.569627,27.607644],[85.56967,27.607626],[85.569708,27.607575],[85.56971,27.607509],[85.569709,27.607443],[85.569704,27.607395],[85.569744,27.607317],[85.569796,27.607255],[85.569885,27.607191],[85.569946,27.607102],[85.570011,27.607076],[85.570059,27.607047],[85.570103,27.606973],[85.57016,27.606897],[85.570213,27.606836],[85.570258,27.606757],[85.570284,27.606717],[85.570312,27.606656],[85.570306,27.606599],[85.570285,27.606535],[85.570258,27.606459],[85.570223,27.606374],[85.570226,27.606307],[85.570233,27.606207],[85.570236,27.606182],[85.570239,27.606148],[85.57021,27.606095],[85.570207,27.60605],[85.570215,27.606012],[85.570229,27.605975],[85.5702,27.605885],[85.57018,27.605868],[85.570132,27.60581],[85.570134,27.605765],[85.570159,27.605729],[85.570148,27.605701],[85.570124,27.605663],[85.570046,27.605596],[85.570006,27.605573],[85.569963,27.605539],[85.569933,27.605506],[85.569931,27.605485],[85.569993,27.605431],[85.570066,27.605416],[85.570146,27.605416],[85.5702,27.605407],[85.570256,27.605379],[85.570294,27.605327],[85.57031,27.605289],[85.570307,27.605202],[85.57031,27.60516],[85.570351,27.605052],[85.570373,27.604993],[85.570407,27.604908],[85.570447,27.60478],[85.570455,27.604706],[85.570473,27.604655],[85.570485,27.604604],[85.570532,27.604535],[85.570617,27.604496],[85.570692,27.604432],[85.570757,27.604333],[85.570786,27.60426],[85.570805,27.60421],[85.570819,27.604152],[85.570834,27.604067],[85.570833,27.604011],[85.570836,27.603927],[85.570833,27.603866],[85.570841,27.603807],[85.570864,27.603746],[85.570903,27.603683],[85.570943,27.603646],[85.570977,27.603632],[85.57105,27.603585],[85.57116,27.603516],[85.571221,27.603483],[85.571299,27.603438],[85.571371,27.6034],[85.571451,27.60338],[85.571519,27.603359],[85.57159,27.603336],[85.571655,27.603309],[85.571738,27.603279],[85.571862,27.603232],[85.571908,27.603217],[85.571972,27.603214],[85.572021,27.603218],[85.572096,27.603214],[85.572144,27.603207],[85.57223,27.603186],[85.572274,27.603169],[85.57234,27.603114],[85.572388,27.603062],[85.572436,27.602998],[85.572514,27.60293],[85.572571,27.602888],[85.572588,27.602852],[85.572601,27.602774],[85.572594,27.602718],[85.572575,27.602622],[85.572553,27.602564],[85.572541,27.602496],[85.572542,27.602439],[85.572557,27.602416],[85.572585,27.602383],[85.572608,27.60235],[85.572655,27.60231],[85.572723,27.602294],[85.572806,27.602279],[85.572922,27.602286],[85.572971,27.602282],[85.572997,27.602268],[85.573041,27.602242],[85.573078,27.602202],[85.573129,27.602167],[85.573174,27.602142],[85.573229,27.602104],[85.573279,27.602077],[85.573316,27.602056],[85.573374,27.602018],[85.573412,27.601991],[85.573485,27.601946],[85.573574,27.601893],[85.573653,27.601856],[85.573737,27.601822],[85.573869,27.601785],[85.573921,27.601781],[85.573992,27.60178],[85.574027,27.601786],[85.574051,27.601776],[85.574091,27.601731],[85.574121,27.601695],[85.57414,27.601674],[85.574193,27.601643],[85.574234,27.601631],[85.574269,27.60162],[85.574342,27.601591],[85.574509,27.601496],[85.574564,27.601432],[85.57459,27.601386],[85.574625,27.601306],[85.574661,27.601215],[85.57468,27.601149],[85.574698,27.601106],[85.574735,27.601039],[85.574757,27.600997],[85.574808,27.60091],[85.574873,27.60084],[85.574945,27.600792],[85.575019,27.600765],[85.57509,27.600759],[85.575181,27.600768],[85.575276,27.600782],[85.575366,27.600797],[85.575445,27.600804],[85.575504,27.600804],[85.57556,27.600788],[85.57561,27.600766],[85.575645,27.600736],[85.575672,27.600704],[85.575708,27.600648],[85.57576,27.600544],[85.575785,27.600463],[85.575803,27.600387],[85.57583,27.600325],[85.575871,27.60027],[85.575948,27.600212],[85.576047,27.600165],[85.576119,27.600133],[85.576202,27.600108],[85.576275,27.600088],[85.576354,27.600057],[85.576412,27.600025],[85.576456,27.600003],[85.576497,27.599982],[85.576522,27.599964],[85.57656,27.599938],[85.576581,27.599913],[85.57659,27.59988],[85.576594,27.599851],[85.576642,27.599777],[85.576669,27.5997],[85.576677,27.599632],[85.576707,27.599529],[85.576743,27.599438],[85.576752,27.599341],[85.576721,27.599266],[85.576744,27.599052],[85.576732,27.599035],[85.576731,27.599009],[85.576703,27.598912],[85.576693,27.598869],[85.576686,27.598818],[85.576685,27.598786],[85.576688,27.598765],[85.576672,27.598715],[85.576658,27.598666],[85.576637,27.598618],[85.576626,27.598593],[85.576638,27.598579],[85.576638,27.598532],[85.576585,27.598447],[85.576587,27.598416],[85.576586,27.598384],[85.576586,27.598351],[85.576581,27.598322],[85.576587,27.598283],[85.576583,27.59823],[85.576519,27.598105],[85.57648,27.597983],[85.576418,27.59783],[85.576343,27.597733],[85.576333,27.597675],[85.576336,27.597616],[85.576305,27.59751],[85.576199,27.597406],[85.576054,27.59725],[85.575956,27.597182],[85.575882,27.597132],[85.575894,27.597047],[85.575837,27.596956],[85.575771,27.596913],[85.575774,27.596866],[85.57577,27.596766],[85.575734,27.596647],[85.575639,27.596483],[85.575611,27.596418],[85.57558,27.59638],[85.575544,27.596341],[85.57551,27.596303],[85.575486,27.596282],[85.575434,27.596246],[85.575356,27.596174],[85.575333,27.596139],[85.575306,27.596096],[85.575296,27.596067],[85.575282,27.596044],[85.57519,27.59591],[85.575158,27.595845],[85.575136,27.595794],[85.575115,27.595736],[85.575104,27.59564],[85.575109,27.595569],[85.575139,27.595491],[85.575217,27.59538],[85.575309,27.595243],[85.575386,27.595178],[85.575498,27.595105],[85.575551,27.595079],[85.575575,27.595053],[85.575615,27.595017],[85.575636,27.594985],[85.575646,27.594961],[85.575661,27.594926],[85.57567,27.594882],[85.575671,27.594841],[85.575671,27.594806],[85.575662,27.594728],[85.575643,27.594654],[85.575628,27.594598],[85.575597,27.594548],[85.575557,27.594506],[85.575496,27.59446],[85.575416,27.594424],[85.575329,27.594371],[85.575281,27.594303],[85.575199,27.59412],[85.575133,27.594023],[85.575054,27.593975],[85.574921,27.593909],[85.574838,27.593866],[85.574803,27.593843],[85.574739,27.5938],[85.574667,27.593741],[85.574604,27.593678],[85.574521,27.593607],[85.574413,27.593475],[85.574354,27.593402],[85.574326,27.593367],[85.574283,27.593306],[85.574246,27.593249],[85.574185,27.593175],[85.574123,27.593111],[85.574044,27.59306],[85.573913,27.592926],[85.573847,27.592805],[85.573766,27.592669],[85.573677,27.59255],[85.573634,27.592461],[85.573592,27.59238],[85.573549,27.592308],[85.573481,27.592217],[85.573412,27.592113],[85.573404,27.592012],[85.573458,27.591888],[85.573508,27.591812],[85.573573,27.591765],[85.573722,27.591699],[85.573915,27.591642],[85.574071,27.591603],[85.574188,27.591587],[85.574315,27.591581],[85.574454,27.591594],[85.574534,27.591594],[85.574594,27.591584],[85.574636,27.591558],[85.574669,27.59152],[85.57468,27.591467],[85.574653,27.590866],[85.574647,27.590757],[85.574639,27.590571],[85.574659,27.590507],[85.574698,27.59046],[85.574768,27.590413],[85.574873,27.590364],[85.57495,27.590296],[85.574998,27.590221],[85.575034,27.590049],[85.575053,27.589894],[85.575045,27.589703],[85.575024,27.589538],[85.575023,27.589382],[85.575035,27.589219],[85.575012,27.589016],[85.574968,27.588884],[85.574951,27.588809],[85.574955,27.588734],[85.574979,27.588667],[85.575106,27.588493],[85.575185,27.588389],[85.575247,27.588329],[85.575358,27.588295],[85.575475,27.588287],[85.57561,27.588316],[85.575781,27.588367],[85.575869,27.588376],[85.575931,27.588366],[85.575993,27.588338],[85.576088,27.588271],[85.576134,27.588231],[85.576188,27.588206],[85.576257,27.588204],[85.576331,27.58822],[85.576512,27.588279],[85.576758,27.588377],[85.576852,27.588415],[85.576958,27.588472],[85.577054,27.588534],[85.577104,27.588557],[85.577148,27.588565],[85.577186,27.588562],[85.577218,27.588547],[85.577244,27.588522],[85.577278,27.588467],[85.577322,27.588355],[85.577352,27.588295],[85.577391,27.588259],[85.57744,27.588245],[85.577537,27.588237],[85.577646,27.588247],[85.577747,27.588253],[85.577831,27.58824],[85.578018,27.588227],[85.578217,27.588242],[85.578369,27.588243],[85.578384,27.588243],[85.578547,27.58821],[85.57866,27.588202],[85.57883,27.588228],[85.578967,27.588255],[85.579092,27.588268],[85.579274,27.588248],[85.579404,27.588227],[85.579486,27.588192],[85.579545,27.588144],[85.579612,27.588079],[85.579701,27.588041],[85.579813,27.588025],[85.579927,27.588022],[85.580118,27.588006],[85.580224,27.587997],[85.580309,27.587995],[85.58039,27.587999],[85.580478,27.58802],[85.580532,27.588034],[85.580623,27.588068],[85.580704,27.588103],[85.580802,27.588149],[85.580923,27.58821],[85.580993,27.588229],[85.5811,27.588248],[85.581207,27.588229],[85.581313,27.588192],[85.581413,27.588143],[85.581489,27.588103],[85.581566,27.588068],[85.581646,27.588027],[85.581717,27.587977],[85.581776,27.587919],[85.581853,27.587842],[85.581922,27.587804],[85.582009,27.587797],[85.582093,27.587823],[85.582262,27.587913],[85.582501,27.588044],[85.582646,27.588101],[85.582748,27.588133],[85.582891,27.588162],[85.582995,27.588171],[85.583126,27.588167],[85.58327,27.588146],[85.583438,27.588146],[85.583538,27.58816],[85.583622,27.5882],[85.583727,27.588284],[85.583804,27.588343],[85.583872,27.588377],[85.583969,27.588394],[85.584098,27.588386],[85.584274,27.588347],[85.584372,27.588339],[85.584439,27.588358],[85.584492,27.58839],[85.584562,27.588467],[85.584724,27.588632],[85.584806,27.588674],[85.584907,27.588718],[85.58501,27.588782],[85.585142,27.588884],[85.585183,27.588903],[85.585228,27.588914],[85.585277,27.588911],[85.585315,27.588895],[85.585392,27.588827],[85.585474,27.588787],[85.585563,27.588788],[85.585667,27.588827],[85.585764,27.588873],[85.585827,27.588909],[85.585964,27.588961],[85.586063,27.588976],[85.586188,27.58896],[85.586302,27.588914],[85.58639,27.588825],[85.586446,27.588733],[85.586471,27.588639],[85.586471,27.588516],[85.586445,27.588317],[85.586441,27.58808],[85.586441,27.587937],[85.586418,27.587826],[85.586392,27.587722],[85.586382,27.587623],[85.586387,27.587537],[85.586441,27.587397],[85.586574,27.587285],[85.58664,27.587216],[85.586686,27.587144],[85.586751,27.587014],[85.586835,27.586956],[85.586905,27.586931],[85.587008,27.58691],[85.587081,27.586859],[85.587132,27.586802],[85.587186,27.586711],[85.587255,27.586645],[85.587391,27.586596],[85.587537,27.586567],[85.587611,27.586529],[85.587666,27.586471],[85.587726,27.586395],[85.587793,27.586314],[85.587878,27.586253],[85.587958,27.586205],[85.588013,27.586141],[85.588032,27.586067],[85.588033,27.585955],[85.588013,27.585813],[85.587999,27.585637],[85.588007,27.585532],[85.58804,27.585418],[85.588102,27.58532],[85.588162,27.585265],[85.588271,27.585235],[85.588382,27.585228],[85.588495,27.58523],[85.588603,27.585228],[85.588721,27.585209],[85.588849,27.585174],[85.588997,27.585171],[85.589101,27.585166],[85.589176,27.585166],[85.589366,27.585168],[85.589479,27.585179],[85.589639,27.585189],[85.589772,27.585178],[85.589829,27.58517],[85.589877,27.585163],[85.589929,27.58506],[85.589934,27.584955],[85.589915,27.58487],[85.589885,27.58475],[85.589849,27.584592],[85.589815,27.584427],[85.589752,27.584284],[85.589738,27.584255],[85.589672,27.584114],[85.589609,27.584047],[85.589532,27.584007],[85.58934,27.583825],[85.58915,27.583685],[85.589093,27.583646],[85.588947,27.583554],[85.588851,27.583491],[85.588774,27.583431],[85.5887,27.58337],[85.588664,27.583305],[85.588683,27.583225],[85.58873,27.583178],[85.588792,27.583171],[85.588915,27.583151],[85.588993,27.583142],[85.58905,27.583123],[85.589101,27.583075],[85.589139,27.583022],[85.589188,27.582942],[85.589246,27.5829],[85.589389,27.582845],[85.589453,27.5828],[85.589625,27.582633],[85.589703,27.582524],[85.589742,27.582431],[85.589739,27.582369],[85.5897,27.582317],[85.589634,27.582244],[85.589476,27.582139],[85.589452,27.582095],[85.58936,27.581965],[85.589288,27.581808],[85.589217,27.58173],[85.589106,27.581644],[85.589045,27.581577],[85.588986,27.581472],[85.588927,27.581377],[85.588864,27.581299],[85.588744,27.581151],[85.588691,27.580997],[85.588663,27.58088],[85.588681,27.580798],[85.588728,27.580731],[85.588777,27.580673],[85.588866,27.580565],[85.588991,27.580413],[85.589089,27.580292],[85.589208,27.580189],[85.589316,27.580054],[85.589461,27.579941],[85.589775,27.579689],[85.589836,27.579613],[85.589882,27.579521],[85.589894,27.579411],[85.589899,27.579195],[85.589873,27.57889],[85.589715,27.578548],[85.589639,27.578378],[85.589523,27.578172],[85.589246,27.577789],[85.589188,27.577703],[85.589162,27.577601],[85.589137,27.577287],[85.589113,27.577224],[85.589048,27.577186],[85.588971,27.577173],[85.58885,27.577171],[85.588779,27.57719],[85.588713,27.577222],[85.588653,27.577259],[85.588576,27.577295],[85.588511,27.577317],[85.588446,27.577313],[85.58838,27.577295],[85.588275,27.577243],[85.588215,27.577195],[85.588176,27.57712],[85.588162,27.577052],[85.58817,27.576985],[85.588197,27.576906],[85.58824,27.576834],[85.58827,27.576751],[85.588279,27.57669],[85.588279,27.576633],[85.588264,27.576606],[85.588222,27.576584],[85.588173,27.576557],[85.58812,27.576539],[85.588024,27.576512],[85.587915,27.576474],[85.587824,27.576426],[85.587705,27.576354],[85.587462,27.576238],[85.58725,27.576143],[85.587143,27.576077],[85.5871,27.57603],[85.587075,27.575976],[85.587085,27.575923],[85.587153,27.575841],[85.58735,27.57569],[85.587476,27.575592],[85.587556,27.575495],[85.587587,27.57542],[85.587611,27.575344],[85.587607,27.575256],[85.587556,27.575166],[85.587432,27.575056],[85.58734,27.574987],[85.587226,27.574924],[85.587062,27.574873],[85.586902,27.574815],[85.586787,27.574751],[85.586707,27.574686],[85.586661,27.574627],[85.586648,27.574562],[85.586658,27.574487],[85.586689,27.574428],[85.58677,27.574349],[85.586822,27.574273],[85.586851,27.574194],[85.586872,27.574078],[85.586886,27.573892],[85.586894,27.573762],[85.586884,27.57364],[85.586868,27.573546],[85.586751,27.573424],[85.586615,27.573371],[85.586408,27.573277],[85.586188,27.573164],[85.58599,27.573039],[85.585846,27.572922]]}}]}