{"type":"FeatureCollection","generator":"trail-nepal osm-router","copyright":"Route traced from OpenStreetMap walkable network (ODbL). © OpenStreetMap contributors.","features":[{"type":"Feature","properties":{"name":"Godawari to Phulchoki Hike","route":"hiking","source":"OpenStreetMap","routeType":"out-and-back"},"geometry":{"type":"LineString","coordinates":[[85.382121,27.59391],[85.381259,27.593426],[85.381131,27.593377],[85.380862,27.593498],[85.380746,27.593679],[85.380329,27.59423],[85.380208,27.594333],[85.380028,27.594386],[85.379843,27.594408],[85.379592,27.59441],[85.378313,27.594119],[85.378341,27.594049],[85.378365,27.593944],[85.378424,27.593611],[85.378571,27.592917],[85.378652,27.592426],[85.378732,27.592037],[85.378806,27.591739],[85.378817,27.591652],[85.378817,27.591582],[85.378806,27.591493],[85.378774,27.591283],[85.378755,27.591176],[85.378753,27.591099],[85.378783,27.590921],[85.378782,27.59086],[85.378768,27.590805],[85.37874,27.59075],[85.378675,27.59056],[85.378666,27.590485],[85.37867,27.590415],[85.378688,27.590332],[85.378787,27.590113],[85.378816,27.589997],[85.378842,27.589614],[85.378841,27.589437],[85.378842,27.589316],[85.378835,27.589241],[85.378833,27.589161],[85.37884,27.589098],[85.378846,27.589011],[85.378876,27.588815],[85.37889,27.588728],[85.379248,27.588694],[85.379298,27.588673],[85.379328,27.588636],[85.379338,27.588597],[85.379595,27.588599],[85.37986,27.588236],[85.379838,27.587991],[85.380088,27.587978],[85.380621,27.587637],[85.381203,27.586646],[85.381364,27.586071],[85.381709,27.585649],[85.381354,27.58503],[85.381249,27.584393],[85.382373,27.583482],[85.383703,27.582907],[85.383577,27.582747],[85.383844,27.582446],[85.383856,27.582271],[85.383945,27.582117],[85.384041,27.58211],[85.384082,27.581917],[85.384612,27.581896],[85.384919,27.581793],[85.384983,27.581664],[85.385434,27.581621],[85.385842,27.581192],[85.386042,27.581103],[85.386309,27.581196],[85.386541,27.581126],[85.386663,27.580964],[85.386629,27.580818],[85.3867,27.580732],[85.386685,27.580704],[85.386938,27.580536],[85.38737,27.580444],[85.387822,27.580513],[85.388008,27.580611],[85.388463,27.58047],[85.388854,27.5804],[85.389497,27.580313],[85.390133,27.580112],[85.390422,27.580125],[85.390524,27.580239],[85.390841,27.58007],[85.390828,27.580034],[85.390832,27.579999],[85.390864,27.57992],[85.390933,27.579792],[85.390963,27.579717],[85.390971,27.579636],[85.390946,27.579565],[85.3909,27.579516],[85.39098,27.579311],[85.391146,27.579296],[85.39112,27.579245],[85.391108,27.579206],[85.391103,27.579157],[85.391111,27.57911],[85.391137,27.579084],[85.391174,27.579078],[85.391238,27.579021],[85.391652,27.579068],[85.391933,27.579143],[85.392186,27.579202],[85.392359,27.579125],[85.392534,27.578899],[85.392749,27.578821],[85.392882,27.578842],[85.393174,27.578847],[85.393437,27.578901],[85.393512,27.57887],[85.393677,27.578696],[85.39403,27.578661],[85.394242,27.578674],[85.394482,27.578652],[85.394543,27.578576],[85.39466,27.578669],[85.39484,27.578671],[85.39497,27.57866],[85.395143,27.578473],[85.395332,27.578381],[85.395473,27.578371],[85.395651,27.578468],[85.395713,27.578373],[85.395837,27.578301],[85.396046,27.578308],[85.39632,27.577998],[85.396326,27.578043],[85.396345,27.578118],[85.396402,27.578217],[85.396486,27.578318],[85.396551,27.578361],[85.396605,27.578366],[85.396642,27.578343],[85.396719,27.578339],[85.396914,27.578141],[85.396966,27.57781],[85.39711,27.577858],[85.397199,27.577995],[85.397196,27.577844],[85.397313,27.577676],[85.397313,27.577779],[85.397421,27.577873],[85.397546,27.577827],[85.397514,27.577724],[85.397509,27.577639],[85.397524,27.577573],[85.397616,27.577488],[85.397683,27.577436],[85.397745,27.577415],[85.397796,27.577433],[85.39782,27.577471],[85.397825,27.57752],[85.397818,27.577575],[85.397787,27.577642],[85.397758,27.577698],[85.397753,27.577744],[85.397777,27.577781],[85.397812,27.577808],[85.397883,27.577831],[85.397993,27.577841],[85.398086,27.57784],[85.398409,27.577814],[85.398544,27.577792],[85.398629,27.577759],[85.398716,27.577715],[85.39878,27.577686],[85.398822,27.577668],[85.398885,27.577658],[85.399004,27.577643],[85.399103,27.577615],[85.399165,27.577578],[85.399209,27.577538],[85.399277,27.57746],[85.399336,27.577381],[85.399426,27.577211],[85.399526,27.57706],[85.399661,27.576882],[85.399677,27.57682],[85.399657,27.576781],[85.399611,27.576772],[85.399553,27.576798],[85.399511,27.576849],[85.399455,27.576931],[85.399362,27.577041],[85.399331,27.576861],[85.399093,27.576968],[85.398876,27.577087],[85.398734,27.57706],[85.398669,27.577066],[85.398623,27.577046],[85.398609,27.577004],[85.398621,27.576965],[85.398658,27.576933],[85.398813,27.576817],[85.398797,27.576724],[85.398624,27.576598],[85.398649,27.576404],[85.398528,27.576434],[85.398491,27.576197],[85.398658,27.576162],[85.398664,27.576055],[85.398658,27.57598],[85.398888,27.575788],[85.399006,27.575568],[85.399032,27.575265],[85.399033,27.574955],[85.399268,27.574838],[85.399296,27.574833],[85.399307,27.574749],[85.399022,27.574434],[85.398931,27.574284],[85.39845,27.574199],[85.39825,27.574104],[85.398079,27.573889],[85.397936,27.573793],[85.397674,27.573811],[85.397709,27.573312],[85.397697,27.573243],[85.398031,27.573239],[85.398451,27.573126],[85.39884,27.573472],[85.399273,27.573524],[85.399449,27.573254],[85.399595,27.573042],[85.399561,27.572671],[85.39953,27.572456],[85.399512,27.572196],[85.39959,27.572063],[85.399918,27.571778],[85.400196,27.571537],[85.400375,27.571459],[85.400819,27.57153],[85.401486,27.571837],[85.402652,27.571733],[85.402886,27.571624],[85.403126,27.571554],[85.403475,27.571493],[85.403881,27.571398],[85.404087,27.571235],[85.404296,27.57123],[85.404693,27.571315],[85.40489,27.571326],[85.405049,27.571243],[85.405204,27.571227],[85.405336,27.571296],[85.405781,27.571201],[85.405849,27.571191],[85.40597,27.571264],[85.40657,27.571279],[85.40597,27.571264],[85.405849,27.571191],[85.405781,27.571201],[85.405336,27.571296],[85.405204,27.571227],[85.405049,27.571243],[85.40489,27.571326],[85.404693,27.571315],[85.404296,27.57123],[85.404087,27.571235],[85.403881,27.571398],[85.403475,27.571493],[85.403126,27.571554],[85.402886,27.571624],[85.402652,27.571733],[85.401486,27.571837],[85.400819,27.57153],[85.400375,27.571459],[85.400196,27.571537],[85.399918,27.571778],[85.39959,27.572063],[85.399512,27.572196],[85.39953,27.572456],[85.399561,27.572671],[85.399595,27.573042],[85.399449,27.573254],[85.399273,27.573524],[85.39884,27.573472],[85.398451,27.573126],[85.398031,27.573239],[85.397697,27.573243],[85.397709,27.573312],[85.397674,27.573811],[85.397936,27.573793],[85.398079,27.573889],[85.39825,27.574104],[85.39845,27.574199],[85.398931,27.574284],[85.399022,27.574434],[85.399307,27.574749],[85.399296,27.574833],[85.399268,27.574838],[85.399033,27.574955],[85.399032,27.575265],[85.399006,27.575568],[85.398888,27.575788],[85.398658,27.57598],[85.398664,27.576055],[85.398658,27.576162],[85.398491,27.576197],[85.398528,27.576434],[85.398649,27.576404],[85.398624,27.576598],[85.398797,27.576724],[85.398813,27.576817],[85.398658,27.576933],[85.398621,27.576965],[85.398609,27.577004],[85.398623,27.577046],[85.398669,27.577066],[85.398734,27.57706],[85.398876,27.577087],[85.399093,27.576968],[85.399331,27.576861],[85.399362,27.577041],[85.399455,27.576931],[85.399511,27.576849],[85.399553,27.576798],[85.399611,27.576772],[85.399657,27.576781],[85.399677,27.57682],[85.399661,27.576882],[85.399526,27.57706],[85.399426,27.577211],[85.399336,27.577381],[85.399277,27.57746],[85.399209,27.577538],[85.399165,27.577578],[85.399103,27.577615],[85.399004,27.577643],[85.398885,27.577658],[85.398822,27.577668],[85.39878,27.577686],[85.398716,27.577715],[85.398629,27.577759],[85.398544,27.577792],[85.398409,27.577814],[85.398086,27.57784],[85.397993,27.577841],[85.397883,27.577831],[85.397812,27.577808],[85.397777,27.577781],[85.397753,27.577744],[85.397758,27.577698],[85.397787,27.577642],[85.397818,27.577575],[85.397825,27.57752],[85.39782,27.577471],[85.397796,27.577433],[85.397745,27.577415],[85.397683,27.577436],[85.397616,27.577488],[85.397524,27.577573],[85.397509,27.577639],[85.397514,27.577724],[85.397546,27.577827],[85.397421,27.577873],[85.397313,27.577779],[85.397313,27.577676],[85.397196,27.577844],[85.397199,27.577995],[85.39711,27.577858],[85.396966,27.57781],[85.396914,27.578141],[85.396719,27.578339],[85.396642,27.578343],[85.396605,27.578366],[85.396551,27.578361],[85.396486,27.578318],[85.396402,27.578217],[85.396345,27.578118],[85.396326,27.578043],[85.39632,27.577998],[85.396046,27.578308],[85.395837,27.578301],[85.395713,27.578373],[85.395651,27.578468],[85.395473,27.578371],[85.395332,27.578381],[85.395143,27.578473],[85.39497,27.57866],[85.39484,27.578671],[85.39466,27.578669],[85.394543,27.578576],[85.394482,27.578652],[85.394242,27.578674],[85.39403,27.578661],[85.393677,27.578696],[85.393512,27.57887],[85.393437,27.578901],[85.393174,27.578847],[85.392882,27.578842],[85.392749,27.578821],[85.392534,27.578899],[85.392359,27.579125],[85.392186,27.579202],[85.391933,27.579143],[85.391652,27.579068],[85.391238,27.579021],[85.391174,27.579078],[85.391137,27.579084],[85.391111,27.57911],[85.391103,27.579157],[85.391108,27.579206],[85.39112,27.579245],[85.391146,27.579296],[85.39098,27.579311],[85.3909,27.579516],[85.390946,27.579565],[85.390971,27.579636],[85.390963,27.579717],[85.390933,27.579792],[85.390864,27.57992],[85.390832,27.579999],[85.390828,27.580034],[85.390841,27.58007],[85.390524,27.580239],[85.390422,27.580125],[85.390133,27.580112],[85.389497,27.580313],[85.388854,27.5804],[85.388463,27.58047],[85.388008,27.580611],[85.387822,27.580513],[85.38737,27.580444],[85.386938,27.580536],[85.386685,27.580704],[85.3867,27.580732],[85.386629,27.580818],[85.386663,27.580964],[85.386541,27.581126],[85.386309,27.581196],[85.386042,27.581103],[85.385842,27.581192],[85.385434,27.581621],[85.384983,27.581664],[85.384919,27.581793],[85.384612,27.581896],[85.384082,27.581917],[85.384041,27.58211],[85.383945,27.582117],[85.383856,27.582271],[85.383844,27.582446],[85.383577,27.582747],[85.383703,27.582907],[85.382373,27.583482],[85.381249,27.584393],[85.381354,27.58503],[85.381709,27.585649],[85.381364,27.586071],[85.381203,27.586646],[85.380621,27.587637],[85.380088,27.587978],[85.379838,27.587991],[85.37986,27.588236],[85.379595,27.588599],[85.379338,27.588597],[85.379328,27.588636],[85.379298,27.588673],[85.379248,27.588694],[85.37889,27.588728],[85.378876,27.588815],[85.378846,27.589011],[85.37884,27.589098],[85.378833,27.589161],[85.378835,27.589241],[85.378842,27.589316],[85.378841,27.589437],[85.378842,27.589614],[85.378816,27.589997],[85.378787,27.590113],[85.378688,27.590332],[85.37867,27.590415],[85.378666,27.590485],[85.378675,27.59056],[85.37874,27.59075],[85.378768,27.590805],[85.378782,27.59086],[85.378783,27.590921],[85.378753,27.591099],[85.378755,27.591176],[85.378774,27.591283],[85.378806,27.591493],[85.378817,27.591582],[85.378817,27.591652],[85.378806,27.591739],[85.378732,27.592037],[85.378652,27.592426],[85.378571,27.592917],[85.378424,27.593611],[85.378365,27.593944],[85.378341,27.594049],[85.378313,27.594119],[85.379592,27.59441],[85.379843,27.594408],[85.380028,27.594386],[85.380208,27.594333],[85.380329,27.59423],[85.380746,27.593679],[85.380862,27.593498],[85.381131,27.593377],[85.381259,27.593426],[85.382121,27.59391]]}}]}