{
  "type": "FeatureCollection",
  "features": [
    {
      "type": "Feature",
      "properties": {},
      "geometry": {
        "type": "LineString",
        "coordinates": [
          [86.7306, 27.68887],
          [86.73053, 27.68892],
          [86.73023, 27.68904],
          [86.73008, 27.6891],
          [86.72992, 27.68918],
          [86.72981, 27.68925],
          [86.7296, 27.68946],
          [86.7292, 27.68981],
          [86.72904, 27.68998],
          [86.72888, 27.6902],
          [86.72888, 27.6902],
          [86.72888, 27.69022],
          [86.72888, 27.69029],
          [86.72886, 27.69042],
          [86.72876, 27.69065],
          [86.72869, 27.69086],
          [86.72864, 27.69089],
          [86.72858, 27.69099],
          [86.72853, 27.69113],
          [86.72851, 27.69126],
          [86.72849, 27.69137],
          [86.7285, 27.69145],
          [86.72852, 27.69148],
          [86.72857, 27.6915],
          [86.72849, 27.69154],
          [86.7284, 27.69156],
          [86.72831, 27.69159],
          [86.72824, 27.69163],
          [86.7282, 27.69167],
          [86.72815, 27.69177],
          [86.72808, 27.69188],
          [86.72801, 27.69203],
          [86.72797, 27.69213],
          [86.72795, 27.69225],
          [86.72799, 27.69232],
          [86.72806, 27.69235],
          [86.72801, 27.69244],
          [86.728, 27.69247],
          [86.72796, 27.69257],
          [86.72793, 27.69261],
          [86.72799, 27.69268],
          [86.7281, 27.69276],
          [86.72819, 27.69282],
          [86.72826, 27.69295],
          [86.72835, 27.693],
          [86.72848, 27.69308],
          [86.72847, 27.69315],
          [86.72837, 27.69322],
          [86.72831, 27.6933],
          [86.7282, 27.69334],
          [86.72807, 27.69346],
          [86.72787, 27.69349],
          [86.72774, 27.69355],
          [86.7276, 27.6936],
          [86.72756, 27.69363],
          [86.72743, 27.69367],
          [86.72734, 27.69371],
          [86.72734, 27.69371],
          [86.72722, 27.69366],
          [86.72711, 27.69374],
          [86.72697, 27.69386],
          [86.7268, 27.69407],
          [86.72661, 27.69433],
          [86.72638, 27.6946],
          [86.72618, 27.69497],
          [86.72607, 27.69506],
          [86.72584, 27.69512],
          [86.72566, 27.69509],
          [86.72555, 27.69505],
          [86.72548, 27.69513],
          [86.72549, 27.69524],
          [86.72551, 27.69545],
          [86.7254, 27.69562],
          [86.7253, 27.69566],
          [86.72515, 27.69578],
          [86.725, 27.69583],
          [86.72452, 27.69585],
          [86.72423, 27.69578],
          [86.72365, 27.69538],
          [86.72299, 27.69526],
          [86.7224, 27.69536],
          [86.72176, 27.69532],
          [86.72098, 27.69516],
          [86.72074, 27.69504],
          [86.71975, 27.69495],
          [86.71959, 27.69486],
          [86.71936, 27.69484],
          [86.7189, 27.6946],
          [86.71872, 27.69445],
          [86.71861, 27.69436],
          [86.7185, 27.69432],
          [86.7185, 27.69421],
          [86.7185, 27.69421],
          [86.7184, 27.69424],
          [86.71834, 27.69427],
          [86.71818, 27.69432],
          [86.71811, 27.6944],
          [86.71805, 27.69442],
          [86.71801, 27.69443],
          [86.71799, 27.69447],
          [86.71793, 27.69455],
          [86.7179, 27.69463],
          [86.71792, 27.69465],
          [86.71793, 27.69469],
          [86.71789, 27.69485],
          [86.71787, 27.69488],
          [86.71784, 27.69491],
          [86.71777, 27.69491],
          [86.71775, 27.69498],
          [86.71762, 27.69515],
          [86.71754, 27.6953],
          [86.71741, 27.69543],
          [86.71733, 27.6955],
          [86.71724, 27.69552],
          [86.71714, 27.6956],
          [86.71708, 27.69573],
          [86.71706, 27.6958],
          [86.71706, 27.69587],
          [86.71708, 27.69601],
          [86.71705, 27.69617],
          [86.71705, 27.69617],
          [86.71709, 27.69619],
          [86.71723, 27.69626],
          [86.71729, 27.69629],
          [86.71734, 27.69639],
          [86.71742, 27.69641],
          [86.71747, 27.69643],
          [86.71751, 27.69647],
          [86.71751, 27.69647],
          [86.71743, 27.69652],
          [86.71741, 27.69658],
          [86.71737, 27.69669],
          [86.71733, 27.69681],
          [86.71738, 27.69685],
          [86.7174, 27.69688],
          [86.71742, 27.69694],
          [86.71743, 27.69704],
          [86.71747, 27.6971],
          [86.7175, 27.69714],
          [86.71757, 27.69717],
          [86.71762, 27.69723],
          [86.71761, 27.69728],
          [86.71759, 27.69732],
          [86.71758, 27.69734],
          [86.71752, 27.69745],
          [86.71752, 27.69745],
          [86.71742, 27.69745],
          [86.71736, 27.69749],
          [86.71727, 27.6976],
          [86.71723, 27.69767],
          [86.71709, 27.69789],
          [86.71705, 27.69797],
          [86.71703, 27.69805],
          [86.71694, 27.69812],
          [86.71686, 27.69811],
          [86.71668, 27.69808],
          [86.71668, 27.69808],
          [86.71671, 27.69815],
          [86.71677, 27.69826],
          [86.7168, 27.69837],
          [86.71679, 27.69852],
          [86.71684, 27.69873],
          [86.71688, 27.69884],
          [86.71688, 27.69894],
          [86.71689, 27.69904],
          [86.71688, 27.69915],
          [86.71689, 27.69925],
          [86.71688, 27.69931],
          [86.71684, 27.69936],
          [86.71682, 27.69945],
          [86.71682, 27.69952],
          [86.71682, 27.69961],
          [86.71685, 27.69971],
          [86.71692, 27.69999],
          [86.717, 27.70032],
          [86.717, 27.70046],
          [86.71699, 27.70062],
          [86.71704, 27.7009],
          [86.71705, 27.70106],
          [86.71699, 27.70124],
          [86.71697, 27.70142],
          [86.71702, 27.70158],
          [86.717, 27.7016],
          [86.717, 27.7016],
          [86.71697, 27.70164],
          [86.71688, 27.70168],
          [86.71682, 27.70172],
          [86.71676, 27.70176],
          [86.71669, 27.70185],
          [86.7166, 27.7019],
          [86.7165, 27.70199],
          [86.71631, 27.70209],
          [86.71615, 27.70214],
          [86.71602, 27.70224],
          [86.71589, 27.70225],
          [86.7158, 27.7023],
          [86.7158, 27.7024],
          [86.71578, 27.70247],
          [86.71573, 27.70253],
          [86.71567, 27.70253],
          [86.71565, 27.70254],
          [86.71563, 27.70256],
          [86.71558, 27.70262],
          [86.71557, 27.70268],
          [86.71549, 27.70278],
          [86.71544, 27.70285],
          [86.71536, 27.70294],
          [86.71517, 27.70316],
          [86.71497, 27.70334],
          [86.71483, 27.70349],
          [86.71472, 27.70355],
          [86.71474, 27.70367],
          [86.71493, 27.70376],
          [86.71506, 27.70394],
          [86.71504, 27.70407],
          [86.71487, 27.70412],
          [86.71484, 27.70427],
          [86.71483, 27.70438],
          [86.71485, 27.70448],
          [86.71494, 27.70455],
          [86.71502, 27.70463],
          [86.71509, 27.70472],
          [86.71505, 27.70479],
          [86.71492, 27.70478],
          [86.71481, 27.70481],
          [86.7148, 27.70484],
          [86.71481, 27.70491],
          [86.71481, 27.70494],
          [86.71481, 27.70494],
          [86.71489, 27.70493],
          [86.71514, 27.70495],
          [86.71536, 27.70498],
          [86.7157, 27.70508],
          [86.71568, 27.70518],
          [86.71561, 27.70529],
          [86.71538, 27.70541],
          [86.71518, 27.70546],
          [86.71498, 27.70563],
          [86.7147, 27.70593],
          [86.71465, 27.70608],
          [86.71447, 27.70633],
          [86.71444, 27.70645],
          [86.71435, 27.70689],
          [86.7142, 27.70703],
          [86.71417, 27.70718],
          [86.7142, 27.70737],
          [86.71412, 27.70751],
          [86.71398, 27.70757],
          [86.71398, 27.70764],
          [86.71404, 27.70769],
          [86.7141, 27.70769],
          [86.71415, 27.70771],
          [86.71419, 27.70776],
          [86.71425, 27.70776],
          [86.71429, 27.70783],
          [86.71438, 27.70781],
          [86.71445, 27.70792],
          [86.71444, 27.708],
          [86.7145, 27.70808],
          [86.7146, 27.70826],
          [86.71466, 27.70847],
          [86.715, 27.70887],
          [86.71518, 27.70911],
          [86.71518, 27.70911],
          [86.71507, 27.7092],
          [86.71481, 27.70943],
          [86.71469, 27.70958],
          [86.71467, 27.70971],
          [86.71472, 27.7099],
          [86.7147, 27.71005],
          [86.71464, 27.7101],
          [86.71459, 27.71017],
          [86.71451, 27.71032],
          [86.71448, 27.71042],
          [86.71454, 27.7105],
          [86.71456, 27.71059],
          [86.71452, 27.71069],
          [86.71448, 27.71083],
          [86.71442, 27.71101],
          [86.71438, 27.71124],
          [86.71431, 27.71137],
          [86.71419, 27.7116],
          [86.714, 27.71175],
          [86.71396, 27.7119],
          [86.71393, 27.71199],
          [86.71386, 27.71209],
          [86.71378, 27.71228],
          [86.71373, 27.71241],
          [86.71366, 27.71254],
          [86.71362, 27.71265],
          [86.71372, 27.71282],
          [86.71377, 27.71286],
          [86.71378, 27.71291],
          [86.71387, 27.71304],
          [86.71399, 27.71311],
          [86.7141, 27.71327],
          [86.71416, 27.71348],
          [86.71429, 27.71362],
          [86.71422, 27.71376],
          [86.71423, 27.71383],
          [86.71426, 27.71395],
          [86.71433, 27.71454],
          [86.71434, 27.71475],
          [86.7143, 27.71489],
          [86.71413, 27.7149],
          [86.71411, 27.71518],
          [86.71416, 27.71534],
          [86.71413, 27.7156],
          [86.7142, 27.71571],
          [86.71433, 27.71587],
          [86.71447, 27.71604],
          [86.71454, 27.71626],
          [86.71472, 27.71633],
          [86.71482, 27.71647],
          [86.71489, 27.7167],
          [86.7149, 27.71678],
          [86.71491, 27.71685],
          [86.71496, 27.71688],
          [86.715, 27.71691],
          [86.71508, 27.71691],
          [86.71516, 27.71696],
          [86.7152, 27.71702],
          [86.71526, 27.71711],
          [86.71533, 27.71722],
          [86.71547, 27.71728],
          [86.71557, 27.71735],
          [86.71565, 27.7174],
          [86.71573, 27.71748],
          [86.71587, 27.71763],
          [86.71582, 27.71773],
          [86.71581, 27.71785],
          [86.71585, 27.71794],
          [86.71586, 27.71801],
          [86.71589, 27.71807],
          [86.71591, 27.71811],
          [86.71594, 27.71826],
          [86.716, 27.71838],
          [86.71601, 27.71841],
          [86.71581, 27.71855],
          [86.71577, 27.71857],
          [86.71561, 27.71863],
          [86.71548, 27.71863],
          [86.71534, 27.71862],
          [86.7152, 27.71861],
          [86.71507, 27.71856],
          [86.71491, 27.71855],
          [86.71481, 27.71852],
          [86.71469, 27.71844],
          [86.71457, 27.71833],
          [86.71448, 27.71827],
          [86.71435, 27.71816],
          [86.71409, 27.71822],
          [86.71387, 27.71824],
          [86.7137, 27.71825],
          [86.71354, 27.71836],
          [86.71349, 27.71841],
          [86.71352, 27.71852],
          [86.71369, 27.71853],
          [86.71383, 27.71856],
          [86.71383, 27.71856],
          [86.71381, 27.71862],
          [86.7138, 27.71869],
          [86.71382, 27.71874],
          [86.71385, 27.71882],
          [86.71393, 27.71891],
          [86.71399, 27.71905],
          [86.71409, 27.71922],
          [86.71412, 27.7193],
          [86.71422, 27.71933],
          [86.71438, 27.71952],
          [86.71449, 27.71966],
          [86.7145, 27.7199],
          [86.71452, 27.72002],
          [86.71459, 27.72014],
          [86.71456, 27.72022],
          [86.71458, 27.72031],
          [86.71456, 27.72051],
          [86.71451, 27.7207],
          [86.71451, 27.72084],
          [86.71448, 27.72095],
          [86.71445, 27.72109],
          [86.71439, 27.72121],
          [86.71438, 27.72138],
          [86.71434, 27.72154],
          [86.71433, 27.72176],
          [86.71429, 27.72193],
          [86.71428, 27.72208],
          [86.7143, 27.72222],
          [86.71429, 27.72235],
          [86.71429, 27.72249],
          [86.71426, 27.7226],
          [86.71426, 27.72277],
          [86.71425, 27.72292],
          [86.71425, 27.72292],
          [86.71411, 27.72297],
          [86.71386, 27.72307],
          [86.71375, 27.7231],
          [86.71365, 27.7231],
          [86.71359, 27.72307],
          [86.7135, 27.72307],
          [86.71345, 27.72312],
          [86.71331, 27.7232],
          [86.71322, 27.72324],
          [86.71322, 27.72324],
          [86.71312, 27.72342],
          [86.7131, 27.72361],
          [86.71313, 27.72383],
          [86.71309, 27.72388],
          [86.71309, 27.72396],
          [86.7131, 27.72405],
          [86.71311, 27.72411],
          [86.71311, 27.72413],
          [86.71311, 27.72416],
          [86.71311, 27.72418],
          [86.71314, 27.72421],
          [86.71321, 27.72424],
          [86.71326, 27.72426],
          [86.7133, 27.72431],
          [86.71331, 27.72438],
          [86.71331, 27.72452],
          [86.71332, 27.72454],
          [86.71333, 27.72463],
          [86.71343, 27.72474],
          [86.71354, 27.7249],
          [86.71359, 27.72498],
          [86.71356, 27.72509],
          [86.71356, 27.72517],
          [86.71361, 27.72524],
          [86.71364, 27.72533],
          [86.71368, 27.72543],
          [86.71373, 27.7255],
          [86.7138, 27.72552],
          [86.71385, 27.72552],
          [86.71387, 27.72557],
          [86.71388, 27.72561],
          [86.71388, 27.72566],
          [86.7139, 27.72574],
          [86.71395, 27.72583],
          [86.71402, 27.72593],
          [86.71415, 27.7259],
          [86.71419, 27.726],
          [86.71425, 27.72607],
          [86.71426, 27.72613],
          [86.71427, 27.72618],
          [86.71433, 27.72622],
          [86.71435, 27.72627],
          [86.71434, 27.72633],
          [86.71428, 27.72649],
          [86.71425, 27.72658],
          [86.71434, 27.72663],
          [86.71434, 27.7267],
          [86.71427, 27.72683],
          [86.71423, 27.72686],
          [86.7142, 27.72689],
          [86.7142, 27.72695],
          [86.71412, 27.72703],
          [86.71404, 27.72713],
          [86.71404, 27.72713],
          [86.71399, 27.72714],
          [86.71391, 27.72714],
          [86.71387, 27.72716],
          [86.71384, 27.72719],
          [86.71385, 27.72723],
          [86.71387, 27.72725],
          [86.7139, 27.72728],
          [86.71394, 27.72731],
          [86.71394, 27.72731],
          [86.71389, 27.72737],
          [86.71386, 27.72738],
          [86.71383, 27.7274],
          [86.71382, 27.72744],
          [86.71384, 27.72747],
          [86.71391, 27.72748],
          [86.71391, 27.72748],
          [86.71391, 27.72748],
          [86.7139, 27.72758],
          [86.71392, 27.72767],
          [86.714, 27.72774],
          [86.71397, 27.72779],
          [86.71392, 27.7279],
          [86.71389, 27.72797],
          [86.71386, 27.72802],
          [86.71377, 27.72807],
          [86.71372, 27.72815],
          [86.71371, 27.72828],
          [86.71367, 27.72838],
          [86.71367, 27.72848],
          [86.71363, 27.72855],
          [86.71361, 27.72869],
          [86.7136, 27.72887],
          [86.71353, 27.72892],
          [86.71347, 27.72894],
          [86.71344, 27.72898],
          [86.71344, 27.72903],
          [86.71345, 27.7291],
          [86.71343, 27.72919],
          [86.71342, 27.72935],
          [86.71347, 27.72946],
          [86.71355, 27.72959],
          [86.71362, 27.72973],
          [86.71364, 27.72976],
          [86.71367, 27.72992],
          [86.71366, 27.73008],
          [86.71367, 27.73024],
          [86.71368, 27.7304],
          [86.71367, 27.7305],
          [86.71365, 27.73057],
          [86.71367, 27.73063],
          [86.71367, 27.73069],
          [86.71363, 27.73077],
          [86.7136, 27.73084],
          [86.71358, 27.73096],
          [86.71356, 27.73108],
          [86.7135, 27.73117],
          [86.71342, 27.73134],
          [86.7134, 27.73146],
          [86.71336, 27.7316],
          [86.71332, 27.73171],
          [86.7133, 27.73174],
          [86.71323, 27.73192],
          [86.71321, 27.73209],
          [86.71314, 27.73236],
          [86.71305, 27.73247],
          [86.71297, 27.73259],
          [86.71294, 27.73273],
          [86.71295, 27.73291],
          [86.71294, 27.73309],
          [86.71287, 27.73321],
          [86.71284, 27.73334],
          [86.71275, 27.73341],
          [86.71267, 27.73348],
          [86.71265, 27.73356],
          [86.71262, 27.73366],
          [86.7126, 27.73366],
          [86.7126, 27.73377],
          [86.71255, 27.7339],
          [86.71256, 27.73398],
          [86.71254, 27.73409],
          [86.71237, 27.73427],
          [86.71221, 27.73459],
          [86.71212, 27.73467],
          [86.71203, 27.73477],
          [86.71195, 27.73489],
          [86.71195, 27.73499],
          [86.71195, 27.73511],
          [86.71193, 27.73525],
          [86.7119, 27.73534],
          [86.71188, 27.73542],
          [86.7118, 27.7355],
          [86.71175, 27.73565],
          [86.71174, 27.73572],
          [86.71172, 27.73578],
          [86.71172, 27.73585],
          [86.71171, 27.73592],
          [86.71171, 27.73592],
          [86.71175, 27.736],
          [86.71178, 27.73604],
          [86.71184, 27.73614],
          [86.7118, 27.73637],
          [86.71181, 27.73646],
          [86.71184, 27.73662],
          [86.71188, 27.7367],
          [86.71201, 27.73696],
          [86.71205, 27.73711],
          [86.71208, 27.73729],
          [86.71223, 27.73747],
          [86.71224, 27.73762],
          [86.71224, 27.73769],
          [86.71221, 27.73775],
          [86.71217, 27.7378],
          [86.71215, 27.73784],
          [86.71208, 27.73795],
          [86.71205, 27.73802],
          [86.71201, 27.73807],
          [86.71187, 27.73837],
          [86.71182, 27.73844],
          [86.71184, 27.73852],
          [86.71186, 27.7386],
          [86.71189, 27.73865],
          [86.71195, 27.73873],
          [86.71197, 27.73882],
          [86.71206, 27.7389],
          [86.71218, 27.73907],
          [86.71225, 27.73918],
          [86.71228, 27.73926],
          [86.7123, 27.73935],
          [86.71233, 27.73946],
          [86.71236, 27.73952],
          [86.71239, 27.73961],
          [86.71243, 27.73967],
          [86.71244, 27.73977],
          [86.7125, 27.7399],
          [86.71258, 27.73999],
          [86.7127, 27.73999],
          [86.71279, 27.74011],
          [86.71271, 27.74018],
          [86.71256, 27.74027],
          [86.71255, 27.74034],
          [86.71257, 27.74043],
          [86.71261, 27.74055],
          [86.71267, 27.7406],
          [86.71267, 27.74064],
          [86.71269, 27.74068],
          [86.71271, 27.74073],
          [86.71278, 27.74085],
          [86.71282, 27.741],
          [86.71285, 27.74121],
          [86.71289, 27.74134],
          [86.71294, 27.74155],
          [86.71296, 27.74172],
          [86.71296, 27.74181],
          [86.71303, 27.74189],
          [86.71331, 27.74216],
          [86.71336, 27.74215],
          [86.71339, 27.74215],
          [86.71345, 27.74222],
          [86.71345, 27.74227],
          [86.71349, 27.74238],
          [86.71361, 27.74246],
          [86.71378, 27.74276],
          [86.71386, 27.74344],
          [86.71386, 27.74344],
          [86.7137, 27.74349],
          [86.71299, 27.74366],
          [86.71284, 27.74373],
          [86.71275, 27.74375],
          [86.71269, 27.74362],
          [86.71226, 27.74383],
          [86.71226, 27.74383],
          [86.71228, 27.74385],
          [86.71238, 27.74403],
          [86.71244, 27.74416],
          [86.71248, 27.74438],
          [86.71256, 27.74452],
          [86.71258, 27.74468],
          [86.71243, 27.74482],
          [86.71243, 27.7449],
          [86.71245, 27.74498],
          [86.71253, 27.74508],
          [86.71257, 27.74522],
          [86.7126, 27.74554],
          [86.71253, 27.74565],
          [86.71248, 27.74571],
          [86.71234, 27.74583],
          [86.71222, 27.74592],
          [86.71218, 27.74604],
          [86.71212, 27.74618],
          [86.71214, 27.74652],
          [86.71221, 27.74665],
          [86.71222, 27.74693],
          [86.71228, 27.74729],
          [86.71247, 27.74777],
          [86.7124, 27.7482],
          [86.71243, 27.74848],
          [86.71239, 27.74872],
          [86.71226, 27.749],
          [86.71206, 27.74951],
          [86.71186, 27.74977],
          [86.71186, 27.7498],
          [86.71161, 27.75007],
          [86.71122, 27.75038],
          [86.71122, 27.75038],
          [86.71121, 27.75051],
          [86.71119, 27.75058],
          [86.71114, 27.75065],
          [86.71109, 27.75086],
          [86.71105, 27.751],
          [86.71089, 27.75111],
          [86.71075, 27.75122],
          [86.71063, 27.75132],
          [86.71056, 27.75137],
          [86.71049, 27.75142],
          [86.71043, 27.75151],
          [86.71037, 27.75159],
          [86.71042, 27.75172],
          [86.71034, 27.75181],
          [86.7103, 27.75186],
          [86.71033, 27.7519],
          [86.71039, 27.75195],
          [86.71026, 27.75197],
          [86.71024, 27.75204],
          [86.7101, 27.75206],
          [86.70988, 27.75211],
          [86.70976, 27.75218],
          [86.70976, 27.75218],
          [86.70983, 27.75233],
          [86.71009, 27.75237],
          [86.71024, 27.75238],
          [86.71046, 27.7524],
          [86.71059, 27.75245],
          [86.71064, 27.75247],
          [86.71063, 27.75256],
          [86.71059, 27.7526],
          [86.71057, 27.75265],
          [86.71054, 27.75271],
          [86.7105, 27.75274],
          [86.71044, 27.75281],
          [86.71038, 27.75283],
          [86.71034, 27.75296],
          [86.71042, 27.75309],
          [86.71041, 27.75316],
          [86.71043, 27.75321],
          [86.7104, 27.75339],
          [86.71047, 27.75356],
          [86.71049, 27.75365],
          [86.71054, 27.75375],
          [86.71051, 27.75385],
          [86.71051, 27.75396],
          [86.71048, 27.75413],
          [86.71043, 27.75451],
          [86.71039, 27.75459],
          [86.71036, 27.75465],
          [86.71047, 27.75477],
          [86.71053, 27.75488],
          [86.71044, 27.75519],
          [86.71033, 27.75528],
          [86.71037, 27.75544],
          [86.71029, 27.75567],
          [86.71016, 27.7559],
          [86.71003, 27.75607],
          [86.71002, 27.7561],
          [86.71003, 27.75612],
          [86.71003, 27.75623],
          [86.71004, 27.75632],
          [86.71004, 27.75651],
          [86.71004, 27.7567],
          [86.71004, 27.75697],
          [86.71006, 27.75715],
          [86.71018, 27.75729],
          [86.71002, 27.75736],
          [86.71, 27.75762],
          [86.70999, 27.75771],
          [86.71, 27.75777],
          [86.70999, 27.75782],
          [86.71001, 27.75792],
          [86.7102, 27.75818],
          [86.71024, 27.75837],
          [86.71031, 27.75854],
          [86.71033, 27.75876],
          [86.71044, 27.75896],
          [86.71047, 27.7592],
          [86.71064, 27.75938],
          [86.71073, 27.75961],
          [86.71095, 27.75988],
          [86.71147, 27.76015],
          [86.71168, 27.7605],
          [86.71179, 27.76055],
          [86.71194, 27.76072],
          [86.71201, 27.761],
          [86.71197, 27.76117],
          [86.71198, 27.76129],
          [86.71206, 27.76134],
          [86.71212, 27.76136],
          [86.71217, 27.76134],
          [86.71224, 27.76138],
          [86.71229, 27.76138],
          [86.71244, 27.76145],
          [86.7126, 27.76152],
          [86.71265, 27.76157],
          [86.71286, 27.76169],
          [86.71295, 27.76164],
          [86.71303, 27.76156],
          [86.71305, 27.76146],
          [86.71314, 27.76141],
          [86.71324, 27.76141],
          [86.71356, 27.76141],
          [86.71368, 27.76147],
          [86.71375, 27.76159],
          [86.7138, 27.76171],
          [86.71385, 27.76175],
          [86.71395, 27.76179],
          [86.71408, 27.7618],
          [86.71427, 27.7619],
          [86.7143, 27.76194],
          [86.71444, 27.7619],
          [86.71451, 27.76189],
          [86.71455, 27.76193],
          [86.71463, 27.76198],
          [86.71467, 27.76197],
          [86.71471, 27.76194],
          [86.71477, 27.76183],
          [86.71482, 27.76181],
          [86.71477, 27.76171],
          [86.71476, 27.76165],
          [86.71478, 27.76162],
          [86.71482, 27.7616],
          [86.71487, 27.76161],
          [86.71496, 27.7616],
          [86.71502, 27.76157],
          [86.71507, 27.76157],
          [86.71513, 27.76149],
          [86.71522, 27.7615],
          [86.71538, 27.76155],
          [86.71546, 27.7615],
          [86.71551, 27.76141],
          [86.71559, 27.76133],
          [86.71568, 27.76134],
          [86.71575, 27.76131],
          [86.71581, 27.7613],
          [86.71587, 27.7613],
          [86.71594, 27.76125],
          [86.71595, 27.76131],
          [86.71605, 27.76135],
          [86.71617, 27.76139],
          [86.71624, 27.76144],
          [86.71629, 27.7615],
          [86.71628, 27.76156],
          [86.71634, 27.76163],
          [86.71641, 27.7617],
          [86.71651, 27.76174],
          [86.7167, 27.76181],
          [86.71681, 27.76182],
          [86.71692, 27.76187],
          [86.717, 27.76192],
          [86.7171, 27.76205],
          [86.7172, 27.76209],
          [86.71727, 27.7622],
          [86.71731, 27.76229],
          [86.71739, 27.76236],
          [86.71743, 27.76243],
          [86.71741, 27.76252],
          [86.71744, 27.76261],
          [86.7175, 27.76267],
          [86.71769, 27.76278],
          [86.7178, 27.76284],
          [86.71788, 27.7629],
          [86.71797, 27.76299],
          [86.71809, 27.76309],
          [86.71824, 27.76315],
          [86.71842, 27.76321],
          [86.71885, 27.76334],
          [86.71897, 27.76338],
          [86.71909, 27.76337],
          [86.71915, 27.76336],
          [86.71939, 27.76354],
          [86.71997, 27.76389],
          [86.71995, 27.76395],
          [86.71993, 27.76403],
          [86.71989, 27.76418],
          [86.72019, 27.76415],
          [86.72124, 27.76401],
          [86.72149, 27.76405],
          [86.72166, 27.76405],
          [86.72174, 27.76405],
          [86.72184, 27.76409],
          [86.72201, 27.76425],
          [86.72208, 27.76438],
          [86.72212, 27.76441],
          [86.72216, 27.7645],
          [86.72233, 27.76462],
          [86.72242, 27.76476],
          [86.7225, 27.76488],
          [86.72255, 27.76503],
          [86.72265, 27.7651],
          [86.72276, 27.76534],
          [86.72279, 27.76541],
          [86.72291, 27.76545],
          [86.723, 27.76546],
          [86.72304, 27.76552],
          [86.72304, 27.76556],
          [86.72299, 27.76569],
          [86.72307, 27.76581],
          [86.7231, 27.76586],
          [86.72319, 27.76595],
          [86.72328, 27.766],
          [86.72336, 27.76608],
          [86.72341, 27.76612],
          [86.72349, 27.76619],
          [86.72347, 27.76626],
          [86.72339, 27.76626],
          [86.72336, 27.76629],
          [86.72335, 27.76639],
          [86.72337, 27.76641],
          [86.72338, 27.76655],
          [86.72336, 27.76663],
          [86.72329, 27.76675],
          [86.72326, 27.76689],
          [86.72323, 27.76699],
          [86.72321, 27.76709],
          [86.72319, 27.7672],
          [86.72317, 27.76732],
          [86.72315, 27.7675],
          [86.72315, 27.76767],
          [86.72314, 27.7679],
          [86.72307, 27.76816],
          [86.72306, 27.76822],
          [86.72302, 27.76847],
          [86.72304, 27.76878],
          [86.72304, 27.76882],
          [86.72307, 27.76886],
          [86.72349, 27.76925],
          [86.72374, 27.76949],
          [86.72379, 27.76947],
          [86.72382, 27.76951],
          [86.72379, 27.76952],
          [86.72381, 27.76953],
          [86.7239, 27.76971],
          [86.72401, 27.76971],
          [86.72398, 27.76975],
          [86.72396, 27.76979],
          [86.72397, 27.76982],
          [86.72389, 27.76987],
          [86.724, 27.76988],
          [86.72414, 27.76995],
          [86.72437, 27.77009],
          [86.72414, 27.77013],
          [86.72414, 27.77017],
          [86.724, 27.77017],
          [86.72377, 27.77014],
          [86.72364, 27.77042],
          [86.72355, 27.77065],
          [86.7234, 27.77094],
          [86.7233, 27.7711],
          [86.72323, 27.77124],
          [86.72315, 27.77134],
          [86.72308, 27.77145],
          [86.72295, 27.77156],
          [86.72287, 27.77166],
          [86.72282, 27.77177],
          [86.72274, 27.77184],
          [86.72274, 27.77203],
          [86.72276, 27.77213],
          [86.72276, 27.77218],
          [86.72278, 27.77221],
          [86.72288, 27.77234],
          [86.72292, 27.77256],
          [86.72291, 27.77263],
          [86.72288, 27.77268],
          [86.72287, 27.77281],
          [86.72288, 27.77289],
          [86.72282, 27.773],
          [86.72275, 27.7731],
          [86.72273, 27.77316],
          [86.72271, 27.77323],
          [86.72268, 27.77327],
          [86.7226, 27.77338],
          [86.72244, 27.77355],
          [86.72224, 27.77379],
          [86.72223, 27.77382],
          [86.72222, 27.77383],
          [86.72221, 27.77386],
          [86.72216, 27.77393],
          [86.72221, 27.77397],
          [86.7222, 27.77402],
          [86.72211, 27.77404],
          [86.72202, 27.77409],
          [86.72207, 27.77414],
          [86.72208, 27.77416],
          [86.72203, 27.7742],
          [86.72197, 27.7742],
          [86.72198, 27.77423],
          [86.72203, 27.77428],
          [86.72197, 27.7743],
          [86.72199, 27.77438],
          [86.72197, 27.77441],
          [86.72194, 27.7744],
          [86.72194, 27.77457],
          [86.72196, 27.77471],
          [86.72199, 27.77486],
          [86.722, 27.77503],
          [86.72196, 27.77511],
          [86.72205, 27.77527],
          [86.72202, 27.77528],
          [86.72202, 27.77535],
          [86.722, 27.77543],
          [86.72209, 27.77553],
          [86.72207, 27.77558],
          [86.72206, 27.77578],
          [86.72205, 27.77586],
          [86.72208, 27.77599],
          [86.72208, 27.77606],
          [86.72206, 27.77617],
          [86.72208, 27.77619],
          [86.72218, 27.77621],
          [86.72218, 27.77625],
          [86.72216, 27.77633],
          [86.72217, 27.77636],
          [86.7222, 27.77639],
          [86.72222, 27.77643],
          [86.72105, 27.77696],
          [86.72114, 27.77702],
          [86.72116, 27.77705],
          [86.72116, 27.77709],
          [86.72124, 27.77719],
          [86.72124, 27.77729],
          [86.72129, 27.77734],
          [86.72137, 27.77737],
          [86.72147, 27.7774],
          [86.72154, 27.77749],
          [86.72172, 27.7776],
          [86.72178, 27.77767],
          [86.72179, 27.77774],
          [86.72189, 27.77792],
          [86.72192, 27.778],
          [86.722, 27.77812],
          [86.72206, 27.77821],
          [86.72203, 27.77825],
          [86.72205, 27.77829],
          [86.72211, 27.77843],
          [86.72215, 27.77857],
          [86.72221, 27.77862],
          [86.72227, 27.77886],
          [86.72239, 27.7791],
          [86.72243, 27.77923],
          [86.72246, 27.77941],
          [86.72248, 27.77953],
          [86.7225, 27.77962],
          [86.72247, 27.77971],
          [86.72245, 27.77984],
          [86.7224, 27.77996],
          [86.72236, 27.78007],
          [86.7223, 27.78024],
          [86.72222, 27.7803],
          [86.72223, 27.78042],
          [86.72311, 27.78068],
          [86.72311, 27.78068],
          [86.72331, 27.78068],
          [86.72336, 27.78074],
          [86.72327, 27.78083],
          [86.7233, 27.78085],
          [86.72337, 27.78091],
          [86.72334, 27.781],
          [86.72354, 27.78134],
          [86.72356, 27.7816],
          [86.72354, 27.7817],
          [86.72361, 27.78189],
          [86.72369, 27.78189],
          [86.72379, 27.78198],
          [86.72381, 27.78215],
          [86.7238, 27.78226],
          [86.72366, 27.78236],
          [86.72351, 27.78254],
          [86.72376, 27.78249],
          [86.72373, 27.78261],
          [86.72368, 27.78267],
          [86.72363, 27.78278],
          [86.72363, 27.78287],
          [86.72385, 27.78298],
          [86.72388, 27.78308],
          [86.72378, 27.78337],
          [86.7237, 27.78351],
          [86.72368, 27.7836],
          [86.72382, 27.78378],
          [86.72382, 27.78394],
          [86.72387, 27.78418],
          [86.72375, 27.78423],
          [86.72359, 27.78428],
          [86.72338, 27.78446],
          [86.72326, 27.78474],
          [86.72311, 27.78489],
          [86.72308, 27.78503],
          [86.72298, 27.78513],
          [86.72281, 27.78523],
          [86.72272, 27.7854],
          [86.72263, 27.7855],
          [86.72262, 27.78559],
          [86.7226, 27.78583],
          [86.72259, 27.78595],
          [86.72265, 27.78607],
          [86.72267, 27.78628],
          [86.72261, 27.78642],
          [86.7224, 27.78649],
          [86.72225, 27.78659],
          [86.72215, 27.78671],
          [86.72198, 27.78681],
          [86.72179, 27.78688],
          [86.72169, 27.78703],
          [86.72163, 27.78714],
          [86.7217, 27.78722],
          [86.72164, 27.78734],
          [86.72144, 27.78744],
          [86.72124, 27.78746],
          [86.72108, 27.78759],
          [86.72084, 27.78763],
          [86.72071, 27.78763],
          [86.72057, 27.78769],
          [86.72046, 27.7878],
          [86.72041, 27.78794],
          [86.72028, 27.7881],
          [86.72026, 27.78823],
          [86.72031, 27.78834],
          [86.72026, 27.78853],
          [86.72022, 27.78869],
          [86.72013, 27.78876],
          [86.71999, 27.78874],
          [86.71996, 27.78882],
          [86.71992, 27.78886],
          [86.71987, 27.78913],
          [86.71986, 27.78926],
          [86.71983, 27.78954],
          [86.71968, 27.78983],
          [86.71959, 27.78997],
          [86.7196, 27.79003],
          [86.71961, 27.79013],
          [86.71958, 27.79018],
          [86.7195, 27.79023],
          [86.71947, 27.79023],
          [86.71841, 27.79029],
          [86.71833, 27.7903],
          [86.71831, 27.79027],
          [86.71815, 27.79032],
          [86.71807, 27.7904],
          [86.71797, 27.79051],
          [86.71794, 27.79056],
          [86.71794, 27.79056],
          [86.71801, 27.79055],
          [86.71805, 27.79055],
          [86.71812, 27.79056],
          [86.71802, 27.79062],
          [86.71796, 27.79066],
          [86.71782, 27.79074],
          [86.71765, 27.79085],
          [86.71757, 27.79095],
          [86.71759, 27.79097],
          [86.71776, 27.79093],
          [86.71769, 27.79099],
          [86.71762, 27.79103],
          [86.71756, 27.79109],
          [86.71747, 27.79121],
          [86.71771, 27.79119],
          [86.71778, 27.79122],
          [86.71778, 27.79127],
          [86.71768, 27.79131],
          [86.71765, 27.79136],
          [86.7175, 27.79145],
          [86.71751, 27.79149],
          [86.71763, 27.79147],
          [86.7177, 27.7915],
          [86.71738, 27.79161],
          [86.71721, 27.79162],
          [86.71697, 27.79162],
          [86.71689, 27.79162],
          [86.71676, 27.7916],
          [86.71673, 27.79153],
          [86.71658, 27.79163],
          [86.71646, 27.79174],
          [86.71642, 27.79177],
          [86.71629, 27.79187],
          [86.71616, 27.79195],
          [86.71605, 27.79203],
          [86.71592, 27.79207],
          [86.71585, 27.79211],
          [86.71583, 27.7922],
          [86.71579, 27.79228],
          [86.71576, 27.79231],
          [86.71578, 27.79231],
          [86.71578, 27.79233],
          [86.71585, 27.79232],
          [86.71592, 27.79227],
          [86.71595, 27.79229],
          [86.71587, 27.79241],
          [86.71587, 27.79245],
          [86.71586, 27.79258],
          [86.71579, 27.79268],
          [86.71581, 27.79272],
          [86.71573, 27.79279],
          [86.71575, 27.79283],
          [86.7158, 27.7928],
          [86.71583, 27.79282],
          [86.71575, 27.79291],
          [86.7157, 27.79299],
          [86.71567, 27.7931],
          [86.71573, 27.7931],
          [86.71586, 27.79304],
          [86.71593, 27.79299],
          [86.71595, 27.79302],
          [86.71593, 27.79306],
          [86.71589, 27.79311],
          [86.71586, 27.79316],
          [86.71593, 27.79314],
          [86.71599, 27.7931],
          [86.71597, 27.79318],
          [86.71595, 27.79325],
          [86.71591, 27.79334],
          [86.71588, 27.79341],
          [86.71582, 27.79346],
          [86.71579, 27.79352],
          [86.71579, 27.79358],
          [86.71576, 27.79376],
          [86.71571, 27.794],
          [86.71579, 27.79408],
          [86.71578, 27.79417],
          [86.71573, 27.79429],
          [86.71566, 27.79443],
          [86.71556, 27.79452],
          [86.71544, 27.79462],
          [86.71546, 27.79479],
          [86.71543, 27.7949],
          [86.71546, 27.79507],
          [86.71538, 27.79512],
          [86.71531, 27.79518],
          [86.71521, 27.79523],
          [86.71504, 27.7952],
          [86.71494, 27.79519],
          [86.71482, 27.79532],
          [86.71475, 27.79537],
          [86.71475, 27.79537],
          [86.71476, 27.79556],
          [86.71468, 27.7957],
          [86.71455, 27.79583],
          [86.7142, 27.79593],
          [86.71396, 27.79593],
          [86.7138, 27.7959],
          [86.71367, 27.79598],
          [86.71356, 27.79617],
          [86.71334, 27.79632],
          [86.71305, 27.79649],
          [86.71281, 27.79672],
          [86.71261, 27.79687],
          [86.71243, 27.79696],
          [86.71234, 27.79703],
          [86.7123, 27.79715],
          [86.71215, 27.79736],
          [86.71201, 27.79752],
          [86.71181, 27.79761],
          [86.71169, 27.79769],
          [86.71175, 27.79793],
          [86.71172, 27.798],
          [86.71175, 27.7981],
          [86.71174, 27.79828],
          [86.71177, 27.79833],
          [86.71176, 27.79841],
          [86.71176, 27.79855],
          [86.71168, 27.7986],
          [86.71151, 27.79866],
          [86.71142, 27.79867],
          [86.71129, 27.79873],
          [86.71127, 27.79885],
          [86.7112, 27.79892],
          [86.7112, 27.79899],
          [86.71118, 27.79909],
          [86.71114, 27.7991],
          [86.7111, 27.79917],
          [86.71113, 27.79924],
          [86.71112, 27.79928],
          [86.71115, 27.79931],
          [86.71111, 27.79933],
          [86.71108, 27.79937],
          [86.71102, 27.79938],
          [86.71094, 27.79938],
          [86.71087, 27.79941],
          [86.7108, 27.79942],
          [86.71072, 27.79948],
          [86.71073, 27.79958],
          [86.71077, 27.79964],
          [86.71083, 27.7998],
          [86.71085, 27.79997],
          [86.71084, 27.80015],
          [86.71097, 27.80028],
          [86.71103, 27.80049],
          [86.71115, 27.80065],
          [86.7112, 27.80074],
          [86.71129, 27.80091],
          [86.71133, 27.80106],
          [86.71138, 27.80115],
          [86.7114, 27.8012],
          [86.7114, 27.80132],
          [86.71142, 27.80138],
          [86.71144, 27.80148],
          [86.71145, 27.80162],
          [86.71129, 27.80198],
          [86.71129, 27.80205],
          [86.7113, 27.8021],
          [86.71128, 27.80215],
          [86.71126, 27.8022],
          [86.71119, 27.80231],
          [86.71106, 27.80244],
          [86.71101, 27.80247],
          [86.71092, 27.80249],
          [86.71088, 27.8025],
          [86.71074, 27.80252],
          [86.71069, 27.80248],
          [86.71062, 27.80246],
          [86.71049, 27.80248],
          [86.71038, 27.80252],
          [86.71038, 27.80252],
          [86.71022, 27.80242],
          [86.71007, 27.80239],
          [86.71004, 27.80239],
          [86.70997, 27.80248],
          [86.7099, 27.80258],
          [86.70987, 27.80265],
          [86.70984, 27.80271],
          [86.70977, 27.8028],
          [86.70972, 27.80286],
          [86.70968, 27.8029],
          [86.70967, 27.80298],
          [86.70972, 27.80313],
          [86.70975, 27.80325],
          [86.70975, 27.8033],
          [86.70973, 27.80333],
          [86.7097, 27.80342],
          [86.70967, 27.80346],
          [86.70957, 27.80351],
          [86.70947, 27.80359],
          [86.70935, 27.80369],
          [86.70931, 27.8037],
          [86.70922, 27.80371],
          [86.70907, 27.80364],
          [86.70901, 27.80359],
          [86.70892, 27.80368],
          [86.70877, 27.80381],
          [86.70865, 27.80388],
          [86.70874, 27.80402],
          [86.70878, 27.80407],
          [86.70883, 27.80413],
          [86.70887, 27.8042],
          [86.70885, 27.80424],
          [86.70886, 27.80427],
          [86.70894, 27.80433],
          [86.70894, 27.80433],
          [86.70887, 27.80438],
          [86.70882, 27.80446],
          [86.70887, 27.80457],
          [86.70893, 27.80469],
          [86.70896, 27.80475],
          [86.70896, 27.80482],
          [86.70899, 27.80497],
          [86.70902, 27.80505],
          [86.70904, 27.8051],
          [86.70905, 27.80521],
          [86.70913, 27.80527],
          [86.70913, 27.80527],
          [86.70909, 27.80531],
          [86.70904, 27.80535],
          [86.70873, 27.80531],
          [86.70873, 27.80531],
          [86.70875, 27.80538],
          [86.7089, 27.80553],
          [86.70902, 27.80565],
          [86.7091, 27.80574],
          [86.70914, 27.80578],
          [86.70914, 27.80578],
          [86.70913, 27.80585],
          [86.70905, 27.80584],
          [86.70903, 27.80589],
          [86.70904, 27.80593],
          [86.70907, 27.80596],
          [86.70911, 27.806],
          [86.70911, 27.806],
          [86.70908, 27.80601],
          [86.70895, 27.80599],
          [86.70887, 27.80596],
          [86.70879, 27.80591],
          [86.70876, 27.80596],
          [86.70879, 27.8061],
          [86.70883, 27.80622],
          [86.70874, 27.80619],
          [86.7088, 27.80638],
          [86.7088, 27.80647],
          [86.70885, 27.80653],
          [86.70887, 27.80658],
          [86.70882, 27.80664],
          [86.70842, 27.80647],
          [86.70834, 27.80644],
          [86.70834, 27.80644],
          [86.70834, 27.80653],
          [86.70839, 27.80666],
          [86.70842, 27.80673],
          [86.70845, 27.80681],
          [86.70845, 27.8069],
          [86.70848, 27.807],
          [86.7085, 27.80708],
          [86.70852, 27.80722],
          [86.70852, 27.80722],
          [86.70816, 27.80718],
          [86.70816, 27.80718],
          [86.7082, 27.80735],
          [86.70825, 27.80757],
          [86.70827, 27.8077],
          [86.70855, 27.80783],
          [86.7087, 27.80793],
          [86.70881, 27.80796],
          [86.70888, 27.808],
          [86.70892, 27.80806],
          [86.70887, 27.80814],
          [86.70882, 27.80832],
          [86.709, 27.80841],
          [86.70906, 27.80846],
          [86.70926, 27.80843],
          [86.70945, 27.80863],
          [86.70959, 27.80867],
          [86.70949, 27.80882],
          [86.70952, 27.80906],
          [86.70952, 27.80906],
          [86.70965, 27.80908],
          [86.70999, 27.80932],
          [86.71019, 27.80931],
          [86.71036, 27.80943],
          [86.71062, 27.8095],
          [86.71082, 27.80995],
          [86.71097, 27.80999],
          [86.71106, 27.81011],
          [86.71179, 27.8103],
          [86.71202, 27.81049],
          [86.71222, 27.81074],
          [86.71222, 27.81074],
          [86.7121, 27.81084],
          [86.71189, 27.81093],
          [86.71169, 27.81114],
          [86.71154, 27.8114],
          [86.71131, 27.81162],
          [86.71095, 27.81171],
          [86.71061, 27.81174],
          [86.71061, 27.81174],
          [86.71069, 27.81183],
          [86.71073, 27.8119],
          [86.71075, 27.81201],
          [86.71077, 27.81211],
          [86.71079, 27.81216],
          [86.71086, 27.81235],
          [86.71086, 27.81263],
          [86.71094, 27.81277],
          [86.71099, 27.81287],
          [86.71108, 27.81301],
          [86.71114, 27.81311],
          [86.7112, 27.81317],
          [86.71131, 27.81323],
          [86.71142, 27.81319],
          [86.71159, 27.81327],
          [86.71169, 27.81329],
          [86.71179, 27.81338],
          [86.71193, 27.81347],
          [86.71214, 27.8135],
          [86.71228, 27.81361],
          [86.71244, 27.8136],
          [86.71269, 27.8138],
          [86.71279, 27.81385],
          [86.71282, 27.81389],
          [86.71286, 27.8139],
          [86.71294, 27.8139],
          [86.71305, 27.81394],
          [86.71315, 27.814],
          [86.71315, 27.814],
          [86.71314, 27.81403],
          [86.71313, 27.81407],
          [86.71312, 27.81418],
          [86.71314, 27.81426],
          [86.71317, 27.81435],
          [86.71323, 27.8144],
          [86.71329, 27.81445],
          [86.71335, 27.8145],
          [86.71347, 27.81459],
          [86.71354, 27.81473],
          [86.71355, 27.81478],
          [86.7137, 27.81499],
          [86.71387, 27.81516],
          [86.71416, 27.81542],
          [86.71436, 27.81555],
          [86.71452, 27.81562],
          [86.71465, 27.81569],
          [86.71475, 27.81576],
          [86.71475, 27.81581],
          [86.71476, 27.81588],
          [86.71478, 27.81591],
          [86.71485, 27.81592],
          [86.71488, 27.81587],
          [86.71493, 27.81584],
          [86.71503, 27.81587],
          [86.71513, 27.81586],
          [86.71518, 27.8159],
          [86.71525, 27.81592],
          [86.71538, 27.81589],
          [86.7155, 27.81588],
          [86.71558, 27.81588],
          [86.71573, 27.81588],
          [86.71573, 27.81588],
          [86.71577, 27.81584],
          [86.71584, 27.81584],
          [86.71588, 27.81588],
          [86.71586, 27.81594],
          [86.71586, 27.81594],
          [86.71595, 27.81603],
          [86.71602, 27.81611],
          [86.71611, 27.81622],
          [86.71623, 27.81632],
          [86.71632, 27.81638],
          [86.71636, 27.81642],
          [86.71638, 27.81648],
          [86.71636, 27.81662],
          [86.71641, 27.81682],
          [86.71643, 27.81705],
          [86.7164, 27.81732],
          [86.71641, 27.8175],
          [86.7165, 27.81762],
          [86.71659, 27.81776],
          [86.71656, 27.81798],
          [86.71649, 27.81816],
          [86.71634, 27.81855],
          [86.71623, 27.81879],
          [86.71613, 27.81928],
          [86.71606, 27.81981],
          [86.71605, 27.81986],
          [86.71603, 27.81995],
          [86.71594, 27.82059],
          [86.71595, 27.82093],
          [86.716, 27.82126],
          [86.71601, 27.82144],
          [86.71601, 27.82144],
          [86.71599, 27.82144],
          [86.71599, 27.82171],
          [86.71599, 27.82171],
          [86.71649, 27.82169],
          [86.71666, 27.82171],
          [86.71688, 27.82175],
          [86.71702, 27.82181],
          [86.71711, 27.82186],
          [86.71728, 27.82195],
          [86.71741, 27.82212],
          [86.71746, 27.8223],
          [86.71765, 27.82246],
          [86.71781, 27.82253],
          [86.71793, 27.82257],
          [86.71816, 27.82264],
          [86.71837, 27.82268],
          [86.71862, 27.8227],
          [86.71884, 27.82268],
          [86.71903, 27.82268],
          [86.71922, 27.82266],
          [86.71922, 27.82266],
          [86.71929, 27.82263],
          [86.71936, 27.82265],
          [86.71965, 27.82273],
          [86.72013, 27.82273],
          [86.72023, 27.82274],
          [86.72026, 27.82277],
          [86.72032, 27.82278],
          [86.72066, 27.82281],
          [86.72081, 27.82283],
          [86.72096, 27.82282],
          [86.7211, 27.82281],
          [86.7211, 27.82281],
          [86.72123, 27.82297],
          [86.72132, 27.82299],
          [86.72147, 27.82311],
          [86.72176, 27.82315],
          [86.72176, 27.82315],
          [86.72178, 27.82319],
          [86.72183, 27.82323],
          [86.72195, 27.82331],
          [86.72208, 27.82338],
          [86.7222, 27.82341],
          [86.72233, 27.82344],
          [86.72249, 27.82351],
          [86.7227, 27.82352],
          [86.72289, 27.82353],
          [86.72306, 27.82358],
          [86.72335, 27.82372],
          [86.72349, 27.82385],
          [86.72359, 27.82392],
          [86.7237, 27.82396],
          [86.72389, 27.82404],
          [86.72398, 27.82411],
          [86.72408, 27.82416],
          [86.72416, 27.82418],
          [86.72418, 27.82419],
          [86.72418, 27.82419],
          [86.72463, 27.82463],
          [86.72487, 27.82484],
          [86.72515, 27.82505],
          [86.7249, 27.82527],
          [86.72482, 27.82543],
          [86.72477, 27.82564],
          [86.72479, 27.82578],
          [86.72497, 27.82589],
          [86.72521, 27.82587],
          [86.72561, 27.82591],
          [86.7261, 27.82584],
          [86.72632, 27.82583],
          [86.72644, 27.82587],
          [86.72659, 27.82582],
          [86.72689, 27.8258],
          [86.72718, 27.82589],
          [86.72733, 27.82609],
          [86.72766, 27.82617],
          [86.72797, 27.8263],
          [86.72811, 27.82635],
          [86.72823, 27.82638],
          [86.72838, 27.82637],
          [86.72855, 27.82636],
          [86.7292, 27.82636],
          [86.72953, 27.82647],
          [86.72977, 27.82659],
          [86.72986, 27.8267],
          [86.7302, 27.82665],
          [86.73023, 27.82664],
          [86.73037, 27.82665],
          [86.73051, 27.82671],
          [86.73066, 27.82674],
          [86.7308, 27.82675],
          [86.73096, 27.82675],
          [86.73136, 27.82669],
          [86.73156, 27.82665],
          [86.7318, 27.82665],
          [86.73194, 27.82665],
          [86.732, 27.82659],
          [86.73226, 27.82648],
          [86.73239, 27.82648],
          [86.73255, 27.82646],
          [86.73272, 27.82643],
          [86.7329, 27.82646],
          [86.733, 27.82647],
          [86.73307, 27.82648],
          [86.73321, 27.82672],
          [86.73323, 27.8268],
          [86.73328, 27.82687],
          [86.73341, 27.82697],
          [86.73347, 27.82702],
          [86.73354, 27.82709],
          [86.73354, 27.82709],
          [86.73355, 27.82719],
          [86.73352, 27.82733],
          [86.73348, 27.8275],
          [86.73344, 27.82766],
          [86.73338, 27.82785],
          [86.73332, 27.82806],
          [86.73332, 27.82828],
          [86.73324, 27.82849],
          [86.73312, 27.82866],
          [86.73297, 27.82876],
          [86.73289, 27.82882],
          [86.73288, 27.8289],
          [86.73296, 27.82904],
          [86.73294, 27.82908],
          [86.73281, 27.82919],
          [86.73288, 27.82932],
          [86.73281, 27.82941],
          [86.73276, 27.82946],
          [86.73273, 27.82951],
          [86.73268, 27.82969],
          [86.73266, 27.82976],
          [86.73271, 27.82983],
          [86.73278, 27.82996],
          [86.73277, 27.83016],
          [86.73267, 27.83034],
          [86.73258, 27.83046],
          [86.73262, 27.83059],
          [86.73267, 27.83075],
          [86.73279, 27.83087],
          [86.73276, 27.83097],
          [86.73279, 27.83107],
          [86.7328, 27.8312],
          [86.73278, 27.83137],
          [86.7328, 27.8315],
          [86.73277, 27.83162],
          [86.73291, 27.83162],
          [86.73303, 27.83162],
          [86.73314, 27.83164],
          [86.73319, 27.83187],
          [86.73326, 27.83211],
          [86.73327, 27.83228],
          [86.73326, 27.83244],
          [86.73323, 27.83249],
          [86.73323, 27.83255],
          [86.73331, 27.83268],
          [86.73329, 27.83286],
          [86.7332, 27.83303],
          [86.7331, 27.83311],
          [86.73325, 27.83321],
          [86.73321, 27.83336],
          [86.73316, 27.8335],
          [86.73313, 27.83356],
          [86.73312, 27.83361],
          [86.73311, 27.83369],
          [86.7331, 27.83377],
          [86.73305, 27.83384],
          [86.73313, 27.83393],
          [86.73317, 27.83404],
          [86.73324, 27.83412],
          [86.73328, 27.83425],
          [86.7333, 27.8345],
          [86.73335, 27.83469],
          [86.73335, 27.8348],
          [86.7333, 27.83487],
          [86.73329, 27.83494],
          [86.7334, 27.83501],
          [86.73353, 27.83517],
          [86.73355, 27.83529],
          [86.73358, 27.83542],
          [86.73401, 27.83609],
          [86.73405, 27.83616],
          [86.73405, 27.83626],
          [86.73401, 27.83638],
          [86.73402, 27.83643],
          [86.73406, 27.83649],
          [86.73415, 27.83655],
          [86.73412, 27.83666],
          [86.73409, 27.83674],
          [86.73406, 27.83682],
          [86.73399, 27.83687],
          [86.73381, 27.83702],
          [86.7337, 27.83712],
          [86.73373, 27.8372],
          [86.73383, 27.83728],
          [86.73388, 27.83731],
          [86.73389, 27.83735],
          [86.73382, 27.83747],
          [86.73397, 27.83751],
          [86.73406, 27.83756],
          [86.73419, 27.83763],
          [86.73428, 27.83768],
          [86.73436, 27.83771],
          [86.73434, 27.83774],
          [86.73425, 27.83787],
          [86.73423, 27.83797],
          [86.73427, 27.83804],
          [86.73435, 27.83814],
          [86.73447, 27.83822],
          [86.73451, 27.83823],
          [86.73447, 27.83827],
          [86.7344, 27.8383],
          [86.73435, 27.83844],
          [86.73442, 27.83849],
          [86.73446, 27.83854],
          [86.73442, 27.83862],
          [86.73444, 27.8387],
          [86.73439, 27.83882],
          [86.7344, 27.83884],
          [86.73444, 27.83889],
          [86.73447, 27.83892],
          [86.73453, 27.83892],
          [86.73459, 27.83891],
          [86.73464, 27.83891],
          [86.73468, 27.83894],
          [86.73472, 27.839],
          [86.73471, 27.83904],
          [86.73472, 27.83909],
          [86.73484, 27.83912],
          [86.73493, 27.83912],
          [86.73504, 27.83914],
          [86.73512, 27.83912],
          [86.73518, 27.8391],
          [86.73531, 27.8391],
          [86.73542, 27.83921],
          [86.73549, 27.83925],
          [86.73551, 27.83932],
          [86.73562, 27.83936],
          [86.7357, 27.83942],
          [86.73574, 27.83947],
          [86.7358, 27.83948],
          [86.73584, 27.83946],
          [86.73588, 27.83943],
          [86.73592, 27.83945],
          [86.73592, 27.83945],
          [86.73595, 27.83947],
          [86.736, 27.8395],
          [86.736, 27.83953],
          [86.73599, 27.83957],
          [86.73593, 27.83961],
          [86.73592, 27.83966],
          [86.73593, 27.8397],
          [86.73594, 27.83977],
          [86.73588, 27.83985],
          [86.73579, 27.84],
          [86.73571, 27.8401],
          [86.73568, 27.84019],
          [86.73567, 27.84026],
          [86.73566, 27.84028],
          [86.73569, 27.84037],
          [86.73574, 27.8404],
          [86.73576, 27.84046],
          [86.73579, 27.84043],
          [86.73583, 27.84048],
          [86.73588, 27.84055],
          [86.73593, 27.84059],
          [86.73595, 27.84052],
          [86.73594, 27.84045],
          [86.73596, 27.84039],
          [86.73599, 27.84033],
          [86.73602, 27.84037],
          [86.73603, 27.84045],
          [86.73607, 27.84053],
          [86.73612, 27.84066],
          [86.73615, 27.84073],
          [86.73619, 27.84072],
          [86.73621, 27.84073],
          [86.73626, 27.84079],
          [86.73629, 27.84075],
          [86.73634, 27.84071],
          [86.73634, 27.84081],
          [86.73637, 27.84076],
          [86.73643, 27.84072],
          [86.73643, 27.84089],
          [86.73648, 27.84093],
          [86.73653, 27.84104],
          [86.73661, 27.84116],
          [86.73672, 27.84121],
          [86.73678, 27.84126],
          [86.73687, 27.84133],
          [86.73695, 27.8414],
          [86.737, 27.84143],
          [86.73708, 27.84152],
          [86.73719, 27.84156],
          [86.73719, 27.84147],
          [86.73715, 27.8414],
          [86.73717, 27.84129],
          [86.73723, 27.84128],
          [86.73725, 27.84124],
          [86.73728, 27.8412],
          [86.7373, 27.84117],
          [86.73731, 27.84124],
          [86.73734, 27.84128],
          [86.73736, 27.84123],
          [86.73737, 27.84119],
          [86.73739, 27.84116],
          [86.73744, 27.84127],
          [86.73751, 27.84134],
          [86.73758, 27.84138],
          [86.73758, 27.84134],
          [86.73756, 27.84128],
          [86.73753, 27.84119],
          [86.73754, 27.84111],
          [86.73766, 27.84125],
          [86.73782, 27.84137],
          [86.73792, 27.84139],
          [86.73795, 27.84146],
          [86.73802, 27.84148],
          [86.73809, 27.84153],
          [86.7382, 27.84162],
          [86.7383, 27.84173],
          [86.73835, 27.8418],
          [86.73841, 27.84197],
          [86.73854, 27.84216],
          [86.73865, 27.84235],
          [86.73864, 27.8424],
          [86.73866, 27.84244],
          [86.73871, 27.84248],
          [86.73882, 27.84268],
          [86.73886, 27.84275],
          [86.73892, 27.8428],
          [86.73899, 27.84283],
          [86.73902, 27.84287],
          [86.73901, 27.84292],
          [86.73906, 27.84295],
          [86.73906, 27.84287],
          [86.7391, 27.84281],
          [86.73936, 27.84315],
          [86.7394, 27.84334],
          [86.73946, 27.84334],
          [86.73953, 27.84343],
          [86.73954, 27.84331],
          [86.73958, 27.84331],
          [86.73983, 27.84356],
          [86.74013, 27.84405],
          [86.74019, 27.84414],
          [86.74044, 27.84437],
          [86.74061, 27.84464],
          [86.74083, 27.84485],
          [86.74086, 27.84498],
          [86.74092, 27.84507],
          [86.74101, 27.84531],
          [86.74101, 27.84546],
          [86.74095, 27.84558],
          [86.74109, 27.84568],
          [86.7413, 27.84581],
          [86.74145, 27.84601],
          [86.7416, 27.84621],
          [86.74177, 27.84636],
          [86.74194, 27.84653],
          [86.74219, 27.84678],
          [86.74228, 27.84691],
          [86.74232, 27.84698],
          [86.74244, 27.84705],
          [86.74238, 27.84715],
          [86.74245, 27.8472],
          [86.74251, 27.84727],
          [86.74262, 27.84726],
          [86.74271, 27.84735],
          [86.74271, 27.84735],
          [86.74271, 27.84745],
          [86.74275, 27.84754],
          [86.74288, 27.84767],
          [86.74289, 27.84784],
          [86.74293, 27.84791],
          [86.74296, 27.84808],
          [86.74333, 27.84861],
          [86.74336, 27.8488],
          [86.74345, 27.84903],
          [86.74351, 27.84949],
          [86.74346, 27.85011],
          [86.74327, 27.85037],
          [86.74326, 27.85044],
          [86.74324, 27.85078],
          [86.74329, 27.85091],
          [86.74316, 27.85113],
          [86.74298, 27.85128],
          [86.74299, 27.85132],
          [86.74299, 27.85132],
          [86.74305, 27.85139],
          [86.74322, 27.85135],
          [86.74323, 27.85142],
          [86.74354, 27.85118],
          [86.7436, 27.85135],
          [86.74371, 27.85133],
          [86.7437, 27.85159],
          [86.74386, 27.85168],
          [86.74395, 27.85171],
          [86.74415, 27.8518],
          [86.74431, 27.85176],
          [86.7444, 27.85169],
          [86.74446, 27.85163],
          [86.74452, 27.85156],
          [86.7446, 27.85154],
          [86.74466, 27.85153],
          [86.74488, 27.85166],
          [86.74512, 27.85154],
          [86.74523, 27.85149],
          [86.74536, 27.85144],
          [86.74543, 27.85142],
          [86.74549, 27.85143],
          [86.74556, 27.85151],
          [86.74567, 27.85148],
          [86.74565, 27.85131],
          [86.74568, 27.85121],
          [86.74582, 27.85116],
          [86.74591, 27.8511],
          [86.74598, 27.85107],
          [86.74617, 27.85089],
          [86.74628, 27.85085],
          [86.74638, 27.85079],
          [86.7465, 27.85073],
          [86.74653, 27.85063],
          [86.74671, 27.85036],
          [86.7467, 27.85025],
          [86.74678, 27.85019],
          [86.7469, 27.84992],
          [86.74695, 27.84968],
          [86.74696, 27.84954],
          [86.74701, 27.8494],
          [86.74698, 27.84923],
          [86.74696, 27.84916],
          [86.74702, 27.84907],
          [86.74707, 27.84904],
          [86.74711, 27.84899],
          [86.74709, 27.8489],
          [86.74705, 27.8488],
          [86.747, 27.84873],
          [86.74696, 27.84864],
          [86.74704, 27.84853],
          [86.74711, 27.84845],
          [86.74717, 27.84832],
          [86.7472, 27.84821],
          [86.74716, 27.84802],
          [86.74709, 27.84793],
          [86.74702, 27.84789],
          [86.74705, 27.84781],
          [86.74702, 27.84771],
          [86.74696, 27.84752],
          [86.74686, 27.84739],
          [86.74679, 27.8473],
          [86.74668, 27.84724],
          [86.7466, 27.84723],
          [86.74655, 27.84718],
          [86.74656, 27.84709],
          [86.74657, 27.84704],
          [86.7465, 27.84697],
          [86.74641, 27.84691],
          [86.74651, 27.84693],
          [86.74643, 27.84683],
          [86.74655, 27.84687],
          [86.74647, 27.84678],
          [86.74642, 27.84667],
          [86.74642, 27.84667],
          [86.74654, 27.84667],
          [86.74661, 27.84671],
          [86.74661, 27.84671],
          [86.74661, 27.84674],
          [86.74661, 27.84674],
          [86.74674, 27.8468],
          [86.74688, 27.84682],
          [86.74707, 27.84687],
          [86.74714, 27.84685],
          [86.74724, 27.84686],
          [86.74732, 27.84685],
          [86.74748, 27.84696],
          [86.7476, 27.84699],
          [86.74778, 27.84704],
          [86.74788, 27.84711],
          [86.74795, 27.84714],
          [86.74812, 27.84727],
          [86.7483, 27.84745],
          [86.74842, 27.8475],
          [86.74853, 27.84756],
          [86.74859, 27.8477],
          [86.74868, 27.84781],
          [86.74873, 27.84793],
          [86.74868, 27.84804],
          [86.74862, 27.84811],
          [86.74861, 27.84832],
          [86.74867, 27.84842],
          [86.74882, 27.84856],
          [86.74892, 27.84864],
          [86.74903, 27.84874],
          [86.74919, 27.84887],
          [86.74929, 27.84901],
          [86.74931, 27.84913],
          [86.74957, 27.84957],
          [86.74973, 27.84981],
          [86.74973, 27.84981],
          [86.74974, 27.84993],
          [86.74959, 27.85006],
          [86.74972, 27.85009],
          [86.74969, 27.85031],
          [86.74971, 27.85047],
          [86.74955, 27.85062],
          [86.74949, 27.85071],
          [86.74946, 27.85085],
          [86.74957, 27.85109],
          [86.74952, 27.85113],
          [86.7495, 27.85123],
          [86.74951, 27.85131],
          [86.74965, 27.85136],
          [86.74964, 27.8514],
          [86.74977, 27.85147],
          [86.74983, 27.85155],
          [86.74987, 27.8517],
          [86.74997, 27.85185],
          [86.74983, 27.8522],
          [86.74978, 27.8524],
          [86.74977, 27.85251],
          [86.74981, 27.85259],
          [86.74984, 27.85266],
          [86.74982, 27.85269],
          [86.74968, 27.85282],
          [86.74961, 27.85293],
          [86.7496, 27.85305],
          [86.74963, 27.85314],
          [86.74961, 27.85323],
          [86.74956, 27.85332],
          [86.74949, 27.85338],
          [86.74946, 27.85345],
          [86.7495, 27.85357],
          [86.74952, 27.85373],
          [86.74948, 27.85387],
          [86.74946, 27.85406],
          [86.74937, 27.85427],
          [86.74928, 27.85435],
          [86.74913, 27.85441],
          [86.74905, 27.85444],
          [86.74903, 27.85448],
          [86.74902, 27.85452],
          [86.74903, 27.85464],
          [86.74901, 27.85477],
          [86.74892, 27.85498],
          [86.74894, 27.85507],
          [86.74895, 27.85516],
          [86.74887, 27.85535],
          [86.74881, 27.85552],
          [86.74865, 27.85574],
          [86.74845, 27.85598],
          [86.74835, 27.85612],
          [86.74828, 27.85623],
          [86.74802, 27.85635],
          [86.74781, 27.85642],
          [86.74773, 27.85644],
          [86.74764, 27.85657],
          [86.74748, 27.8567],
          [86.74743, 27.85696],
          [86.74725, 27.85717],
          [86.74711, 27.85726],
          [86.7471, 27.85732],
          [86.74722, 27.85763],
          [86.74731, 27.85777],
          [86.7473, 27.85791],
          [86.74725, 27.85812],
          [86.74724, 27.85827],
          [86.74725, 27.85843],
          [86.74731, 27.85854],
          [86.7474, 27.85861],
          [86.74766, 27.85869],
          [86.74807, 27.859],
          [86.74819, 27.85921],
          [86.74836, 27.8593],
          [86.74842, 27.85946],
          [86.74829, 27.85964],
          [86.74822, 27.85977],
          [86.74828, 27.85986],
          [86.74822, 27.86004],
          [86.74825, 27.86014],
          [86.7482, 27.86024],
          [86.74816, 27.86035],
          [86.74824, 27.86057],
          [86.74825, 27.86066],
          [86.74822, 27.86076],
          [86.74813, 27.86096],
          [86.7481, 27.8611],
          [86.74832, 27.86118],
          [86.74827, 27.86126],
          [86.74811, 27.86131],
          [86.74797, 27.86125],
          [86.74776, 27.86118],
          [86.74757, 27.86121],
          [86.74751, 27.86128],
          [86.74749, 27.8613],
          [86.74745, 27.86135],
          [86.7474, 27.86144],
          [86.74735, 27.86149],
          [86.74733, 27.8615],
          [86.7473, 27.86158],
          [86.7472, 27.86164],
          [86.74701, 27.86153],
          [86.74686, 27.86144],
          [86.74665, 27.86134],
          [86.74659, 27.86138],
          [86.74648, 27.86144],
          [86.74635, 27.86146],
          [86.74619, 27.86151],
          [86.74599, 27.86154],
          [86.74575, 27.86158],
          [86.74584, 27.86194],
          [86.7459, 27.86224],
          [86.74589, 27.8625],
          [86.74584, 27.8627],
          [86.74566, 27.86289],
          [86.7455, 27.86298],
          [86.74521, 27.86309],
          [86.74507, 27.86319],
          [86.74477, 27.86324],
          [86.74425, 27.86337],
          [86.74398, 27.86339],
          [86.7435, 27.86348],
          [86.74341, 27.86351],
          [86.74353, 27.86359],
          [86.74342, 27.86364],
          [86.74342, 27.86372],
          [86.7434, 27.86386],
          [86.74342, 27.86401],
          [86.74342, 27.86408],
          [86.74338, 27.86416],
          [86.74329, 27.8643],
          [86.74316, 27.86446],
          [86.74294, 27.86469],
          [86.74288, 27.86482],
          [86.74284, 27.86496],
          [86.7428, 27.8651],
          [86.74271, 27.86525],
          [86.74267, 27.86539],
          [86.74266, 27.8655],
          [86.74246, 27.86574],
          [86.74242, 27.866],
          [86.7424, 27.86627],
          [86.74231, 27.86647],
          [86.74207, 27.86664],
          [86.7419, 27.86675],
          [86.74183, 27.86684],
          [86.74184, 27.86688],
          [86.74186, 27.86691],
          [86.74197, 27.86697],
          [86.74191, 27.86707],
          [86.74203, 27.86714],
          [86.74204, 27.86723],
          [86.74213, 27.86718],
          [86.74225, 27.86724],
          [86.74225, 27.86733],
          [86.74217, 27.86756],
          [86.74216, 27.86776],
          [86.74209, 27.8679],
          [86.74197, 27.86799],
          [86.74197, 27.86803],
          [86.74201, 27.86809],
          [86.74199, 27.8682],
          [86.74185, 27.86827],
          [86.74166, 27.86832],
          [86.74152, 27.86837],
          [86.74148, 27.86848],
          [86.74147, 27.8686],
          [86.74152, 27.86871],
          [86.74155, 27.8688],
          [86.74154, 27.86888],
          [86.74153, 27.86902],
          [86.74145, 27.86917],
          [86.74133, 27.86935],
          [86.74126, 27.86958],
          [86.74119, 27.8698],
          [86.74111, 27.86995],
          [86.74109, 27.87009],
          [86.74113, 27.87018],
          [86.74128, 27.87017],
          [86.74152, 27.87019],
          [86.74168, 27.8704],
          [86.74173, 27.87045],
          [86.74178, 27.87057],
          [86.74183, 27.87068],
          [86.74187, 27.87079],
          [86.7419, 27.87092],
          [86.74189, 27.87101],
          [86.74187, 27.87114],
          [86.7418, 27.87128],
          [86.74173, 27.87143],
          [86.74164, 27.87152],
          [86.74151, 27.87157],
          [86.74132, 27.87162],
          [86.74116, 27.87167],
          [86.7411, 27.87172],
          [86.74106, 27.87181],
          [86.74091, 27.87182],
          [86.74073, 27.87181],
          [86.7405, 27.87187],
          [86.74012, 27.87204],
          [86.73995, 27.87205],
          [86.73977, 27.87213],
          [86.73968, 27.87216],
          [86.73963, 27.87223],
          [86.73967, 27.87237],
          [86.73968, 27.87274],
          [86.73955, 27.8729],
          [86.73948, 27.87305],
          [86.73941, 27.87332],
          [86.73943, 27.87355],
          [86.7394, 27.87373],
          [86.73933, 27.8739],
          [86.73936, 27.87399],
          [86.73936, 27.87406],
          [86.73929, 27.87415],
          [86.73923, 27.87419],
          [86.73919, 27.8742],
          [86.73912, 27.87417],
          [86.7391, 27.87421],
          [86.73916, 27.87432],
          [86.73915, 27.87455],
          [86.73919, 27.87465],
          [86.73916, 27.87477],
          [86.73919, 27.87486],
          [86.73919, 27.8753],
          [86.73921, 27.87553],
          [86.73914, 27.87566],
          [86.73901, 27.87578],
          [86.73898, 27.87582],
          [86.73899, 27.87592],
          [86.73897, 27.87601],
          [86.7389, 27.87611],
          [86.73884, 27.8763],
          [86.73873, 27.87636],
          [86.73862, 27.87656],
          [86.73859, 27.87668],
          [86.7386, 27.87683],
          [86.73865, 27.87703],
          [86.73868, 27.87725],
          [86.73867, 27.87758],
          [86.73866, 27.87777],
          [86.73863, 27.87794],
          [86.73851, 27.87812],
          [86.73837, 27.87831],
          [86.7383, 27.8784],
          [86.73826, 27.87855],
          [86.73826, 27.87862],
          [86.73829, 27.87872],
          [86.7383, 27.87885],
          [86.7383, 27.87902],
          [86.73828, 27.87927],
          [86.73822, 27.87946],
          [86.73814, 27.87962],
          [86.73814, 27.87989],
          [86.73816, 27.88012],
          [86.73811, 27.88037],
          [86.73816, 27.88066],
          [86.73815, 27.88099],
          [86.73817, 27.88115],
          [86.73805, 27.88125],
          [86.738, 27.88131],
          [86.73789, 27.88136],
          [86.7378, 27.88142],
          [86.73777, 27.8815],
          [86.73769, 27.88159],
          [86.73768, 27.88171],
          [86.7377, 27.88187],
          [86.73773, 27.88215],
          [86.73773, 27.88229],
          [86.73774, 27.8824],
          [86.73769, 27.8825],
          [86.73766, 27.88263],
          [86.7376, 27.88284],
          [86.73757, 27.88298],
          [86.73754, 27.88303],
          [86.73754, 27.88311],
          [86.73752, 27.88313],
          [86.73747, 27.88316],
          [86.73737, 27.8832],
          [86.73718, 27.88325],
          [86.73698, 27.88332],
          [86.73675, 27.88336],
          [86.73665, 27.88337],
          [86.73644, 27.88336],
          [86.73621, 27.88353],
          [86.73611, 27.8836],
          [86.7361, 27.88378],
          [86.73612, 27.88387],
          [86.7361, 27.88397],
          [86.73606, 27.8843],
          [86.73599, 27.88458],
          [86.73594, 27.88471],
          [86.73593, 27.88472],
          [86.73573, 27.88493],
          [86.73554, 27.88503],
          [86.73546, 27.88513],
          [86.73532, 27.88518],
          [86.7351, 27.88541],
          [86.73488, 27.88563],
          [86.73479, 27.8857],
          [86.73469, 27.88575],
          [86.73447, 27.88578],
          [86.73381, 27.88589],
          [86.73368, 27.88589],
          [86.73354, 27.88595],
          [86.73329, 27.88609],
          [86.73313, 27.8862],
          [86.73296, 27.88629],
          [86.73284, 27.88634],
          [86.73277, 27.88669],
          [86.73276, 27.88691],
          [86.73266, 27.88703],
          [86.73262, 27.88718],
          [86.73265, 27.88731],
          [86.73246, 27.88751],
          [86.73255, 27.88777],
          [86.73253, 27.88792],
          [86.73253, 27.88824],
          [86.73236, 27.88847],
          [86.73216, 27.8887],
          [86.73206, 27.88879],
          [86.732, 27.88892],
          [86.73197, 27.88902],
          [86.73189, 27.88912],
          [86.73173, 27.8893],
          [86.73144, 27.88948],
          [86.73117, 27.88962],
          [86.73062, 27.88979],
          [86.73052, 27.88981],
          [86.73044, 27.88986],
          [86.7305, 27.89038],
          [86.73047, 27.89053],
          [86.73042, 27.89062],
          [86.73038, 27.89081],
          [86.73041, 27.89094],
          [86.73044, 27.89114],
          [86.73048, 27.8913],
          [86.73041, 27.8914],
          [86.73043, 27.8915],
          [86.73045, 27.89159],
          [86.73047, 27.89164],
          [86.73009, 27.89171],
          [86.72997, 27.89181],
          [86.7298, 27.89187],
          [86.72966, 27.89191],
          [86.72955, 27.8919],
          [86.7294, 27.89195],
          [86.7294, 27.89222],
          [86.72919, 27.89225],
          [86.72905, 27.89228],
          [86.72875, 27.89248],
          [86.7286, 27.89259],
          [86.72851, 27.89277],
          [86.72852, 27.89289],
          [86.72857, 27.8929],
          [86.72857, 27.89294],
          [86.72842, 27.89294],
          [86.72843, 27.89306],
          [86.7285, 27.89312],
          [86.72858, 27.89315],
          [86.72859, 27.89319],
          [86.72858, 27.89325],
          [86.7285, 27.89331],
          [86.72801, 27.89329],
          [86.72766, 27.89347],
          [86.72722, 27.89388],
          [86.72708, 27.89403],
          [86.72704, 27.8941],
          [86.72701, 27.8942],
          [86.72689, 27.89427],
          [86.72678, 27.89442],
          [86.72669, 27.8946],
          [86.72664, 27.89464],
          [86.72655, 27.89466],
          [86.72653, 27.89474],
          [86.72653, 27.89484],
          [86.72605, 27.89531],
          [86.72569, 27.89576],
          [86.72561, 27.8959],
          [86.72557, 27.89603],
          [86.72555, 27.89614],
          [86.72545, 27.89624],
          [86.72535, 27.89653],
          [86.72529, 27.89666],
          [86.72528, 27.89677],
          [86.7253, 27.89685],
          [86.72532, 27.89695],
          [86.72529, 27.89706],
          [86.72527, 27.89715],
          [86.72528, 27.89727],
          [86.72533, 27.89747],
          [86.72536, 27.89785],
          [86.72541, 27.89813],
          [86.72557, 27.89839],
          [86.72566, 27.89885],
          [86.72568, 27.89899],
          [86.72573, 27.89914],
          [86.72583, 27.89926],
          [86.72588, 27.89948],
          [86.72586, 27.89957],
          [86.7258, 27.89968],
          [86.7257, 27.89987],
          [86.72566, 27.90011],
          [86.7256, 27.90017],
          [86.72557, 27.9003],
          [86.72554, 27.90054],
          [86.72554, 27.90063],
          [86.72559, 27.90073],
          [86.72556, 27.90089],
          [86.72556, 27.90107],
          [86.72552, 27.90115],
          [86.72548, 27.90123],
          [86.72543, 27.90129],
          [86.7253, 27.90139],
          [86.72527, 27.90154],
          [86.72518, 27.90171],
          [86.72509, 27.90213],
          [86.72507, 27.90222],
          [86.72508, 27.90238],
          [86.72502, 27.90253],
          [86.72497, 27.90273],
          [86.72486, 27.90285],
          [86.72476, 27.90317],
          [86.72476, 27.90317],
          [86.72452, 27.90354],
          [86.7244, 27.90379],
          [86.72427, 27.90397],
          [86.72421, 27.90427],
          [86.7241, 27.90463],
          [86.72397, 27.9048],
          [86.72357, 27.90531],
          [86.72343, 27.90574],
          [86.72331, 27.90603],
          [86.72316, 27.90636],
          [86.72282, 27.90688],
          [86.72277, 27.90704],
          [86.7224, 27.90702],
          [86.72226, 27.90717],
          [86.72197, 27.90729],
          [86.72179, 27.90732],
          [86.7215, 27.90763],
          [86.72148, 27.90765],
          [86.72116, 27.90787],
          [86.72091, 27.9086],
          [86.72087, 27.90887],
          [86.72076, 27.90902],
          [86.72046, 27.90911],
          [86.72043, 27.90934],
          [86.7203, 27.90943],
          [86.72009, 27.90958],
          [86.71997, 27.90989],
          [86.71994, 27.90995],
          [86.71951, 27.91032],
          [86.71933, 27.91049],
          [86.71919, 27.91052],
          [86.71897, 27.91066],
          [86.71893, 27.91078],
          [86.71884, 27.91084],
          [86.71893, 27.91108],
          [86.71886, 27.9113],
          [86.71872, 27.91144],
          [86.71864, 27.9117],
          [86.71864, 27.91184],
          [86.71859, 27.91199],
          [86.71853, 27.91208],
          [86.71858, 27.91228],
          [86.71846, 27.91258],
          [86.71849, 27.91267],
          [86.71849, 27.91267],
          [86.71867, 27.913],
          [86.71873, 27.91316],
          [86.7188, 27.91326],
          [86.71882, 27.91345],
          [86.71889, 27.91366],
          [86.71891, 27.91391],
          [86.7189, 27.91414],
          [86.71892, 27.9143],
          [86.71883, 27.91449],
          [86.71877, 27.91467],
          [86.71871, 27.91499],
          [86.71873, 27.91517],
          [86.71864, 27.91532],
          [86.71856, 27.91552],
          [86.71844, 27.91578],
          [86.71821, 27.91611],
          [86.71793, 27.9164],
          [86.71776, 27.91662],
          [86.71758, 27.9167],
          [86.71744, 27.91681],
          [86.71741, 27.91681],
          [86.71725, 27.9169],
          [86.71708, 27.9169],
          [86.71694, 27.91685],
          [86.71694, 27.91685],
          [86.71673, 27.91658],
          [86.71664, 27.91674],
          [86.71585, 27.91737],
          [86.71562, 27.91766],
          [86.71541, 27.91769],
          [86.71505, 27.918],
          [86.71442, 27.91843],
          [86.71417, 27.9186],
          [86.71383, 27.91875],
          [86.71342, 27.91891],
          [86.71334, 27.91908],
          [86.7132, 27.91923],
          [86.7131, 27.91921],
          [86.71304, 27.91914],
          [86.71291, 27.91915],
          [86.71277, 27.91931],
          [86.71254, 27.91939],
          [86.71228, 27.91952],
          [86.71206, 27.91968],
          [86.71198, 27.91968],
          [86.71196, 27.91962],
          [86.71189, 27.91958],
          [86.71183, 27.9196],
          [86.71178, 27.91969],
          [86.71156, 27.92],
          [86.71124, 27.92032],
          [86.71121, 27.92032],
          [86.71074, 27.9202],
          [86.71068, 27.92009],
          [86.71058, 27.92001],
          [86.71051, 27.91999],
          [86.71032, 27.91996],
          [86.71018, 27.92006],
          [86.71, 27.92017],
          [86.70977, 27.92032],
          [86.70949, 27.92045],
          [86.70939, 27.92054],
          [86.70925, 27.92063],
          [86.70905, 27.92084],
          [86.70906, 27.9211],
          [86.70867, 27.92166],
          [86.70863, 27.92169],
          [86.70851, 27.92192],
          [86.70839, 27.92207],
          [86.70823, 27.92225],
          [86.70814, 27.92258],
          [86.70803, 27.92281],
          [86.70803, 27.92313],
          [86.70812, 27.92343],
          [86.70825, 27.92371],
          [86.70841, 27.92398],
          [86.70836, 27.92433],
          [86.70837, 27.92455],
          [86.70841, 27.92477],
          [86.70843, 27.92496],
          [86.70854, 27.92513],
          [86.70857, 27.92531],
          [86.70851, 27.92536],
          [86.70857, 27.9255],
          [86.70852, 27.92567],
          [86.70852, 27.92585],
          [86.70855, 27.92598],
          [86.70853, 27.92609],
          [86.7085, 27.92621],
          [86.70847, 27.92631],
          [86.70846, 27.92644],
          [86.70849, 27.92659],
          [86.70846, 27.927],
          [86.70841, 27.92735],
          [86.70834, 27.92745],
          [86.70821, 27.92755],
          [86.70807, 27.92764],
          [86.70801, 27.92797],
          [86.70807, 27.92813],
          [86.70807, 27.92822],
          [86.70803, 27.92831],
          [86.70796, 27.9285],
          [86.7081, 27.92877],
          [86.70804, 27.92877],
          [86.70797, 27.92885],
          [86.70777, 27.92971],
          [86.70785, 27.92987],
          [86.70791, 27.93003],
          [86.70792, 27.93032],
          [86.70795, 27.93044],
          [86.70796, 27.93057],
          [86.70792, 27.9307],
          [86.70787, 27.93084],
          [86.70791, 27.93088],
          [86.70791, 27.93092],
          [86.70753, 27.93134],
          [86.70742, 27.93154],
          [86.70739, 27.93191],
          [86.70739, 27.93196],
          [86.70734, 27.93199],
          [86.70728, 27.93203],
          [86.70726, 27.9321],
          [86.70715, 27.93214],
          [86.70709, 27.93222],
          [86.70686, 27.93233],
          [86.70679, 27.93254],
          [86.70675, 27.93277],
          [86.70679, 27.93308],
          [86.70681, 27.93341],
          [86.70683, 27.93357],
          [86.7069, 27.93366],
          [86.70689, 27.93379],
          [86.70667, 27.93396],
          [86.70652, 27.93421],
          [86.70637, 27.93433],
          [86.70623, 27.93455],
          [86.70613, 27.93463],
          [86.70605, 27.93477],
          [86.70578, 27.93491],
          [86.70556, 27.93514],
          [86.70522, 27.93557],
          [86.70505, 27.93577],
          [86.70494, 27.93592],
          [86.70489, 27.93603],
          [86.70484, 27.93606],
          [86.7047, 27.93616],
          [86.70466, 27.93621],
          [86.70465, 27.93632],
          [86.7046, 27.93643],
          [86.70462, 27.93661],
          [86.70461, 27.93676],
          [86.70459, 27.93691],
          [86.70447, 27.93731],
          [86.70442, 27.93744],
          [86.70437, 27.93759],
          [86.7043, 27.9377],
          [86.70408, 27.93802],
          [86.70392, 27.93817],
          [86.70383, 27.93834],
          [86.70367, 27.9385],
          [86.70343, 27.93864],
          [86.70295, 27.93885],
          [86.70268, 27.93896],
          [86.70242, 27.93905],
          [86.70222, 27.93915],
          [86.70208, 27.93923],
          [86.70201, 27.93935],
          [86.70193, 27.93941],
          [86.70183, 27.93948],
          [86.70163, 27.9399],
          [86.70161, 27.94023],
          [86.7015, 27.9404],
          [86.70141, 27.94083],
          [86.70111, 27.94132],
          [86.70102, 27.94137],
          [86.70098, 27.94151],
          [86.70078, 27.94162],
          [86.7007, 27.94182],
          [86.70066, 27.942],
          [86.70064, 27.9422],
          [86.70065, 27.94241],
          [86.70039, 27.94294],
          [86.70007, 27.94325],
          [86.69965, 27.94385],
          [86.69943, 27.94399],
          [86.69899, 27.94453],
          [86.69874, 27.94491],
          [86.69862, 27.94518],
          [86.69854, 27.94536],
          [86.69854, 27.94557],
          [86.69844, 27.94572],
          [86.69829, 27.94585],
          [86.69823, 27.94593],
          [86.6982, 27.94605],
          [86.69815, 27.94614],
          [86.69813, 27.94622],
          [86.69815, 27.94629],
          [86.69785, 27.94682],
          [86.6978, 27.94709],
          [86.6978, 27.94737],
          [86.69776, 27.94742],
          [86.69765, 27.94753],
          [86.69762, 27.94758],
          [86.6975, 27.94771],
          [86.69736, 27.94782],
          [86.69724, 27.94796],
          [86.69713, 27.94807],
          [86.69699, 27.94818],
          [86.69684, 27.9483],
          [86.69674, 27.94851],
          [86.69661, 27.9486],
          [86.69644, 27.94867],
          [86.69612, 27.94883],
          [86.69599, 27.94888],
          [86.69583, 27.94892],
          [86.69577, 27.94894],
          [86.69566, 27.94893],
          [86.69553, 27.94898],
          [86.69536, 27.94911],
          [86.69519, 27.94929],
          [86.69509, 27.94938],
          [86.69496, 27.94947],
          [86.69481, 27.94953],
          [86.69467, 27.94964],
          [86.69443, 27.94985],
          [86.69426, 27.95004],
          [86.69419, 27.95033],
          [86.69425, 27.95062],
          [86.69435, 27.95083],
          [86.69435, 27.951],
          [86.69433, 27.95108],
          [86.69436, 27.95119],
          [86.69437, 27.95136],
          [86.69439, 27.95155],
          [86.6944, 27.95189],
          [86.69439, 27.95224],
          [86.69412, 27.95273],
          [86.69405, 27.95296],
          [86.69398, 27.95317],
          [86.69398, 27.95324],
          [86.6939, 27.95338],
          [86.69393, 27.95343],
          [86.6939, 27.9535],
          [86.69381, 27.95363],
          [86.69392, 27.95375],
          [86.69392, 27.95385],
          [86.69388, 27.95428],
          [86.69348, 27.95451],
          [86.69317, 27.95465],
          [86.6931, 27.95467],
          [86.69299, 27.95472],
          [86.69277, 27.95474],
          [86.69248, 27.95477],
          [86.69221, 27.95471],
          [86.69221, 27.95471],
          [86.69193, 27.9547],
          [86.69197, 27.95479],
          [86.69185, 27.95486],
          [86.69172, 27.95482],
          [86.69165, 27.95492],
          [86.69145, 27.95492],
          [86.69127, 27.95529],
          [86.69117, 27.9552],
          [86.69105, 27.9553],
          [86.69082, 27.95527],
          [86.69085, 27.95537],
          [86.69053, 27.95539],
          [86.69039, 27.95546],
          [86.69014, 27.95549],
          [86.69002, 27.95548],
          [86.68989, 27.9555],
          [86.68978, 27.95552],
          [86.68971, 27.95554],
          [86.68966, 27.95557],
          [86.68951, 27.95563],
          [86.68939, 27.95569],
          [86.6892, 27.95573],
          [86.68903, 27.95566],
          [86.68889, 27.95565],
          [86.68864, 27.95565],
          [86.68846, 27.95572],
          [86.68821, 27.95569],
          [86.68808, 27.95577],
          [86.68802, 27.95586],
          [86.68796, 27.95596],
          [86.68794, 27.95602],
          [86.68792, 27.95611],
          [86.68793, 27.95623],
          [86.68779, 27.95631],
          [86.68746, 27.95621],
          [86.6872, 27.95627],
          [86.6869, 27.95633],
          [86.68674, 27.95633],
          [86.68667, 27.95644],
          [86.68655, 27.95647],
          [86.68645, 27.9565],
          [86.68637, 27.95655],
          [86.68629, 27.95661],
          [86.68601, 27.9567],
          [86.68583, 27.95681],
          [86.68569, 27.95685],
          [86.6857, 27.95692],
          [86.68548, 27.95703],
          [86.68549, 27.95712],
          [86.68537, 27.95718],
          [86.68535, 27.9573],
          [86.68517, 27.95746],
          [86.68501, 27.95751],
          [86.68498, 27.95775],
          [86.68474, 27.95793],
          [86.68474, 27.9581],
          [86.68469, 27.95826],
          [86.6846, 27.95839],
          [86.6845, 27.95856],
          [86.68446, 27.95872],
          [86.68431, 27.95895],
          [86.68425, 27.95913],
          [86.68408, 27.95933],
          [86.68399, 27.95954],
          [86.68396, 27.95984],
          [86.68397, 27.96004],
          [86.6839, 27.9603],
          [86.68366, 27.96032],
          [86.68353, 27.96039],
          [86.68342, 27.96048],
          [86.68337, 27.96058],
          [86.6833, 27.96061],
          [86.68326, 27.96068],
          [86.6832, 27.96074],
          [86.68319, 27.96084],
          [86.68312, 27.96093],
          [86.68308, 27.96107],
          [86.68304, 27.96119],
          [86.68304, 27.96134],
          [86.68304, 27.96141],
          [86.68313, 27.96154],
          [86.68313, 27.96154]
        ]
      }
    }
  ]
}
