{
  "type": "FeatureCollection",
  "generator": "overpass-turbo",
  "copyright": "The data included in this document is from www.openstreetmap.org. The data is made available under ODbL.",
  "timestamp": "2026-04-22T08:41:00Z",
  "features": [
    {
      "type": "Feature",
      "properties": {
        "@id": "relation/1269089",
        "description": "Trekking froma the town of Syabru Bensi (1500m) to the village of Kyanjin Gompa (3880m)",
        "name": "Langtang Trek",
        "network": "nwn",
        "route": "hiking",
        "source": "Originally mapped from GPS tracks and pictures dated 21.10.2010-27.20.2010 by Nepali-French-Italian-German trekking Group. Updated 2023",
        "symbol": "Brauner Strich auf weißem Grund",
        "type": "route",
        "wikidata": "Q106773672"
      },
      "geometry": {
        "type": "MultiLineString",
        "coordinates": [
          [
            [85.5672161, 28.2124247],
            [85.5670662, 28.2125556],
            [85.5671434, 28.2127706],
            [85.5668751, 28.2127361],
            [85.56663, 28.2128047],
            [85.5662943, 28.2130095],
            [85.5661036, 28.2131322],
            [85.5660202, 28.213252],
            [85.5659379, 28.2133249],
            [85.5659019, 28.213273],
            [85.565805, 28.213251],
            [85.5657672, 28.2132424],
            [85.5655927, 28.2131926],
            [85.565524, 28.2131899],
            [85.5652385, 28.2130423],
            [85.5650893, 28.213112],
            [85.5648735, 28.2131148],
            [85.5647377, 28.2130671],
            [85.5645315, 28.2126089],
            [85.5643877, 28.2125287],
            [85.5643104, 28.2122841],
            [85.5642286, 28.2122509],
            [85.564204, 28.2122071],
            [85.5641496, 28.2121677],
            [85.5641067, 28.2121534],
            [85.5640291, 28.2121099],
            [85.5639487, 28.2119923],
            [85.5637123, 28.2117666],
            [85.5636775, 28.2116754],
            [85.5633957, 28.2113796],
            [85.5631174, 28.2112003],
            [85.5624937, 28.2110389],
            [85.5622433, 28.2108012],
            [85.5620221, 28.2107114],
            [85.5620122, 28.2106564],
            [85.5616747, 28.2106024],
            [85.5616412, 28.2106444],
            [85.5615659, 28.2106491],
            [85.5615225, 28.2106891],
            [85.5614586, 28.2107208],
            [85.5613063, 28.2107651],
            [85.5612279, 28.2107735],
            [85.5611555, 28.2107989],
            [85.5611313, 28.210833],
            [85.5610734, 28.2108532],
            [85.5609376, 28.2108263],
            [85.5608107, 28.2108115],
            [85.560719, 28.2107973],
            [85.5606518, 28.2107805],
            [85.5605744, 28.2107833],
            [85.5604735, 28.2108063],
            [85.5604467, 28.2108267],
            [85.5604126, 28.2108267],
            [85.5603897, 28.2107914],
            [85.5603572, 28.210726],
            [85.5602868, 28.2106433],
            [85.5602569, 28.2105527],
            [85.56016, 28.2104857],
            [85.5600672, 28.210444],
            [85.5599814, 28.2104227],
            [85.559885, 28.2104088],
            [85.5597862, 28.2103965],
            [85.5597384, 28.2103589],
            [85.5595231, 28.2103461],
            [85.5594809, 28.210299],
            [85.5593889, 28.2102438],
            [85.5592772, 28.2102137],
            [85.5592031, 28.210179],
            [85.5590455, 28.2101585],
            [85.5589741, 28.2101425],
            [85.5589494, 28.2101289],
            [85.558857, 28.2101442],
            [85.5587786, 28.2101479],
            [85.5586816, 28.210146],
            [85.5585746, 28.2101499],
            [85.558462, 28.2101285],
            [85.5583604, 28.2101434],
            [85.5582777, 28.2101645],
            [85.5582426, 28.2102144],
            [85.5581268, 28.2102058],
            [85.558072, 28.2101595],
            [85.5579543, 28.210147],
            [85.5578914, 28.2101285],
            [85.5577126, 28.2100925],
            [85.5576485, 28.2101023],
            [85.5575514, 28.210075],
            [85.5573561, 28.2100447],
            [85.5572532, 28.2100591],
            [85.5572299, 28.2100858],
            [85.5572429, 28.2102233],
            [85.5569515, 28.2103528],
            [85.5567248, 28.2104165],
            [85.556659, 28.2104188],
            [85.5564002, 28.2104967],
            [85.5563411, 28.2104865],
            [85.5561159, 28.2106347],
            [85.5559059, 28.2107553],
            [85.5558356, 28.2108075],
            [85.5557662, 28.2108275],
            [85.5556654, 28.2108244],
            [85.555555, 28.2107973],
            [85.5554532, 28.2107511],
            [85.5552051, 28.2106985],
            [85.5550804, 28.2106768],
            [85.554966, 28.2106742],
            [85.5547839, 28.2107037],
            [85.5546571, 28.210681],
            [85.5543726, 28.2106257],
            [85.5539657, 28.2106535],
            [85.55375, 28.2106326],
            [85.5536025, 28.2106154],
            [85.5535144, 28.2106103],
            [85.5534037, 28.2106287],
            [85.5533522, 28.2106624],
            [85.5531758, 28.210722],
            [85.5529109, 28.2106763],
            [85.5526952, 28.2105934],
            [85.5523922, 28.2105436],
            [85.5521701, 28.2106241],
            [85.5519386, 28.2105607],
            [85.5517071, 28.2104756],
            [85.551413, 28.2106093],
            [85.5511123, 28.2106048],
            [85.5507948, 28.2105259],
            [85.5505939, 28.2103971],
            [85.5504008, 28.2103261],
            [85.5503003, 28.2103296],
            [85.5500577, 28.2102342],
            [85.5499422, 28.2101603],
            [85.5497833, 28.2101619],
            [85.549544, 28.2100813],
            [85.549237, 28.2100019],
            [85.5490405, 28.2099804],
            [85.5489347, 28.2099227],
            [85.5488987, 28.2098822],
            [85.5488254, 28.2098725],
            [85.5487501, 28.2098935],
            [85.5485872, 28.2099892],
            [85.5484768, 28.2100063],
            [85.5483915, 28.2099914],
            [85.5483152, 28.2100119],
            [85.5481479, 28.2100337],
            [85.5479272, 28.2099899],
            [85.5478028, 28.2099928],
            [85.5476379, 28.2100242],
            [85.5474929, 28.2099867],
            [85.5473328, 28.2099993],
            [85.5472686, 28.2099643],
            [85.547068, 28.2099284],
            [85.5469005, 28.2098633],
            [85.5468226, 28.2098733],
            [85.5467112, 28.2099216],
            [85.5464504, 28.2099129],
            [85.5462969, 28.2099473],
            [85.5462459, 28.2099385],
            [85.5460363, 28.2099832],
            [85.5459659, 28.2100182],
            [85.5458448, 28.2100008],
            [85.5457495, 28.210037],
            [85.5454126, 28.2100289],
            [85.5451585, 28.2100342],
            [85.5449973, 28.2100625],
            [85.5445686, 28.2101193],
            [85.5444742, 28.2101075],
            [85.5443653, 28.2101097],
            [85.5442693, 28.2100903],
            [85.5442194, 28.2100546],
            [85.5441901, 28.2100486],
            [85.5441546, 28.2100644],
            [85.5440609, 28.2100565],
            [85.5437203, 28.2099588],
            [85.5431201, 28.2096923],
            [85.5424865, 28.2095557],
            [85.5423139, 28.2095033],
            [85.5422408, 28.2095122],
            [85.5421049, 28.2094881],
            [85.5419305, 28.2095488],
            [85.5418259, 28.2095525],
            [85.5417433, 28.2096049],
            [85.5416756, 28.2095923],
            [85.5413125, 28.2096423],
            [85.541068, 28.2096921],
            [85.5409918, 28.2096648],
            [85.5407569, 28.2097311],
            [85.5406654, 28.2097394],
            [85.5404964, 28.2098039],
            [85.5401455, 28.2098198],
            [85.5399877, 28.2098018],
            [85.5397194, 28.2098422],
            [85.5392287, 28.2101465],
            [85.5386298, 28.2103951],
            [85.538513, 28.2104166],
            [85.5382168, 28.2105126],
            [85.5379845, 28.2105972],
            [85.537847, 28.2106419],
            [85.537755, 28.2107148],
            [85.5376387, 28.2107746],
            [85.5375451, 28.2108019],
            [85.5374977, 28.2108073],
            [85.5374734, 28.2108073],
            [85.5374268, 28.2107992],
            [85.5373302, 28.2108007],
            [85.5372216, 28.2108463],
            [85.5370292, 28.2109564],
            [85.5368862, 28.2110597],
            [85.5368116, 28.211051],
            [85.536723, 28.2110787],
            [85.5366467, 28.211153],
            [85.5365789, 28.2111737],
            [85.5364961, 28.2111892],
            [85.5363768, 28.2111909],
            [85.5362688, 28.2112063],
            [85.5362129, 28.2112485],
            [85.5361595, 28.2112624],
            [85.5360252, 28.2112647],
            [85.5359952, 28.2112529],
            [85.5359725, 28.2112646],
            [85.5359713, 28.2112997],
            [85.5359248, 28.2113168],
            [85.5358498, 28.2113599],
            [85.5358303, 28.2114031],
            [85.5357959, 28.2114209],
            [85.5357401, 28.2114176],
            [85.5356821, 28.2114267],
            [85.535441, 28.211452],
            [85.5353211, 28.2114556],
            [85.5350741, 28.2115515],
            [85.5349582, 28.211607],
            [85.5348871, 28.2116858],
            [85.5347824, 28.2117619],
            [85.5347209, 28.2117788],
            [85.5346851, 28.2118101],
            [85.5345251, 28.2118447],
            [85.5344695, 28.2118942],
            [85.5343918, 28.2119183],
            [85.5343016, 28.211972],
            [85.5341995, 28.2120067],
            [85.5341363, 28.2120637],
            [85.5340519, 28.21205],
            [85.5337775, 28.2121222],
            [85.5336262, 28.2121777],
            [85.533418, 28.2122643],
            [85.5332986, 28.2123159],
            [85.5332331, 28.2123135],
            [85.5330333, 28.2124026],
            [85.532857, 28.2124477],
            [85.5326784, 28.2124509],
            [85.5325606, 28.2124505],
            [85.5324679, 28.212507],
            [85.5321601, 28.2125926],
            [85.5320128, 28.2126156],
            [85.5316688, 28.2126443],
            [85.5315107, 28.2126735],
            [85.5312819, 28.212746],
            [85.5311389, 28.2128013],
            [85.5310047, 28.2128651],
            [85.5308744, 28.2129155],
            [85.5306299, 28.2130688],
            [85.530543, 28.2131564],
            [85.5304385, 28.2132021],
            [85.5302751, 28.2132607],
            [85.5302328, 28.2133817],
            [85.5299912, 28.2134825],
            [85.5299462, 28.213527],
            [85.5298009, 28.2135726],
            [85.5291402, 28.213956],
            [85.5290593, 28.2139759],
            [85.5289834, 28.2140172],
            [85.5287667, 28.2141276],
            [85.5285684, 28.2142755],
            [85.5283057, 28.2144481],
            [85.5282421, 28.2145552],
            [85.5281261, 28.2146549],
            [85.5280352, 28.2147784],
            [85.5279773, 28.2147959],
            [85.5278343, 28.2148234],
            [85.5277202, 28.2148794],
            [85.5276638, 28.2149449],
            [85.5276231, 28.2149956],
            [85.5275474, 28.2150373],
            [85.5274541, 28.2150616],
            [85.5274103, 28.2150871],
            [85.5271855, 28.215214],
            [85.5270208, 28.215272],
            [85.5268909, 28.2152804],
            [85.5267516, 28.2153571],
            [85.5266846, 28.2153764],
            [85.5266259, 28.2153697],
            [85.5265145, 28.2153913],
            [85.5262872, 28.2154431],
            [85.5261911, 28.2154281],
            [85.5260377, 28.2154466],
            [85.5259438, 28.2154505],
            [85.5258999, 28.2154374],
            [85.5258292, 28.2153971],
            [85.5256508, 28.2154238],
            [85.5255128, 28.2154561],
            [85.5254891, 28.2154618],
            [85.525437, 28.215474],
            [85.5253866, 28.2154821],
            [85.5253366, 28.2154878],
            [85.525309, 28.2154968],
            [85.5252645, 28.2155052],
            [85.5252423, 28.2155076],
            [85.5250964, 28.2155346],
            [85.5250424, 28.2155575],
            [85.5249465, 28.2155409],
            [85.5245309, 28.2154475],
            [85.5243001, 28.2154723],
            [85.524036, 28.2154714],
            [85.5238753, 28.215443],
            [85.5237554, 28.2153889],
            [85.5236725, 28.2153761],
            [85.5236657, 28.2153751],
            [85.523634, 28.215347],
            [85.5235065, 28.215339],
            [85.5234787, 28.2153642],
            [85.5234652, 28.2153711],
            [85.5234236, 28.2153923],
            [85.5231387, 28.2154671],
            [85.5230724, 28.2154546],
            [85.5229841, 28.215466],
            [85.5229356, 28.2154572],
            [85.5228741, 28.2155028],
            [85.522737, 28.2155666],
            [85.5225461, 28.21564],
            [85.5224672, 28.2156651],
            [85.5223963, 28.2157652],
            [85.522379, 28.2158071],
            [85.5223612, 28.2158338],
            [85.5223478, 28.2158481],
            [85.5223251, 28.2158567],
            [85.522279, 28.2158505],
            [85.5221998, 28.2157716],
            [85.5221478, 28.2157497],
            [85.5220782, 28.2157363],
            [85.5218943, 28.2157775],
            [85.5218488, 28.2158092],
            [85.5218021, 28.2158152],
            [85.5217674, 28.2158107],
            [85.5217095, 28.2157946],
            [85.5216398, 28.2158017],
            [85.5214138, 28.215804],
            [85.5213536, 28.2158163],
            [85.521167, 28.2158077],
            [85.521126, 28.2157818],
            [85.5210245, 28.2157786],
            [85.5209697, 28.2157882],
            [85.5209321, 28.2157988],
            [85.5208977, 28.2158009],
            [85.52085, 28.2157934],
            [85.5208206, 28.2157794],
            [85.52074, 28.2157475],
            [85.5206988, 28.2157341],
            [85.5206585, 28.2157297],
            [85.5205764, 28.2156873],
            [85.5205788, 28.2156462],
            [85.5205481, 28.2156114],
            [85.5205134, 28.2156159],
            [85.5204545, 28.2156078],
            [85.5203411, 28.2155577],
            [85.5202582, 28.2155381],
            [85.5201796, 28.2155214],
            [85.5201114, 28.2155029],
            [85.5200365, 28.215489],
            [85.5199831, 28.2154418],
            [85.5198611, 28.2153872],
            [85.5196235, 28.2154001],
            [85.5194282, 28.2154094],
            [85.5191984, 28.2154288],
            [85.5189883, 28.2154328],
            [85.5186672, 28.2154116],
            [85.5186219, 28.2153924],
            [85.5184759, 28.2153673],
            [85.5183404, 28.2153696],
            [85.5182688, 28.2153966],
            [85.5181973, 28.2154053],
            [85.5180275, 28.2153205],
            [85.5178445, 28.2152519],
            [85.5177576, 28.2152267],
            [85.5176749, 28.2153157],
            [85.5176605, 28.2153351],
            [85.5175837, 28.2154385],
            [85.5173225, 28.2156513],
            [85.5173083, 28.2157453],
            [85.5171433, 28.2157781],
            [85.5170981, 28.2158576],
            [85.5170279, 28.2159294],
            [85.5169557, 28.2159667],
            [85.5169261, 28.2159773],
            [85.5168456, 28.2159589],
            [85.5166968, 28.2158253],
            [85.5166269, 28.2157927],
            [85.5165975, 28.215779],
            [85.5165264, 28.2157648],
            [85.5164122, 28.2157818],
            [85.5162839, 28.2158156],
            [85.5158014, 28.2158299],
            [85.5157349, 28.2158611],
            [85.5156482, 28.2158605],
            [85.515291, 28.2158709],
            [85.5151912, 28.2158812],
            [85.5150286, 28.2159046],
            [85.5146997, 28.2159845],
            [85.5145469, 28.2160135],
            [85.5144401, 28.2160125],
            [85.5142875, 28.2160481],
            [85.5142012, 28.216039],
            [85.5141549, 28.2160473],
            [85.5140367, 28.2161135],
            [85.5140186, 28.2161219],
            [85.5139265, 28.2161648],
            [85.5139074, 28.2161959],
            [85.5138704, 28.2162407],
            [85.513801, 28.2162811],
            [85.513765, 28.2162822],
            [85.5137122, 28.2162959],
            [85.513639, 28.2163561],
            [85.5135624, 28.2164006],
            [85.5134668, 28.2164662],
            [85.5133166, 28.2164968],
            [85.5131256, 28.2164729],
            [85.5130251, 28.2164257],
            [85.5128776, 28.2164185],
            [85.5126978, 28.2164364],
            [85.5125506, 28.2165102],
            [85.5123892, 28.2164748],
            [85.5122466, 28.2164904],
            [85.5121561, 28.2164719],
            [85.5121068, 28.2164343],
            [85.5120008, 28.2163113],
            [85.5119158, 28.216197],
            [85.5117261, 28.2159507],
            [85.5116273, 28.2158513],
            [85.5115345, 28.2157574],
            [85.5113796, 28.2156548],
            [85.5112507, 28.2155286],
            [85.5111049, 28.2153897],
            [85.510781, 28.2151998],
            [85.5105414, 28.2151681],
            [85.5102901, 28.2151908],
            [85.50995, 28.2153904],
            [85.5098902, 28.2153968],
            [85.5097948, 28.215349],
            [85.5097783, 28.2153173],
            [85.5097723, 28.2152885],
            [85.509725, 28.2152694],
            [85.5096687, 28.2152674],
            [85.5096277, 28.2152659],
            [85.5095319, 28.2152729],
            [85.5094793, 28.2153113],
            [85.5094449, 28.2153463],
            [85.5094171, 28.215428],
            [85.5092987, 28.215523],
            [85.5092717, 28.215614],
            [85.5092143, 28.2156682],
            [85.5091754, 28.215721],
            [85.5091395, 28.2157573],
            [85.5090832, 28.2157919],
            [85.5090515, 28.2158023],
            [85.5090368, 28.2158071],
            [85.5089886, 28.2158038],
            [85.508938, 28.2157846],
            [85.5088962, 28.2157905],
            [85.5088703, 28.2158271],
            [85.5088219, 28.2158632],
            [85.5087808, 28.2158881],
            [85.5086632, 28.2158996],
            [85.5086361, 28.2159161],
            [85.5085715, 28.2159921],
            [85.5085287, 28.2160117],
            [85.5084486, 28.2160141],
            [85.5083844, 28.2159986],
            [85.5083431, 28.2159541],
            [85.5082566, 28.2159254],
            [85.5081812, 28.2159273],
            [85.5081097, 28.2159512],
            [85.5080303, 28.2160016],
            [85.5079669, 28.2160223],
            [85.5079143, 28.2160093],
            [85.5078558, 28.2159796],
            [85.5077954, 28.2159769],
            [85.5077226, 28.2159531],
            [85.5073974, 28.2157527],
            [85.507288, 28.2156637],
            [85.507239, 28.2156387],
            [85.5071176, 28.2156005],
            [85.5069233, 28.2155836],
            [85.5067875, 28.215605],
            [85.5066492, 28.215663],
            [85.506564, 28.2156735],
            [85.5063525, 28.2156935],
            [85.5061752, 28.2157337],
            [85.5060122, 28.2157438],
            [85.5058376, 28.2157961],
            [85.5057339, 28.2158557],
            [85.5057017, 28.2158742],
            [85.5055793, 28.2158599],
            [85.5054669, 28.2158715],
            [85.5053493, 28.2158533],
            [85.5052, 28.2158126],
            [85.5050964, 28.215821],
            [85.5050406, 28.2157942],
            [85.5050001, 28.2157536],
            [85.5049163, 28.2157227],
            [85.5048459, 28.215705],
            [85.5047969, 28.2157039],
            [85.5047069, 28.2157183],
            [85.5046371, 28.2157059],
            [85.5045036, 28.2156538],
            [85.5043237, 28.21567],
            [85.5042021, 28.2156687],
            [85.5041744, 28.2156691],
            [85.5041682, 28.2156721],
            [85.5041449, 28.2156669],
            [85.50411, 28.2156367],
            [85.5039967, 28.2154564],
            [85.5039029, 28.2153583],
            [85.503855, 28.2152817],
            [85.5038101, 28.2151983],
            [85.5037561, 28.215177],
            [85.5037103, 28.2152172],
            [85.5036008, 28.2152987],
            [85.503476, 28.2155033],
            [85.5031776, 28.2156852],
            [85.5030007, 28.2157142],
            [85.502855, 28.2158115],
            [85.5027464, 28.2158126],
            [85.5024773, 28.2157901],
            [85.5022196, 28.2158317],
            [85.5020468, 28.2158409],
            [85.5019285, 28.2157959],
            [85.5017667, 28.215841],
            [85.5016552, 28.2158646],
            [85.5015541, 28.2158419],
            [85.5014326, 28.2158279],
            [85.5012381, 28.2155846],
            [85.501098, 28.2155712],
            [85.5010246, 28.215459],
            [85.5009485, 28.2154595],
            [85.5008074, 28.2157651],
            [85.5006253, 28.2157716],
            [85.5004951, 28.2158829],
            [85.5003626, 28.2158577],
            [85.5002501, 28.216088],
            [85.500127, 28.2160982],
            [85.5000279, 28.2160951],
            [85.4998687, 28.2159859],
            [85.4997306, 28.2158862],
            [85.4995895, 28.2158173],
            [85.4993998, 28.2158017],
            [85.4993186, 28.2157676],
            [85.4992658, 28.2157317],
            [85.4992108, 28.2157255],
            [85.4991682, 28.2157449],
            [85.4991621, 28.2157994],
            [85.4990975, 28.2159038],
            [85.4990165, 28.2159636],
            [85.498972, 28.2159727],
            [85.4988387, 28.2160597],
            [85.4987462, 28.2160822],
            [85.4986366, 28.2160914],
            [85.4984606, 28.2160643],
            [85.4983318, 28.2160777],
            [85.4982669, 28.2160718],
            [85.4981864, 28.2160419],
            [85.498132, 28.2160413],
            [85.4980817, 28.2160589],
            [85.4980119, 28.2161198],
            [85.4978567, 28.2162023],
            [85.497784, 28.2162179],
            [85.4977328, 28.2162503],
            [85.4976975, 28.2162433],
            [85.4976638, 28.216227],
            [85.4976752, 28.2160735],
            [85.4975638, 28.2158329],
            [85.4972481, 28.2154566],
            [85.4968877, 28.2151915],
            [85.4968043, 28.2149394],
            [85.4967381, 28.2149139],
            [85.4966824, 28.214914],
            [85.4966478, 28.2149053],
            [85.4965095, 28.2147911],
            [85.496155, 28.2147154],
            [85.496091, 28.2146579],
            [85.4960016, 28.2146381],
            [85.4959877, 28.2145892],
            [85.4958282, 28.2145087],
            [85.4956809, 28.2145465],
            [85.4955649, 28.2145427],
            [85.4954413, 28.2144805],
            [85.4953309, 28.2144595],
            [85.4950757, 28.2143281],
            [85.4949868, 28.2142083],
            [85.4948995, 28.2141481],
            [85.4947976, 28.2141145],
            [85.4947218, 28.2141171],
            [85.4946639, 28.2141569],
            [85.4946217, 28.2142009],
            [85.4945635, 28.2142794],
            [85.4945443, 28.214368],
            [85.4944927, 28.2144134],
            [85.4944047, 28.2144206],
            [85.4940303, 28.2143226],
            [85.4938876, 28.2143019],
            [85.4938355, 28.2142632],
            [85.493753, 28.2142705],
            [85.4935728, 28.2142256],
            [85.4934189, 28.2141445],
            [85.4932914, 28.2139948],
            [85.4931048, 28.2136769],
            [85.4929888, 28.2135738],
            [85.4929469, 28.2135341],
            [85.4929117, 28.2134924],
            [85.4927593, 28.213444],
            [85.4926902, 28.2133924],
            [85.4926574, 28.2133306],
            [85.4926027, 28.2132252],
            [85.4925163, 28.2131339],
            [85.4924584, 28.2131102],
            [85.4923228, 28.2130098],
            [85.4921718, 28.2129837],
            [85.4920155, 28.2129779],
            [85.4918457, 28.2130156],
            [85.4918037, 28.2130197],
            [85.4917845, 28.2130032],
            [85.4917078, 28.2128996],
            [85.4915295, 28.212792],
            [85.4912855, 28.2127204],
            [85.490945, 28.2125111],
            [85.4909034, 28.2124553],
            [85.490572, 28.2124248],
            [85.4903304, 28.2124388],
            [85.4901352, 28.2124921],
            [85.4900374, 28.2124828],
            [85.48998, 28.2124962],
            [85.489899, 28.2125471],
            [85.4898693, 28.2125425],
            [85.4898325, 28.2125375],
            [85.4897558, 28.2124715],
            [85.4896558, 28.2124312],
            [85.4894757, 28.2124147],
            [85.4893769, 28.2124302],
            [85.489306, 28.2123978],
            [85.4892758, 28.2123403],
            [85.48916, 28.2122699],
            [85.4890906, 28.2122006],
            [85.4890369, 28.2121883],
            [85.4888955, 28.2122024],
            [85.4888395, 28.2121801],
            [85.4887917, 28.2121471],
            [85.4883322, 28.2120582],
            [85.4880949, 28.2119753],
            [85.488041, 28.2119233],
            [85.4878028, 28.2118501],
            [85.487701, 28.2118667],
            [85.4875995, 28.2118612],
            [85.4875426, 28.2118814],
            [85.4874742, 28.211943],
            [85.4873949, 28.2119505],
            [85.4872547, 28.2119342],
            [85.4871213, 28.2118892],
            [85.4868875, 28.2117802],
            [85.4868556, 28.2116996],
            [85.4867105, 28.211696],
            [85.4865917, 28.2117066],
            [85.4864766, 28.2116826],
            [85.4862054, 28.2117128],
            [85.4860528, 28.2116998],
            [85.4858994, 28.2116353],
            [85.4857841, 28.2116399],
            [85.4857302, 28.2116718],
            [85.485641, 28.2116937],
            [85.4855181, 28.2116685],
            [85.4854379, 28.2116133],
            [85.4853814, 28.2116177],
            [85.4853371, 28.211655],
            [85.485298, 28.2116479],
            [85.4852722, 28.2116255],
            [85.485163, 28.2113695],
            [85.4850979, 28.2113123],
            [85.4850398, 28.2112907],
            [85.4849971, 28.2112531],
            [85.4848451, 28.2111722],
            [85.4847136, 28.2111717],
            [85.4845356, 28.2111981],
            [85.4844148, 28.211181],
            [85.4841823, 28.2110532],
            [85.4839834, 28.2108876],
            [85.4836256, 28.2108592],
            [85.4834242, 28.2107572],
            [85.4833528, 28.2107535],
            [85.4832636, 28.2107201],
            [85.483159, 28.2106389],
            [85.4830731, 28.21061],
            [85.4829964, 28.2106397],
            [85.4827994, 28.2108347],
            [85.4826195, 28.2109554],
            [85.4825582, 28.2109552],
            [85.4825065, 28.210934],
            [85.4824133, 28.210725],
            [85.4823969, 28.2106092],
            [85.4824345, 28.2103732],
            [85.4823951, 28.2103205],
            [85.4822922, 28.2102387],
            [85.4821345, 28.2101556],
            [85.4818663, 28.210034],
            [85.4817489, 28.2100547],
            [85.4816593, 28.2100539],
            [85.4815955, 28.2100083],
            [85.4814515, 28.2098297],
            [85.4814216, 28.2098148],
            [85.4813606, 28.2097846],
            [85.4812765, 28.2097892],
            [85.4811827, 28.2098318],
            [85.4811354, 28.2098056],
            [85.4810745, 28.2098032],
            [85.4810458, 28.2098144],
            [85.481001, 28.2099007],
            [85.4809673, 28.2099193],
            [85.4809092, 28.2099043],
            [85.480844, 28.2098141],
            [85.4806863, 28.2097654],
            [85.4804177, 28.2095392],
            [85.4797812, 28.2094624],
            [85.4796888, 28.2093948],
            [85.479484, 28.2094244],
            [85.4794234, 28.2094752],
            [85.4793556, 28.2094909],
            [85.4792397, 28.2094655],
            [85.47889, 28.209321],
            [85.4784381, 28.2091989],
            [85.4782246, 28.2091505],
            [85.4780857, 28.2091483],
            [85.4778033, 28.2091111],
            [85.4776772, 28.2091197],
            [85.4776142, 28.2091214],
            [85.4775509, 28.2091177],
            [85.4774121, 28.2091194],
            [85.4772794, 28.2090826],
            [85.4768974, 28.2089469],
            [85.4767239, 28.2088488],
            [85.4766391, 28.2087696],
            [85.4765763, 28.2086281],
            [85.4764517, 28.208467],
            [85.4762838, 28.2083422],
            [85.4760127, 28.2082908],
            [85.4757715, 28.2081379],
            [85.4755799, 28.2079939],
            [85.4755014, 28.2078944],
            [85.4753057, 28.2077732],
            [85.4752005, 28.2076592],
            [85.4750842, 28.2076059],
            [85.4748575, 28.207659],
            [85.474816, 28.2076345],
            [85.4748128, 28.2075508],
            [85.4747884, 28.2074916],
            [85.4747312, 28.2074926],
            [85.4746278, 28.2075629],
            [85.4745238, 28.2076608],
            [85.4745196, 28.2077889],
            [85.4744705, 28.2078191],
            [85.4744073, 28.207797],
            [85.4743117, 28.2076601],
            [85.4742701, 28.2075177],
            [85.4742027, 28.2074982],
            [85.474168, 28.207478],
            [85.4741569, 28.2074591],
            [85.4741494, 28.2073581],
            [85.474111, 28.2072344],
            [85.4740466, 28.2071259],
            [85.4740607, 28.2070635],
            [85.4740183, 28.2069356],
            [85.4739621, 28.2068274],
            [85.4738767, 28.206754],
            [85.4736102, 28.2067122],
            [85.4734688, 28.2065609],
            [85.4732793, 28.2064803],
            [85.4730546, 28.2061986],
            [85.4726328, 28.2060298],
            [85.4722364, 28.2059547],
            [85.4721567, 28.2058923],
            [85.4720362, 28.2056883],
            [85.4719048, 28.2056091],
            [85.471497, 28.2054621],
            [85.471037, 28.2054423],
            [85.4708833, 28.2054409],
            [85.4707579, 28.2054335],
            [85.4706177, 28.2054147],
            [85.4704381, 28.2053892],
            [85.4702055, 28.2053522],
            [85.4701088, 28.2052779],
            [85.4700508, 28.2052753],
            [85.4699623, 28.2053245],
            [85.4699109, 28.2053063],
            [85.4698912, 28.2052226],
            [85.4698767, 28.2051971],
            [85.4697874, 28.2051349],
            [85.4693169, 28.2049398],
            [85.4691422, 28.204858],
            [85.4689431, 28.2048153],
            [85.4688503, 28.2047284],
            [85.4687159, 28.2046766],
            [85.4684387, 28.2045489],
            [85.4680368, 28.2043016],
            [85.4678066, 28.2042732],
            [85.4675746, 28.2042483],
            [85.4673916, 28.2041282],
            [85.4671239, 28.2038046],
            [85.4670002, 28.2037198],
            [85.4668217, 28.203652],
            [85.4660313, 28.2034559],
            [85.4655649, 28.2033249],
            [85.4654298, 28.2033172],
            [85.4652058, 28.2033509],
            [85.4650279, 28.2033535],
            [85.4648715, 28.2032754],
            [85.4646503, 28.2030951],
            [85.4642878, 28.2029838],
            [85.464045, 28.2026876],
            [85.4638594, 28.202579],
            [85.4636728, 28.2025348],
            [85.463568, 28.2024464],
            [85.463534, 28.2022838],
            [85.4634853, 28.2021595],
            [85.4634266, 28.2020974],
            [85.4633512, 28.2020877],
            [85.4632488, 28.2020937],
            [85.4631274, 28.2020869],
            [85.4630409, 28.2020512],
            [85.4629712, 28.2019904],
            [85.462849, 28.2018092],
            [85.4626949, 28.2017318],
            [85.4624865, 28.2016014],
            [85.4623395, 28.2014848],
            [85.4621421, 28.2014404],
            [85.4620182, 28.2013534],
            [85.4619283, 28.2012841],
            [85.4618923, 28.2012563],
            [85.4617725, 28.2010925],
            [85.4615736, 28.2009878],
            [85.4614985, 28.2009405],
            [85.4614458, 28.2008237],
            [85.4614248, 28.2007967],
            [85.4608603, 28.2006548],
            [85.4604763, 28.2005222],
            [85.4601576, 28.2004154],
            [85.4599604, 28.2004032],
            [85.459563, 28.2003116],
            [85.4591932, 28.2002801],
            [85.4586534, 28.2000945],
            [85.458288, 28.1999196],
            [85.4581977, 28.1998289],
            [85.4581803, 28.199823],
            [85.458177, 28.1998178],
            [85.4580423, 28.1996124],
            [85.4579909, 28.1994704],
            [85.4580566, 28.1993535],
            [85.4581081, 28.1993295],
            [85.4581542, 28.1993028],
            [85.4581964, 28.1991812],
            [85.4582181, 28.1990602],
            [85.4582364, 28.1988792],
            [85.4579358, 28.1987562],
            [85.4576674, 28.198682],
            [85.4574556, 28.1985683],
            [85.4572272, 28.1984894],
            [85.4568211, 28.1984109],
            [85.4565556, 28.1981859],
            [85.4564132, 28.1980222],
            [85.4563169, 28.1978682],
            [85.4561795, 28.1976501],
            [85.4562535, 28.1973154],
            [85.4559702, 28.1969092],
            [85.4558437, 28.196893],
            [85.4557864, 28.1967215],
            [85.4557326, 28.1963852],
            [85.4554664, 28.1962918],
            [85.4553785, 28.1960626],
            [85.4552215, 28.1960153],
            [85.4550724, 28.1958513],
            [85.4544578, 28.1954408],
            [85.4542705, 28.1953647],
            [85.4538624, 28.1950812],
            [85.4537387, 28.1950476],
            [85.4535551, 28.1949457],
            [85.4532863, 28.1949669],
            [85.4530166, 28.1949427],
            [85.4526861, 28.1945353],
            [85.4523684, 28.194363],
            [85.4522541, 28.19425],
            [85.4521323, 28.1941546],
            [85.4519558, 28.1940488],
            [85.4517725, 28.1939102],
            [85.4517024, 28.1937488],
            [85.4516411, 28.1937024],
            [85.4515116, 28.1934852],
            [85.4510899, 28.1931524],
            [85.4509165, 28.1925676],
            [85.4506019, 28.1923862],
            [85.4505989, 28.1920884],
            [85.4502743, 28.1916803],
            [85.4498972, 28.1916248],
            [85.4496038, 28.1912104],
            [85.4490191, 28.1909625],
            [85.4488124, 28.1908437],
            [85.4486373, 28.1907514],
            [85.4485085, 28.1906929],
            [85.4484379, 28.1905899],
            [85.4482223, 28.1904452],
            [85.4480856, 28.1903544],
            [85.4479717, 28.1900865],
            [85.4474939, 28.1897365],
            [85.4473544, 28.1897827],
            [85.4471668, 28.189879],
            [85.4470242, 28.1898448],
            [85.446771, 28.1895966],
            [85.4466003, 28.1894102],
            [85.4463712, 28.1893128],
            [85.4462148, 28.1891477],
            [85.4460562, 28.1889213],
            [85.4457449, 28.1886887],
            [85.4456768, 28.188432],
            [85.4455915, 28.1883507],
            [85.4453663, 28.1882917],
            [85.445212, 28.1882593],
            [85.4451967, 28.1882109],
            [85.4451886, 28.1880155],
            [85.4450267, 28.187848],
            [85.444807, 28.1876188],
            [85.4446621, 28.1874497],
            [85.4446227, 28.1873017],
            [85.4444753, 28.1871537],
            [85.4443356, 28.1869609],
            [85.4442725, 28.1867423],
            [85.4443604, 28.1864116],
            [85.444367, 28.1862276],
            [85.4438515, 28.1857951],
            [85.4436134, 28.1855133],
            [85.4432478, 28.1849636],
            [85.4432717, 28.1849012],
            [85.4431269, 28.1846871],
            [85.4430953, 28.1845733],
            [85.4431438, 28.1844383],
            [85.4428621, 28.1841504],
            [85.44267, 28.1840827],
            [85.4424942, 28.1837084],
            [85.4425226, 28.1833376],
            [85.4424978, 28.1831702],
            [85.442576, 28.1828261],
            [85.4425289, 28.1826681],
            [85.4424218, 28.1824909],
            [85.4422551, 28.1824037],
            [85.4422155, 28.182253],
            [85.4421272, 28.1821163],
            [85.4418884, 28.1820242],
            [85.4417042, 28.1819641],
            [85.4415197, 28.1817887],
            [85.4415185, 28.1817323],
            [85.4410651, 28.180823],
            [85.4407337, 28.1805087],
            [85.4407149, 28.1802212],
            [85.4406646, 28.1801538],
            [85.4406411, 28.1800921],
            [85.4405151, 28.1800102],
            [85.4403506, 28.1798132],
            [85.4402008, 28.1796171],
            [85.440168, 28.1793693],
            [85.4400501, 28.1791921],
            [85.4399292, 28.1790811],
            [85.4398691, 28.1789893],
            [85.4398217, 28.178679],
            [85.4397186, 28.1784939],
            [85.4396836, 28.1783181],
            [85.4395796, 28.1781869],
            [85.4394862, 28.1779487],
            [85.4393889, 28.1777755],
            [85.4393327, 28.177728],
            [85.4392302, 28.1776532],
            [85.4391515, 28.1776179],
            [85.439084, 28.1774864],
            [85.4390098, 28.1774028],
            [85.438971, 28.1773069],
            [85.4388746, 28.1770836],
            [85.438868, 28.1770457],
            [85.4388401, 28.1769635],
            [85.4385956, 28.1767865],
            [85.4384061, 28.1765524],
            [85.438194, 28.1762592],
            [85.438201, 28.1761241],
            [85.4381275, 28.176031],
            [85.4380852, 28.1759774],
            [85.4378735, 28.1759146],
            [85.4377633, 28.1758369],
            [85.4376983, 28.175666],
            [85.4375453, 28.1755732],
            [85.4373929, 28.1753921],
            [85.4372878, 28.1752],
            [85.4371724, 28.1748958],
            [85.4371748, 28.1746644],
            [85.4372893, 28.1743909],
            [85.4372841, 28.174225],
            [85.4371777, 28.1739663],
            [85.437102, 28.1738979],
            [85.4370803, 28.1738187],
            [85.4371619, 28.17359],
            [85.437225, 28.1730579],
            [85.4371554, 28.1729229],
            [85.4371745, 28.1726856],
            [85.4371812, 28.1725184],
            [85.4371192, 28.1722163],
            [85.4370432, 28.1719106],
            [85.4369061, 28.1715118],
            [85.436764, 28.1712476],
            [85.4367155, 28.1710881],
            [85.436733, 28.1708504],
            [85.4367069, 28.17064],
            [85.4367371, 28.1703032],
            [85.4367182, 28.1702041],
            [85.4365542, 28.1700697],
            [85.4363638, 28.1696631],
            [85.4364096, 28.1695765],
            [85.4364883, 28.1695268],
            [85.4365188, 28.1694498],
            [85.4365076, 28.1692684],
            [85.4363574, 28.1690198],
            [85.4357301, 28.1685281],
            [85.4355259, 28.1683869],
            [85.4351041, 28.1680951],
            [85.4348353, 28.1678899],
            [85.434613, 28.1676697],
            [85.4345035, 28.1676091],
            [85.4344018, 28.1674716],
            [85.4343522, 28.167236],
            [85.4342162, 28.1670753],
            [85.4341512, 28.1670725],
            [85.4340395, 28.1669976],
            [85.433867, 28.1667118],
            [85.4336076, 28.1664687],
            [85.4333517, 28.1660877],
            [85.4332071, 28.1660218],
            [85.4331828, 28.1659156],
            [85.4327449, 28.16538],
            [85.4326655, 28.1652165],
            [85.432598, 28.1650604],
            [85.4325066, 28.16496],
            [85.4324501, 28.1647695],
            [85.4321126, 28.1644332],
            [85.4321077, 28.1643918],
            [85.4321183, 28.1643514],
            [85.4320129, 28.1642161],
            [85.4319716, 28.1641139],
            [85.4319416, 28.1640602],
            [85.43188, 28.163925],
            [85.4318372, 28.1637086],
            [85.4317981, 28.1634329],
            [85.4317018, 28.1632293],
            [85.4315241, 28.1628798],
            [85.4314422, 28.1627611],
            [85.4311992, 28.1624858],
            [85.4308052, 28.1620394],
            [85.4307053, 28.1620268],
            [85.430684, 28.1619421],
            [85.4304974, 28.1618716],
            [85.4304064, 28.1618043],
            [85.4302559, 28.1617228],
            [85.4301369, 28.1615934],
            [85.4300079, 28.1615162],
            [85.4299006, 28.1614934],
            [85.4298552, 28.1614345],
            [85.4297344, 28.1613422],
            [85.4296495, 28.1612117],
            [85.4295477, 28.1611359],
            [85.4294892, 28.1610107],
            [85.4294426, 28.1609086],
            [85.428957, 28.1607632],
            [85.4288113, 28.1606338],
            [85.4287648, 28.1605037],
            [85.4286205, 28.1603966],
            [85.4285301, 28.1603694],
            [85.4283577, 28.1603899],
            [85.4281417, 28.1603506],
            [85.4279047, 28.1602398],
            [85.4276287, 28.160049],
            [85.4274806, 28.1600223],
            [85.4273213, 28.1600354],
            [85.4271499, 28.1599967],
            [85.4268775, 28.1598154],
            [85.426458, 28.1597575],
            [85.4261504, 28.1596578],
            [85.4258689, 28.1597137],
            [85.4257718, 28.15971],
            [85.4256669, 28.1596213],
            [85.425593, 28.1595895],
            [85.4253952, 28.159599],
            [85.4251956, 28.1595093],
            [85.4250865, 28.1594041],
            [85.4248138, 28.1593464],
            [85.42452, 28.1591865],
            [85.4242685, 28.1592228],
            [85.4239192, 28.1590783],
            [85.4237318, 28.1589234],
            [85.4235856, 28.1589067],
            [85.4234802, 28.1588592],
            [85.423229, 28.1588327],
            [85.4230274, 28.1588868],
            [85.4228602, 28.1588447],
            [85.422824, 28.1587357],
            [85.4225668, 28.1586479],
            [85.4223677, 28.1586917],
            [85.4221698, 28.1587134],
            [85.4220235, 28.1587466],
            [85.4218474, 28.1587397],
            [85.4216605, 28.1588009],
            [85.4213473, 28.1587398],
            [85.4212166, 28.1587528],
            [85.4209539, 28.1587661],
            [85.4209375, 28.1587278],
            [85.4208932, 28.1587019],
            [85.4208707, 28.1587106],
            [85.4208072, 28.1589286],
            [85.4207585, 28.1589462],
            [85.4207482, 28.1586927],
            [85.4207112, 28.1586535],
            [85.420592, 28.1586777],
            [85.4202358, 28.1587858],
            [85.4198834, 28.1586508],
            [85.4196039, 28.1585717],
            [85.4193225, 28.1586725],
            [85.4188204, 28.1584877],
            [85.4181412, 28.1582634],
            [85.4177519, 28.1582817],
            [85.4172742, 28.1581374],
            [85.4164981, 28.1582807],
            [85.4160157, 28.1581439],
            [85.4157334, 28.1580917],
            [85.4153882, 28.1579315],
            [85.4151427, 28.1577467],
            [85.4146831, 28.157725],
            [85.4146352, 28.1576832],
            [85.4147049, 28.1576192],
            [85.4149755, 28.1575313],
            [85.4151645, 28.1573796],
            [85.4151667, 28.1573528],
            [85.4149592, 28.157371],
            [85.4147843, 28.1572705],
            [85.414488, 28.1572752],
            [85.4140016, 28.1573157],
            [85.4134657, 28.1571886],
            [85.4131637, 28.1571756],
            [85.4129442, 28.1570817],
            [85.4127341, 28.1568348],
            [85.4122406, 28.1567449],
            [85.4120761, 28.1566192],
            [85.4116241, 28.1565276],
            [85.4111769, 28.1563809],
            [85.410453, 28.1563407],
            [85.4094959, 28.1554588],
            [85.4089177, 28.1554372],
            [85.4085506, 28.1556029],
            [85.4084879, 28.1556202],
            [85.4084353, 28.1555849],
            [85.4084443, 28.1555384],
            [85.408393, 28.1555141],
            [85.4083105, 28.1550677],
            [85.4082822, 28.1550669],
            [85.4081332, 28.1550294],
            [85.4072977, 28.1549503],
            [85.406874, 28.1550406],
            [85.4066035, 28.1548633],
            [85.4061134, 28.1548434],
            [85.4057372, 28.1546825],
            [85.4054517, 28.1546633],
            [85.405433, 28.1548447],
            [85.4045839, 28.1547759],
            [85.4040452, 28.1547428],
            [85.403728, 28.1546613],
            [85.4036239, 28.1547781],
            [85.4032866, 28.1546858],
            [85.4031366, 28.1548218],
            [85.40283, 28.1548773],
            [85.4020814, 28.1548924],
            [85.4017821, 28.154821],
            [85.4014409, 28.1548606],
            [85.4008662, 28.1550031],
            [85.4006398, 28.1550217],
            [85.4003032, 28.1549274],
            [85.3998074, 28.155121],
            [85.3991167, 28.1552893],
            [85.3989563, 28.1552467],
            [85.3986873, 28.1549507],
            [85.3984493, 28.1549381],
            [85.3983075, 28.1550383],
            [85.3980118, 28.1550807],
            [85.3977961, 28.1550542],
            [85.3976483, 28.1550877],
            [85.39753, 28.1550592],
            [85.3974386, 28.1549888],
            [85.397375, 28.1548901],
            [85.3973483, 28.1547521],
            [85.3970865, 28.1545469],
            [85.3967467, 28.1543782],
            [85.3964886, 28.1543564],
            [85.3962841, 28.1542751],
            [85.3960321, 28.1543176],
            [85.3958695, 28.154303],
            [85.3956768, 28.1542957],
            [85.395631, 28.1543029],
            [85.3956559, 28.1543411],
            [85.3957561, 28.1544184],
            [85.3957547, 28.1544731],
            [85.3956528, 28.1544642],
            [85.395528, 28.1543895],
            [85.3951347, 28.1543236],
            [85.3946835, 28.1544052],
            [85.3945743, 28.1543967],
            [85.3942834, 28.1543059],
            [85.3941452, 28.1543008],
            [85.3940756, 28.1543447],
            [85.3940369, 28.154411],
            [85.3939848, 28.1544124],
            [85.3939338, 28.1543926],
            [85.3938812, 28.1543226],
            [85.3937809, 28.1543118],
            [85.3935436, 28.1541944],
            [85.3933305, 28.154193],
            [85.3930169, 28.15423],
            [85.3927578, 28.154183],
            [85.3926708, 28.1542595],
            [85.3917901, 28.1541712],
            [85.3907495, 28.1541491],
            [85.3906724, 28.1541411],
            [85.3904549, 28.1540529],
            [85.3901622, 28.1540195],
            [85.3899647, 28.1539482],
            [85.3897976, 28.1539647],
            [85.3897363, 28.1540864],
            [85.389656, 28.1540962],
            [85.3895603, 28.153998],
            [85.3894001, 28.1539842],
            [85.3892272, 28.1538852],
            [85.3885987, 28.1538556],
            [85.3882982, 28.1537543],
            [85.388175, 28.1538511],
            [85.3879301, 28.1538966],
            [85.387725, 28.153856],
            [85.387399, 28.1536938],
            [85.386635, 28.1534656],
            [85.3863475, 28.1534006],
            [85.3859455, 28.1532613],
            [85.3856033, 28.1532722],
            [85.3853388, 28.1532637],
            [85.3850711, 28.1532635],
            [85.3845202, 28.1532699],
            [85.3840321, 28.1533269],
            [85.3833454, 28.1533672],
            [85.3832515, 28.1533189],
            [85.3831765, 28.1534174],
            [85.3829462, 28.1532596],
            [85.3828683, 28.1532964],
            [85.3827565, 28.1533087],
            [85.3826197, 28.1533644],
            [85.3820064, 28.1532804],
            [85.3819342, 28.1532036],
            [85.3818554, 28.1531851],
            [85.3818459, 28.1532446],
            [85.3818807, 28.1533798],
            [85.3818158, 28.153442],
            [85.3817504, 28.1534528],
            [85.3815617, 28.1534117],
            [85.3812689, 28.1533884],
            [85.381072, 28.1533342],
            [85.380833, 28.1532066],
            [85.3807303, 28.1533453],
            [85.3806569, 28.1531902],
            [85.3805188, 28.1530904],
            [85.3801603, 28.1529061],
            [85.3799588, 28.1526942],
            [85.3797184, 28.1527486],
            [85.3796678, 28.1528384],
            [85.3794491, 28.1528099],
            [85.3792409, 28.1526093],
            [85.3790371, 28.1526717],
            [85.3784305, 28.1524658],
            [85.3782953, 28.1524186],
            [85.378253, 28.1523329],
            [85.3782706, 28.1522636],
            [85.3782848, 28.1522058],
            [85.3781581, 28.1520978],
            [85.3779929, 28.1520102],
            [85.3776952, 28.1519109],
            [85.3774843, 28.1517517],
            [85.3770238, 28.1514284],
            [85.3764771, 28.1511937],
            [85.3761604, 28.151236],
            [85.3758728, 28.1513544],
            [85.3756538, 28.1515203],
            [85.3755057, 28.1516692],
            [85.3753068, 28.1517287],
            [85.3752806, 28.1516292],
            [85.3752357, 28.1517261],
            [85.3750044, 28.1515703],
            [85.3746801, 28.1511636],
            [85.3743284, 28.1508651],
            [85.3737981, 28.1507254],
            [85.3734901, 28.150741],
            [85.373239, 28.1508006],
            [85.372488, 28.1506492],
            [85.3718516, 28.1506001],
            [85.3710105, 28.1506654],
            [85.3710819, 28.1506977],
            [85.3710581, 28.150752],
            [85.370943, 28.1507438],
            [85.3704968, 28.1506941],
            [85.3704094, 28.150644],
            [85.3704111, 28.1505752],
            [85.3705342, 28.1505356],
            [85.3704688, 28.1504751],
            [85.3704096, 28.1505206],
            [85.370378, 28.1506128],
            [85.3702936, 28.1506233],
            [85.3702438, 28.1504946],
            [85.370155, 28.1506017],
            [85.3700638, 28.1505578],
            [85.3698701, 28.1507085],
            [85.3697942, 28.1507226],
            [85.3697663, 28.1509125],
            [85.3698276, 28.1509701],
            [85.3695083, 28.1509049],
            [85.369329, 28.1508488],
            [85.3691911, 28.1512034],
            [85.3688149, 28.1511987],
            [85.3682497, 28.1512253],
            [85.3678453, 28.1512288],
            [85.3674239, 28.1512735],
            [85.3668094, 28.1512514],
            [85.366255, 28.1508849],
            [85.3653891, 28.1510348],
            [85.3644345, 28.1518987],
            [85.3634233, 28.1517163],
            [85.3629655, 28.1516825],
            [85.3622571, 28.1515981],
            [85.3618221, 28.1515616],
            [85.3615505, 28.1515117],
            [85.3612945, 28.1514675],
            [85.3600522, 28.1518941],
            [85.3598891, 28.1518696],
            [85.3597109, 28.1519158],
            [85.3593617, 28.1519859],
            [85.3592783, 28.1519859],
            [85.3590233, 28.1519606],
            [85.3589353, 28.1519854],
            [85.3588474, 28.1520367],
            [85.3587431, 28.1521006],
            [85.358632, 28.152108],
            [85.3584437, 28.152072],
            [85.3582784, 28.1520953],
            [85.3581608, 28.1521609],
            [85.3576218, 28.1526981],
            [85.3573649, 28.1528266],
            [85.3572908, 28.1528399],
            [85.3571979, 28.1528217],
            [85.3570929, 28.1528318],
            [85.3568978, 28.1529246],
            [85.3569739, 28.1529473],
            [85.3570163, 28.1529669],
            [85.3570428, 28.1530143],
            [85.3570408, 28.1531139],
            [85.357081, 28.1532485],
            [85.357141, 28.1532891],
            [85.3572183, 28.1535139],
            [85.3572252, 28.1535714],
            [85.3571143, 28.1536609],
            [85.3563343, 28.1539893],
            [85.3559606, 28.1540196],
            [85.3556146, 28.1540912],
            [85.3550825, 28.154267],
            [85.3544267, 28.1545088],
            [85.3540344, 28.1549599],
            [85.3535869, 28.1554202],
            [85.3533467, 28.1554445],
            [85.3532033, 28.1555367],
            [85.3527713, 28.1557182],
            [85.3522471, 28.1562808],
            [85.3518681, 28.1565376],
            [85.3517058, 28.15691],
            [85.3513739, 28.1572572],
            [85.3511624, 28.1575972],
            [85.3507974, 28.1579837],
            [85.3504709, 28.1581216],
            [85.3501586, 28.1582646],
            [85.3498292, 28.1585558],
            [85.3492953, 28.1589773],
            [85.3492947, 28.1591773],
            [85.3492494, 28.1593011],
            [85.3490971, 28.1594608],
            [85.3487374, 28.1598566],
            [85.3485974, 28.1602619],
            [85.3484273, 28.1604927],
            [85.3481231, 28.1608094],
            [85.3479418, 28.1610605],
            [85.3476939, 28.1612249],
            [85.3473804, 28.1613902],
            [85.3472256, 28.1615703],
            [85.3469238, 28.1618186],
            [85.3464833, 28.1621918],
            [85.346218, 28.1625349],
            [85.3460791, 28.162672],
            [85.3459726, 28.1628728],
            [85.3457763, 28.1629827],
            [85.3456684, 28.1630226],
            [85.3453573, 28.1632294],
            [85.3452172, 28.1633582],
            [85.3451253, 28.1633375],
            [85.3445789, 28.1635377],
            [85.344411, 28.1636785],
            [85.3441174, 28.1637109],
            [85.3439013, 28.1637609],
            [85.3432724, 28.164252],
            [85.342973, 28.1645073],
            [85.3428633, 28.1645422],
            [85.3429523, 28.164812],
            [85.3429019, 28.1648306],
            [85.3429049, 28.1648912],
            [85.3429434, 28.1649098],
            [85.3429596, 28.1650224],
            [85.3429821, 28.1651191],
            [85.3429588, 28.1652992],
            [85.3429942, 28.1653953],
            [85.342977, 28.1654554],
            [85.3430934, 28.1656845],
            [85.3431768, 28.1659554],
            [85.3431908, 28.1660007],
            [85.3431763, 28.1660452],
            [85.3431168, 28.166077],
            [85.3430592, 28.1660405],
            [85.343, 28.1657993],
            [85.3429938, 28.1657377],
            [85.3429566, 28.165756],
            [85.3425106, 28.1659756],
            [85.3423674, 28.1660429],
            [85.3423183, 28.1660078],
            [85.3422974, 28.1659219],
            [85.3421699, 28.165896],
            [85.3419112, 28.1657364],
            [85.3418267, 28.1657291]
          ],
          [
            [85.3568978, 28.1529246],
            [85.3566633, 28.1530075],
            [85.3564392, 28.1530396],
            [85.3555873, 28.1531067],
            [85.3554254, 28.153207],
            [85.3548713, 28.1537652],
            [85.354399, 28.1539468],
            [85.3540697, 28.1542499],
            [85.3539005, 28.1543485],
            [85.353504, 28.1547555],
            [85.3531714, 28.154982],
            [85.3525131, 28.1553177],
            [85.3523742, 28.1554971],
            [85.3521689, 28.1558268],
            [85.3518585, 28.1561022],
            [85.3514206, 28.1563028],
            [85.351123, 28.1565525],
            [85.3508508, 28.1566767],
            [85.350565, 28.1567478],
            [85.3504462, 28.1567975],
            [85.3496962, 28.1572648],
            [85.3493604, 28.1575285],
            [85.3491301, 28.1578924],
            [85.3490491, 28.1579188],
            [85.3488965, 28.1579424],
            [85.3488416, 28.1580275],
            [85.348812, 28.1581696],
            [85.3487749, 28.1582442],
            [85.3486149, 28.1583174],
            [85.3485673, 28.158382],
            [85.3485613, 28.1585601],
            [85.3486006, 28.1586084],
            [85.3485777, 28.1588006],
            [85.3484293, 28.1590137],
            [85.3483744, 28.1590686],
            [85.3481913, 28.1591014],
            [85.3481273, 28.1591341],
            [85.3479617, 28.1594028],
            [85.3478329, 28.1595391],
            [85.3475825, 28.1596922],
            [85.3474546, 28.1600685],
            [85.347361, 28.1601842],
            [85.3471559, 28.1602463],
            [85.3468061, 28.1603647],
            [85.3465757, 28.160511],
            [85.3464401, 28.1606421],
            [85.3462776, 28.1608709],
            [85.3460251, 28.1611027],
            [85.3457675, 28.1613691],
            [85.3455969, 28.1614805],
            [85.3456959, 28.161482],
            [85.3458305, 28.1614712],
            [85.3460273, 28.1613296],
            [85.3461936, 28.1613405],
            [85.3461995, 28.161481],
            [85.3461125, 28.1615262],
            [85.3460326, 28.1616337],
            [85.3459481, 28.1618229],
            [85.3459091, 28.1619609],
            [85.3458278, 28.1621004],
            [85.3458107, 28.1622225],
            [85.3453009, 28.1626233],
            [85.3450221, 28.162738],
            [85.3445144, 28.1627231],
            [85.3440942, 28.1630608],
            [85.3437064, 28.1632769],
            [85.3436786, 28.163358],
            [85.3436789, 28.1634067],
            [85.3437759, 28.1635939],
            [85.3438376, 28.1636381],
            [85.3439013, 28.1637609]
          ]
        ]
      },
      "id": "relation/1269089"
    }
  ]
}
