{
  "type": "FeatureCollection",
  "generator": "overpass-turbo",
  "copyright": "The data included in this document is from www.openstreetmap.org. The data is made available under ODbL.",
  "timestamp": "2026-05-18T09:32:44Z",
  "features": [
    {
      "type": "Feature",
      "properties": {
        "@id": "relation/19267496",
        "name": "Mardi Himal trek",
        "network": "rwn",
        "ref": "MH",
        "route": "hiking",
        "type": "route",
        "wikidata": "Q59310908"
      },
      "geometry": {
        "type": "LineString",
        "coordinates": [
          [83.8240497, 28.2923576],
          [83.8240715, 28.2924419],
          [83.8240835, 28.2924687],
          [83.8241594, 28.2926226],
          [83.8242001, 28.2926491],
          [83.8242152, 28.2926764],
          [83.8242173, 28.292735],
          [83.8241595, 28.2927863],
          [83.8240784, 28.2929191],
          [83.8240416, 28.293145],
          [83.8239401, 28.2934221],
          [83.8238757, 28.2935317],
          [83.8238447, 28.293664],
          [83.8237014, 28.2937652],
          [83.8234757, 28.293845],
          [83.8232622, 28.2938612],
          [83.8231056, 28.2939642],
          [83.8230038, 28.2940387],
          [83.8229655, 28.2940667],
          [83.8227722, 28.294156],
          [83.8224587, 28.294208],
          [83.8223856, 28.2942378],
          [83.8223337, 28.2942843],
          [83.822275, 28.2943257],
          [83.8222181, 28.2943506],
          [83.8221926, 28.2943547],
          [83.8220838, 28.2943569],
          [83.8219835, 28.2943428],
          [83.8218891, 28.2943483],
          [83.8218299, 28.2943835],
          [83.8217959, 28.2944227],
          [83.8217838, 28.2945492],
          [83.8217858, 28.2946651],
          [83.8217616, 28.2947302],
          [83.8216572, 28.2948652],
          [83.8215355, 28.2950805],
          [83.8215154, 28.2951884],
          [83.821527, 28.2952733],
          [83.8215629, 28.2953657],
          [83.8216024, 28.2954403],
          [83.8216367, 28.2955509],
          [83.8216294, 28.2956191],
          [83.8216121, 28.2956458],
          [83.8215688, 28.2957234],
          [83.821445, 28.2958419],
          [83.8212654, 28.2959027],
          [83.8210848, 28.2959704],
          [83.8210115, 28.2960492],
          [83.8210211, 28.2961283],
          [83.8209313, 28.2962238],
          [83.8209161, 28.2963447],
          [83.8209382, 28.2964274],
          [83.820949, 28.2964799],
          [83.8209558, 28.2965584],
          [83.8209891, 28.2966793],
          [83.8210854, 28.2968821],
          [83.821134, 28.297082],
          [83.8211534, 28.2972135],
          [83.821164, 28.2972848],
          [83.8211799, 28.2974456],
          [83.821245, 28.2976061],
          [83.821303, 28.2976674],
          [83.8213018, 28.297804],
          [83.8213496, 28.2978982],
          [83.8214668, 28.2980183],
          [83.8215135, 28.2980954],
          [83.8216025, 28.2981435],
          [83.8216324, 28.298238],
          [83.8218056, 28.2984959],
          [83.8218628, 28.2986408],
          [83.821895, 28.29874],
          [83.8219295, 28.2988079],
          [83.8219258, 28.2988975],
          [83.8218487, 28.2989755],
          [83.8218096, 28.2989944],
          [83.8217139, 28.2990093],
          [83.8216877, 28.2990335],
          [83.8216362, 28.2991483],
          [83.8216564, 28.2993489],
          [83.8217146, 28.2994658],
          [83.8217367, 28.299569],
          [83.8216728, 28.2996261],
          [83.8216081, 28.2996913],
          [83.82153, 28.2997543],
          [83.8214155, 28.2997838],
          [83.8213165, 28.2998178],
          [83.821198, 28.2998625],
          [83.8211687, 28.2998891],
          [83.8211333, 28.2999504],
          [83.8211035, 28.299976],
          [83.8209266, 28.3000505],
          [83.820855, 28.30007],
          [83.8208194, 28.300102],
          [83.8207769, 28.3001743],
          [83.8207658, 28.3003093],
          [83.8207336, 28.3004404],
          [83.8207526, 28.3005496],
          [83.8207912, 28.3006081],
          [83.8208469, 28.3006387],
          [83.8209133, 28.300647],
          [83.8209578, 28.3006779],
          [83.8210613, 28.3007784],
          [83.8210787, 28.3009714],
          [83.8211594, 28.3011083],
          [83.821253, 28.3012897],
          [83.8214105, 28.3014678],
          [83.8214305, 28.3016351],
          [83.8215425, 28.3017447],
          [83.821743, 28.3018248],
          [83.8219001, 28.3020117],
          [83.8220671, 28.3022034],
          [83.822163, 28.3023132],
          [83.8222344, 28.3023707],
          [83.822294, 28.3024545],
          [83.82234, 28.3024824],
          [83.8223822, 28.3025136],
          [83.8224126, 28.3025422],
          [83.8224751, 28.302582],
          [83.8225859, 28.3026042],
          [83.8227316, 28.3026663],
          [83.8228444, 28.3027631],
          [83.8229498, 28.3028683],
          [83.823044, 28.303144],
          [83.8230753, 28.3032689],
          [83.8231115, 28.3034762],
          [83.8231753, 28.303645],
          [83.8232692, 28.3038706],
          [83.8232601, 28.3039536],
          [83.8232159, 28.3040333],
          [83.8231843, 28.3041595],
          [83.823215, 28.3042532],
          [83.8232826, 28.3042996],
          [83.8233113, 28.3043208],
          [83.8235014, 28.3043804],
          [83.8235796, 28.3044073],
          [83.8237088, 28.3044359],
          [83.823921, 28.3044808],
          [83.8246271, 28.3046205],
          [83.8249903, 28.3045873],
          [83.8252974, 28.3045153],
          [83.825538, 28.304224],
          [83.8256675, 28.3040241],
          [83.8256774, 28.3038731],
          [83.8257614, 28.3038163],
          [83.825862, 28.3037855],
          [83.8260327, 28.3037909],
          [83.8262456, 28.3038385],
          [83.8263945, 28.303852],
          [83.826684, 28.3036297],
          [83.8268955, 28.3035034],
          [83.8270475, 28.3034712],
          [83.8271844, 28.3034326],
          [83.8272631, 28.3034287],
          [83.8273808, 28.3035068],
          [83.8273765, 28.3035384],
          [83.8277492, 28.3037152],
          [83.8281295, 28.3038972],
          [83.8281361, 28.3040114],
          [83.8282408, 28.3040993],
          [83.8282773, 28.3041315],
          [83.8282827, 28.3041611],
          [83.8282848, 28.3042424],
          [83.8282625, 28.3043335],
          [83.8282133, 28.3044377],
          [83.8282189, 28.3045738],
          [83.8282143, 28.3047278],
          [83.8282295, 28.3047998],
          [83.8283054, 28.3048808],
          [83.8285842, 28.3051556],
          [83.8286228, 28.3052845],
          [83.8285173, 28.3053943],
          [83.8284946, 28.3054594],
          [83.8285794, 28.3055442],
          [83.8286011, 28.3056578],
          [83.8285578, 28.3058044],
          [83.8284572, 28.3058812],
          [83.82859, 28.3060613],
          [83.8285627, 28.3062317],
          [83.8285242, 28.3063611],
          [83.8285854, 28.3064888],
          [83.8286697, 28.3065416],
          [83.8286312, 28.3065956],
          [83.8284322, 28.3067395],
          [83.8283461, 28.3069353],
          [83.8282871, 28.3071198],
          [83.8281875, 28.3071295],
          [83.8281105, 28.3072596],
          [83.8280484, 28.30727],
          [83.8279858, 28.3073781],
          [83.8279054, 28.3074141],
          [83.8278539, 28.3074725],
          [83.8279151, 28.3074926],
          [83.8279004, 28.3075453],
          [83.8279257, 28.3075292],
          [83.8278697, 28.3077752],
          [83.827844, 28.3079011],
          [83.8278461, 28.3080033],
          [83.8277613, 28.3080767],
          [83.8277341, 28.3081162],
          [83.8277732, 28.3081615],
          [83.8278312, 28.3083392],
          [83.8278842, 28.3084296],
          [83.8278677, 28.3085204],
          [83.8278829, 28.3085975],
          [83.8279216, 28.3086178],
          [83.8279368, 28.3085975],
          [83.8279282, 28.3086544],
          [83.8278797, 28.3087761],
          [83.8278842, 28.3088063],
          [83.8279096, 28.3088139],
          [83.8279293, 28.308869],
          [83.8278945, 28.3088824],
          [83.8279033, 28.3089184],
          [83.8279459, 28.3089382],
          [83.827944, 28.3089764],
          [83.8279037, 28.3090167],
          [83.8279574, 28.3090231],
          [83.8279549, 28.3090837],
          [83.8279139, 28.3091679],
          [83.8279135, 28.3092017],
          [83.8279051, 28.3092396],
          [83.82793, 28.3092556],
          [83.8279652, 28.3093155],
          [83.8279559, 28.3094338],
          [83.8279378, 28.3094988],
          [83.8279545, 28.3095031],
          [83.8279764, 28.3095523],
          [83.8279929, 28.3095707],
          [83.8280173, 28.3097074],
          [83.82801, 28.3097355],
          [83.8280223, 28.3098417],
          [83.8280825, 28.3098517],
          [83.8281274, 28.3098675],
          [83.8281543, 28.3098979],
          [83.8281578, 28.3099395],
          [83.8281538, 28.3099871],
          [83.8281376, 28.3100221],
          [83.8281687, 28.3100337],
          [83.8282109, 28.3100771],
          [83.8282253, 28.3101106],
          [83.8282842, 28.3101266],
          [83.8283132, 28.3101687],
          [83.8283128, 28.3101843],
          [83.8282748, 28.310238],
          [83.8282235, 28.310289],
          [83.8281979, 28.310325],
          [83.8281858, 28.3103823],
          [83.8281904, 28.3104176],
          [83.8281882, 28.3104473],
          [83.8281951, 28.3104763],
          [83.8282132, 28.3104936],
          [83.8282351, 28.3105085],
          [83.8282622, 28.3105241],
          [83.8282958, 28.3105536],
          [83.8283258, 28.3105711],
          [83.8283497, 28.3106097],
          [83.8283699, 28.3106321],
          [83.8283977, 28.3106449],
          [83.8284066, 28.3106628],
          [83.8284218, 28.3107187],
          [83.8284261, 28.3107862],
          [83.8284393, 28.3108052],
          [83.8284499, 28.310866],
          [83.8284594, 28.3108591],
          [83.828526, 28.3108998],
          [83.8285503, 28.3109074],
          [83.8285931, 28.3109103],
          [83.8286159, 28.3109207],
          [83.8286497, 28.3109566],
          [83.8286654, 28.31098],
          [83.8286721, 28.3110127],
          [83.8286797, 28.3110422],
          [83.8286905, 28.3110772],
          [83.8286976, 28.3111034],
          [83.828705, 28.3111074],
          [83.8287093, 28.311129],
          [83.8287299, 28.3111512],
          [83.8287404, 28.3111745],
          [83.8287499, 28.311213],
          [83.8287794, 28.3112681],
          [83.8287898, 28.3112853],
          [83.8288319, 28.3113336],
          [83.8288566, 28.3113532],
          [83.8289065, 28.3113814],
          [83.8289246, 28.3113874],
          [83.8289348, 28.3114045],
          [83.8289798, 28.3114108],
          [83.8290051, 28.3114207],
          [83.8290348, 28.3114464],
          [83.8290496, 28.311463],
          [83.8290594, 28.311481],
          [83.8290641, 28.3115025],
          [83.8290586, 28.3115401],
          [83.8290484, 28.3115807],
          [83.8290475, 28.3116151],
          [83.8290576, 28.3116342],
          [83.8290666, 28.3116394],
          [83.8290948, 28.3116785],
          [83.8291157, 28.311694],
          [83.8291739, 28.3117502],
          [83.8291838, 28.3117584],
          [83.8292025, 28.3117661],
          [83.8292281, 28.3117712],
          [83.829262, 28.3117677],
          [83.8293814, 28.3120269],
          [83.8295759, 28.3121486],
          [83.8295563, 28.312217],
          [83.8296135, 28.3122717],
          [83.8295655, 28.3123879],
          [83.8296655, 28.3125148],
          [83.829793, 28.3125091],
          [83.8299047, 28.3124874],
          [83.8300574, 28.3124807],
          [83.8301594, 28.3125328],
          [83.8302011, 28.3125932],
          [83.8302738, 28.3127282],
          [83.8302957, 28.3128252],
          [83.8303063, 28.3129286],
          [83.8303208, 28.3131626],
          [83.8303546, 28.3132486],
          [83.8303759, 28.313303],
          [83.8304392, 28.3134091],
          [83.8304679, 28.3135042],
          [83.8304859, 28.3136276],
          [83.8305419, 28.3138622],
          [83.8305467, 28.3139498],
          [83.8305166, 28.3140374],
          [83.8303996, 28.3142315],
          [83.8303895, 28.3144245],
          [83.8304386, 28.3146216],
          [83.8305622, 28.3147778],
          [83.8305719, 28.314847],
          [83.8305526, 28.3149616],
          [83.8305446, 28.3149953],
          [83.8304737, 28.3150436],
          [83.8304062, 28.3150919],
          [83.8303467, 28.3151546],
          [83.8303096, 28.315221],
          [83.8302882, 28.3153264],
          [83.8302931, 28.3154223],
          [83.8302597, 28.3157367],
          [83.8302407, 28.3159716],
          [83.8302575, 28.3160771],
          [83.8302368, 28.3162051],
          [83.8302072, 28.3163094],
          [83.8301932, 28.316405],
          [83.8301988, 28.3165009],
          [83.8301733, 28.3165971],
          [83.8301875, 28.3168356],
          [83.8301095, 28.317088],
          [83.8300824, 28.3172227],
          [83.8300571, 28.3173787],
          [83.830018, 28.3175263],
          [83.8299507, 28.317714],
          [83.8299231, 28.3178126],
          [83.8298963, 28.3178932],
          [83.8298876, 28.3180244],
          [83.8299004, 28.3181079],
          [83.8299633, 28.3181366],
          [83.830066, 28.318337],
          [83.8300807, 28.3183941],
          [83.8300685, 28.3184607],
          [83.8300711, 28.3185225],
          [83.8300838, 28.3186047],
          [83.8301701, 28.3187],
          [83.8302433, 28.3187389],
          [83.8302733, 28.318784],
          [83.8302725, 28.3188548],
          [83.8302366, 28.3190909],
          [83.8301785, 28.3192412],
          [83.8301704, 28.3192832],
          [83.8301394, 28.3193349],
          [83.8301354, 28.3193757],
          [83.8300965, 28.3194226],
          [83.8300461, 28.3194674],
          [83.8300173, 28.3195455],
          [83.830006, 28.3196131],
          [83.830029, 28.3196847],
          [83.8300802, 28.3197641],
          [83.8301272, 28.3198226],
          [83.8301453, 28.3198898],
          [83.8301453, 28.3199866],
          [83.8301088, 28.3201202],
          [83.8300845, 28.3202895],
          [83.8300844, 28.3205502],
          [83.830095, 28.3207905],
          [83.8300847, 28.3209393],
          [83.8300577, 28.3210923],
          [83.8300011, 28.3212643],
          [83.8300296, 28.3213567],
          [83.8300358, 28.3215743],
          [83.8300015, 28.3217405],
          [83.8300307, 28.3218678],
          [83.8300759, 28.3219586],
          [83.8301825, 28.3220398],
          [83.8302246, 28.3221162],
          [83.8302097, 28.3222455],
          [83.8301423, 28.3223387],
          [83.8300021, 28.3224354],
          [83.8298834, 28.3224754],
          [83.8298505, 28.3225249],
          [83.8298379, 28.322635],
          [83.8298629, 28.3227498],
          [83.8298866, 28.3228722],
          [83.8299483, 28.3229784],
          [83.8300577, 28.3229227],
          [83.8301323, 28.3230994],
          [83.8301801, 28.3231864],
          [83.8302172, 28.3233225],
          [83.8301952, 28.3234255],
          [83.8301188, 28.3236037],
          [83.8300146, 28.3237653],
          [83.829966, 28.3239728],
          [83.8298844, 28.3241077],
          [83.8297874, 28.3242582],
          [83.8297478, 28.3244954],
          [83.8297352, 28.3245967],
          [83.8296529, 28.3246743],
          [83.8295241, 28.3247883],
          [83.8294544, 28.3249212],
          [83.8294629, 28.3250368],
          [83.8294364, 28.3251028],
          [83.829383, 28.3251736],
          [83.8292145, 28.3252863],
          [83.8291318, 28.3253864],
          [83.8291053, 28.3254771],
          [83.8290693, 28.3256109],
          [83.8291406, 28.3257517],
          [83.8291442, 28.3259168],
          [83.8291798, 28.326067],
          [83.8291667, 28.3264476],
          [83.8292155, 28.3268086],
          [83.8291914, 28.3270435],
          [83.8292029, 28.32726],
          [83.829196, 28.3273794],
          [83.8291132, 28.327545],
          [83.829107, 28.3278021],
          [83.8291515, 28.3279602],
          [83.8292055, 28.3280676],
          [83.8292994, 28.3281649],
          [83.8294365, 28.3282638],
          [83.8296025, 28.3283301],
          [83.8296532, 28.3283775],
          [83.8296848, 28.3285274],
          [83.8296901, 28.3286971],
          [83.8297447, 28.3287174],
          [83.829868, 28.3290291],
          [83.8298619, 28.3291819],
          [83.8297998, 28.3292984],
          [83.8298125, 28.3294028],
          [83.8299313, 28.3295643],
          [83.8299196, 28.3296669],
          [83.8298562, 28.3297484],
          [83.8298363, 28.3298066],
          [83.8299472, 28.329902],
          [83.8299741, 28.3299251],
          [83.8299767, 28.3299652],
          [83.8300315, 28.3301377],
          [83.8301156, 28.3301256],
          [83.8301655, 28.3301158],
          [83.8302237, 28.3301129],
          [83.8302719, 28.3301372],
          [83.8303549, 28.3301804],
          [83.8304568, 28.3302531],
          [83.8306096, 28.3303889],
          [83.8307552, 28.3305232],
          [83.8308215, 28.3305799],
          [83.8309395, 28.3306365],
          [83.8311753, 28.3306626],
          [83.8313745, 28.330718],
          [83.8314972, 28.3307827],
          [83.831567, 28.3308503],
          [83.8316213, 28.3308819],
          [83.8317574, 28.3308982],
          [83.8318719, 28.3309404],
          [83.8319663, 28.3310627],
          [83.8319821, 28.3311333],
          [83.8319785, 28.3312508],
          [83.8319999, 28.3315074],
          [83.8321047, 28.3315818],
          [83.8322499, 28.3317048],
          [83.8323404, 28.3317261],
          [83.8324218, 28.3318324],
          [83.8325019, 28.3319003],
          [83.8326947, 28.3320367],
          [83.8328427, 28.3322138],
          [83.8329894, 28.3323035],
          [83.8331968, 28.3324953],
          [83.8332683, 28.3325477],
          [83.8333401, 28.3325944],
          [83.8335213, 28.3326916],
          [83.8336399, 28.3327881],
          [83.8337204, 28.3329038],
          [83.8338253, 28.3329453],
          [83.8340774, 28.3332119],
          [83.8343362, 28.333341],
          [83.8343884, 28.3334471],
          [83.8346133, 28.3335662],
          [83.8349223, 28.3337296],
          [83.8350389, 28.3338215],
          [83.835324, 28.333927],
          [83.8355622, 28.3340519],
          [83.8357062, 28.3341433],
          [83.8358249, 28.3342188],
          [83.8360174, 28.3342776],
          [83.8361632, 28.3342515],
          [83.8362987, 28.3342253],
          [83.836702, 28.3342261],
          [83.8367407, 28.3342635],
          [83.8369484, 28.3344653],
          [83.8372739, 28.3346882],
          [83.8375386, 28.3348923],
          [83.8378059, 28.3352301],
          [83.8379034, 28.335268],
          [83.8379313, 28.3353204],
          [83.8378983, 28.3353638],
          [83.8378477, 28.3353783],
          [83.8378451, 28.3354196],
          [83.8379059, 28.3354976],
          [83.838158, 28.3358276],
          [83.8384645, 28.3361921],
          [83.8387127, 28.3364653],
          [83.8389255, 28.3368387],
          [83.8390839, 28.3370907],
          [83.8390813, 28.3371955],
          [83.839289, 28.3374719],
          [83.8394486, 28.3375333],
          [83.8394512, 28.3377027],
          [83.8395474, 28.3378833],
          [83.8398425, 28.3381196],
          [83.83984, 28.3381932],
          [83.8397691, 28.3383526],
          [83.8397881, 28.3384374],
          [83.8399451, 28.3387194],
          [83.840168, 28.338881],
          [83.8402022, 28.3390327],
          [83.84032, 28.3391876],
          [83.8403694, 28.3392133],
          [83.8404112, 28.3392634],
          [83.8403948, 28.3393214],
          [83.8402884, 28.3393548],
          [83.8401186, 28.3395087],
          [83.8400819, 28.3397428],
          [83.8401554, 28.3400092],
          [83.8401782, 28.3400839],
          [83.8401503, 28.3401129],
          [83.8401047, 28.3401441],
          [83.8401123, 28.340182],
          [83.840168, 28.3402132],
          [83.8401744, 28.3402556],
          [83.8401161, 28.3403135],
          [83.8400731, 28.3403849],
          [83.840049, 28.3405521],
          [83.8398869, 28.3406848],
          [83.8398767, 28.3408096],
          [83.8399261, 28.3409634],
          [83.8399641, 28.3411407],
          [83.839897, 28.3413837],
          [83.8398767, 28.3416356],
          [83.8396956, 28.3419411],
          [83.8395348, 28.3420972],
          [83.8394284, 28.3422254],
          [83.8393904, 28.3423881],
          [83.8392523, 28.3424673],
          [83.8392371, 28.342533],
          [83.839251, 28.3426021],
          [83.8393308, 28.3428217],
          [83.8392979, 28.3428886],
          [83.8391814, 28.3428964],
          [83.8389433, 28.3430202],
          [83.8389192, 28.3430971],
          [83.8389306, 28.3431996],
          [83.8389585, 28.3432977],
          [83.8389344, 28.3433501],
          [83.8387938, 28.3434025],
          [83.8386646, 28.3434036],
          [83.8385481, 28.3434427],
          [83.8384658, 28.3435285],
          [83.838405, 28.3436734],
          [83.8384126, 28.3437782],
          [83.8383366, 28.343844],
          [83.8382213, 28.343854],
          [83.8381263, 28.3438005],
          [83.8380516, 28.3437336],
          [83.8379566, 28.3437269],
          [83.8378565, 28.3437604],
          [83.8376564, 28.3438707],
          [83.8374335, 28.3439599],
          [83.8373942, 28.344029],
          [83.8374069, 28.3442352],
          [83.8371029, 28.3444114],
          [83.8369965, 28.3446878],
          [83.8369649, 28.3447079],
          [83.8367825, 28.3446611],
          [83.8367343, 28.3446778],
          [83.8364671, 28.3445496],
          [83.8364202, 28.3445607],
          [83.8364114, 28.3446131],
          [83.8364886, 28.3446443],
          [83.8366039, 28.3447413],
          [83.8367584, 28.3448829],
          [83.8368711, 28.3449788],
          [83.8369585, 28.3451281],
          [83.8370244, 28.3451671],
          [83.8371409, 28.3451549],
          [83.8373271, 28.3451894],
          [83.8375108, 28.3453054],
          [83.8376425, 28.3454012],
          [83.8377197, 28.3455272],
          [83.8378021, 28.3455562],
          [83.8382682, 28.3457078],
          [83.8384797, 28.3457658],
          [83.8385519, 28.3457814],
          [83.8386076, 28.3457368],
          [83.8386887, 28.3456911],
          [83.8388685, 28.3456532],
          [83.8390256, 28.3456866],
          [83.8391826, 28.3457958],
          [83.8394588, 28.346079],
          [83.839493, 28.3462128],
          [83.8396943, 28.3464658],
          [83.8397665, 28.3467879],
          [83.8398261, 28.3468771],
          [83.8400794, 28.3470209],
          [83.8403669, 28.3472974],
          [83.8404682, 28.3475693],
          [83.8407418, 28.3477221],
          [83.8408393, 28.3480431],
          [83.8409635, 28.3481913],
          [83.8410698, 28.3485068],
          [83.8412928, 28.3487777],
          [83.8416677, 28.3491544],
          [83.8418957, 28.3494989],
          [83.8420514, 28.349782],
          [83.8420996, 28.3499704],
          [83.8421439, 28.3501744],
          [83.8422794, 28.3504553],
          [83.8422642, 28.3505467],
          [83.8422972, 28.3507194],
          [83.8423694, 28.3509022],
          [83.8423364, 28.3509948],
          [83.8423022, 28.3510427],
          [83.8423073, 28.3510639],
          [83.842325, 28.3510661],
          [83.8423922, 28.3510349],
          [83.8425581, 28.3509546],
          [83.8426011, 28.3508755],
          [83.8426227, 28.3508599],
          [83.842629, 28.3509056],
          [83.8426163, 28.3510315],
          [83.8425441, 28.3510962],
          [83.8425315, 28.3511631],
          [83.8425923, 28.3511909],
          [83.8426353, 28.3512467],
          [83.8427101, 28.3513503],
          [83.8428114, 28.3514941],
          [83.8428279, 28.35159],
          [83.8427823, 28.3517282],
          [83.8427797, 28.3518475],
          [83.8428481, 28.3519612],
          [83.8428253, 28.3520938],
          [83.843033, 28.351989],
          [83.8430242, 28.3520604],
          [83.8428697, 28.3522599],
          [83.8427975, 28.3524014],
          [83.8428244, 28.3525444],
          [83.8427682, 28.3525487],
          [83.8426836, 28.3525912],
          [83.8426184, 28.3526833],
          [83.8426076, 28.3528317],
          [83.8425983, 28.3531905],
          [83.8427528, 28.3534687],
          [83.8427207, 28.3536736],
          [83.8427018, 28.3539266],
          [83.8427226, 28.3542338],
          [83.8429804, 28.3545787],
          [83.8427594, 28.3549403],
          [83.8427621, 28.3551837],
          [83.8425874, 28.3555972],
          [83.8425663, 28.355913],
          [83.8427892, 28.3563457],
          [83.8429519, 28.3564363],
          [83.8432001, 28.3566769],
          [83.8431839, 28.3572404],
          [83.8437906, 28.3578268],
          [83.8437568, 28.3581163],
          [83.8433521, 28.3583814],
          [83.8434291, 28.3586457],
          [83.8433694, 28.3588056],
          [83.8433497, 28.3590273],
          [83.8442642, 28.359142],
          [83.8449092, 28.3593413],
          [83.8450432, 28.3592409],
          [83.8454642, 28.3593718],
          [83.845777, 28.3595607],
          [83.8456655, 28.3599505],
          [83.8456595, 28.3603866],
          [83.8459934, 28.3606413],
          [83.8460736, 28.3609635],
          [83.8462242, 28.3610361],
          [83.8470081, 28.3610549],
          [83.8473213, 28.3614622],
          [83.8475959, 28.36168],
          [83.8477796, 28.3617113],
          [83.8477506, 28.3617841],
          [83.8475109, 28.3617855],
          [83.8473983, 28.3618134],
          [83.8472339, 28.3618874],
          [83.8468842, 28.3620588],
          [83.846806, 28.3622307],
          [83.846702, 28.3622673],
          [83.8464137, 28.3620673],
          [83.8462983, 28.3619362],
          [83.8461812, 28.3619021],
          [83.8460232, 28.3622585],
          [83.8458438, 28.3623863],
          [83.8457315, 28.3623516],
          [83.8453553, 28.3626939],
          [83.8453494, 28.3628373],
          [83.8452389, 28.3629076],
          [83.8451895, 28.3631273],
          [83.8452425, 28.363466],
          [83.8455244, 28.3638441],
          [83.8454618, 28.3640112],
          [83.845201, 28.3640892],
          [83.845138, 28.364244],
          [83.8448209, 28.3644746],
          [83.8449232, 28.3649026],
          [83.8452099, 28.3650416],
          [83.8452348, 28.3651343],
          [83.8450451, 28.3654057],
          [83.8451106, 28.3654683],
          [83.8451093, 28.3655648],
          [83.8450255, 28.3656022],
          [83.8450599, 28.3658226],
          [83.8449317, 28.3660067],
          [83.845013, 28.3662118],
          [83.8448224, 28.3663693],
          [83.8448226, 28.3665726],
          [83.84491, 28.3666604],
          [83.8447069, 28.3669491],
          [83.8447636, 28.3674524],
          [83.8449563, 28.3676564],
          [83.8449924, 28.3678087],
          [83.8448132, 28.3681499],
          [83.8449254, 28.3685576],
          [83.84519, 28.3690277],
          [83.8454727, 28.3692406],
          [83.8457042, 28.3692958],
          [83.8457673, 28.3693586],
          [83.8457224, 28.3695759],
          [83.8455677, 28.3697714],
          [83.8453825, 28.3698162],
          [83.845154, 28.370258],
          [83.844963, 28.3708875],
          [83.8447308, 28.3710862],
          [83.8446306, 28.3714452],
          [83.8442956, 28.3715524],
          [83.8440409, 28.3718468],
          [83.8438585, 28.3722789],
          [83.8438616, 28.3725321],
          [83.843665, 28.372615],
          [83.8434034, 28.3730745],
          [83.8435629, 28.3737967],
          [83.8435986, 28.3744388],
          [83.8435272, 28.3753059],
          [83.8434012, 28.3759821],
          [83.8433679, 28.3765456],
          [83.8434865, 28.3769912],
          [83.8431142, 28.3773907],
          [83.8429543, 28.3778735],
          [83.8427072, 28.3780103],
          [83.8425558, 28.378165],
          [83.8425475, 28.3782995],
          [83.8426028, 28.3785981],
          [83.8425957, 28.3786603],
          [83.8425523, 28.379038],
          [83.8424913, 28.3793379],
          [83.8423596, 28.3795345],
          [83.8424408, 28.3798202],
          [83.8423309, 28.3801505],
          [83.8424638, 28.3807178],
          [83.842476, 28.3809937],
          [83.8426, 28.3813],
          [83.8427559, 28.381536],
          [83.842905, 28.3821923],
          [83.8428467, 28.3824253],
          [83.8428979, 28.3826553],
          [83.8431064, 28.3828757],
          [83.8431532, 28.3829751],
          [83.8431623, 28.3830581],
          [83.8431624, 28.3831387],
          [83.8431911, 28.3832291],
          [83.8432148, 28.3833772],
          [83.8432609, 28.3834814],
          [83.8432737, 28.3835319],
          [83.8433234, 28.3835689],
          [83.8432184, 28.3836948],
          [83.843184, 28.3837582],
          [83.8431756, 28.3838105],
          [83.8432532, 28.3840171],
          [83.8434001, 28.3841725],
          [83.843536, 28.3842686],
          [83.8436226, 28.3842781],
          [83.8438236, 28.3847441],
          [83.8439518, 28.3848378],
          [83.8439977, 28.3848863],
          [83.8442834, 28.385067],
          [83.8443897, 28.3852953],
          [83.8443944, 28.3855012],
          [83.8444827, 28.3856728],
          [83.844821, 28.3857966],
          [83.844959, 28.3857201],
          [83.8451594, 28.3857507],
          [83.8452197, 28.385852],
          [83.8452677, 28.386052],
          [83.8453452, 28.3861078],
          [83.8453692, 28.3863294],
          [83.8454168, 28.3863669],
          [83.8456846, 28.3863937],
          [83.8460196, 28.3863127],
          [83.8462404, 28.3861242],
          [83.8463733, 28.3861237],
          [83.8466246, 28.3862107],
          [83.8468765, 28.3863969],
          [83.8469382, 28.3864344],
          [83.8472239, 28.3865262],
          [83.8473861, 28.3865522],
          [83.8474542, 28.3866137],
          [83.8475567, 28.3865373],
          [83.8476589, 28.3865081],
          [83.8479161, 28.3865168],
          [83.8480506, 28.3864735],
          [83.8481503, 28.3865521],
          [83.8482211, 28.3866634],
          [83.8484139, 28.3867723],
          [83.8483954, 28.3869915],
          [83.8485121, 28.3872432],
          [83.8487017, 28.3873684],
          [83.8487661, 28.3874261],
          [83.848838, 28.3874743],
          [83.8490558, 28.3875123],
          [83.8491411, 28.3874849],
          [83.84922, 28.387467],
          [83.8493403, 28.3873323],
          [83.8494651, 28.3872648],
          [83.8496179, 28.3873917],
          [83.8498069, 28.3874189],
          [83.8499147, 28.3873729],
          [83.8500179, 28.3874322],
          [83.8502394, 28.3873933],
          [83.8502443, 28.3874421],
          [83.8501207, 28.3875229],
          [83.8502105, 28.3876432],
          [83.8502604, 28.3877026],
          [83.850395, 28.3877625],
          [83.8503432, 28.3878235],
          [83.850265, 28.3879949],
          [83.8502014, 28.3880278],
          [83.8501019, 28.3880318],
          [83.8500583, 28.3880602],
          [83.8499911, 28.3882075],
          [83.8498934, 28.3883188],
          [83.8496591, 28.3884459],
          [83.8489967, 28.3888158],
          [83.8489931, 28.3888734],
          [83.8489072, 28.3890177],
          [83.8486279, 28.3892066],
          [83.8484699, 28.3892833],
          [83.8482773, 28.389445],
          [83.8482357, 28.389552],
          [83.8480499, 28.3896443],
          [83.8478369, 28.3899048],
          [83.8478043, 28.3901692],
          [83.8478945, 28.3903484],
          [83.8480374, 28.3904911],
          [83.8482898, 28.3907272],
          [83.8483514, 28.3908241],
          [83.8483987, 28.391062],
          [83.8486522, 28.391284],
          [83.8488059, 28.3914967],
          [83.8490067, 28.3916099],
          [83.8492353, 28.3918509],
          [83.8492363, 28.3919205],
          [83.8493065, 28.3920281],
          [83.8493684, 28.3920359],
          [83.8495018, 28.3921994],
          [83.8497627, 28.3922879],
          [83.8498538, 28.39247],
          [83.8500214, 28.3926562],
          [83.8499789, 28.3928328],
          [83.8500199, 28.3929594],
          [83.8502303, 28.3931887],
          [83.8504077, 28.3932974],
          [83.8505633, 28.393369],
          [83.8508128, 28.3934562],
          [83.8506986, 28.3935083],
          [83.8507872, 28.3936049],
          [83.8504881, 28.3936445],
          [83.8506328, 28.3937325],
          [83.8505108, 28.3937703],
          [83.8507961, 28.3939257],
          [83.8509362, 28.3940563],
          [83.8510231, 28.394332],
          [83.8510669, 28.3943825],
          [83.8511969, 28.3944732],
          [83.8513446, 28.3945673],
          [83.8517027, 28.3946912],
          [83.8515404, 28.3949361],
          [83.8514475, 28.39504],
          [83.8514166, 28.3951753],
          [83.8514325, 28.3953524],
          [83.8514543, 28.3954635],
          [83.8515133, 28.3955131],
          [83.8515657, 28.3956001],
          [83.8514221, 28.3956476],
          [83.8515097, 28.3957949],
          [83.8516476, 28.395922],
          [83.8517573, 28.3960746],
          [83.8516615, 28.3962006],
          [83.8517624, 28.3963376],
          [83.8518459, 28.3966362],
          [83.8516545, 28.3970568],
          [83.851675, 28.3973635],
          [83.8516318, 28.3976267],
          [83.8516957, 28.3976699],
          [83.8517467, 28.397763],
          [83.851974, 28.3979264],
          [83.8521904, 28.3980368],
          [83.8524009, 28.398136],
          [83.8525506, 28.3982517],
          [83.8528041, 28.3983191],
          [83.8529617, 28.3983751],
          [83.853077, 28.3985497],
          [83.8532509, 28.3989029],
          [83.8532473, 28.3989637],
          [83.8536269, 28.3992072],
          [83.8537915, 28.3994493],
          [83.8538876, 28.3996471],
          [83.8541308, 28.3997795],
          [83.8542488, 28.3999652],
          [83.854511, 28.4001856],
          [83.8548663, 28.4003301],
          [83.8549435, 28.4004471],
          [83.8550338, 28.4005015],
          [83.8557775, 28.4010841],
          [83.8558155, 28.4013183],
          [83.8557266, 28.4015192],
          [83.8558043, 28.4016918],
          [83.8558756, 28.4018786],
          [83.8560094, 28.4021602],
          [83.8561023, 28.4023657],
          [83.8563766, 28.4025868],
          [83.8565683, 28.4026251],
          [83.8566944, 28.4026502],
          [83.8568618, 28.4028452],
          [83.8569691, 28.4029122],
          [83.8569571, 28.4030246],
          [83.8570246, 28.4030656],
          [83.8569687, 28.4031612],
          [83.857033, 28.4032488],
          [83.856904, 28.4033231],
          [83.8568039, 28.4033652],
          [83.856744, 28.40334],
          [83.8565801, 28.4033909],
          [83.8564704, 28.4034093],
          [83.8562925, 28.4034401],
          [83.8561028, 28.4035293],
          [83.8559414, 28.403598],
          [83.8557431, 28.403685],
          [83.855648, 28.403851],
          [83.8556251, 28.4040206],
          [83.8556078, 28.404104],
          [83.8555954, 28.4042661],
          [83.8555416, 28.4045463],
          [83.8554891, 28.4047783],
          [83.855386, 28.4049576],
          [83.8553144, 28.4050818],
          [83.8552747, 28.4053347],
          [83.8552502, 28.4054256],
          [83.8553172, 28.405498],
          [83.85528, 28.4056768],
          [83.8553757, 28.4057974],
          [83.8554526, 28.4059144],
          [83.8554793, 28.4060496],
          [83.855528, 28.4061663],
          [83.8556191, 28.4064368],
          [83.8557455, 28.4065258],
          [83.8558738, 28.4065808],
          [83.8559189, 28.4066225],
          [83.8559404, 28.4067134],
          [83.8559518, 28.4069467],
          [83.855958, 28.40704],
          [83.856014, 28.4070448],
          [83.8560528, 28.4071334],
          [83.8561012, 28.4072276],
          [83.8561315, 28.4073616],
          [83.8562174, 28.4074768],
          [83.8562776, 28.4075798],
          [83.8563948, 28.4077161],
          [83.8564655, 28.4078355],
          [83.8565285, 28.4078633],
          [83.8565648, 28.4079255],
          [83.8565572, 28.4080048],
          [83.856613, 28.4081315],
          [83.8565886, 28.4082188],
          [83.8566181, 28.4084011],
          [83.8567134, 28.4086804],
          [83.8567038, 28.4088991],
          [83.8567401, 28.4092818],
          [83.8567191, 28.4094003],
          [83.85674, 28.4095168],
          [83.8567194, 28.4096137],
          [83.8567381, 28.4096873],
          [83.8568321, 28.4098486],
          [83.8568542, 28.4099684],
          [83.856839, 28.4101153],
          [83.8567236, 28.410351],
          [83.8567085, 28.4105461],
          [83.8565789, 28.4109173],
          [83.8564131, 28.4111976],
          [83.8562731, 28.4113741],
          [83.8561525, 28.4115489],
          [83.8561406, 28.4117448],
          [83.8561631, 28.4119291],
          [83.8561418, 28.4120378],
          [83.8560724, 28.4121641],
          [83.8560386, 28.4123919],
          [83.8559679, 28.4124967],
          [83.8559268, 28.4127632],
          [83.8558276, 28.4131563],
          [83.8558035, 28.4133049],
          [83.8556959, 28.413594],
          [83.8556188, 28.4136886],
          [83.8555511, 28.4137805],
          [83.8554985, 28.4138554],
          [83.8554444, 28.4139838],
          [83.8552632, 28.4141859],
          [83.8552179, 28.4142834],
          [83.8552887, 28.4144472],
          [83.855206, 28.4145754],
          [83.8552193, 28.4146691],
          [83.855077, 28.4148233],
          [83.8550437, 28.4149628],
          [83.85502, 28.4150734],
          [83.8550459, 28.4151678],
          [83.8550196, 28.415301],
          [83.8550522, 28.4153754],
          [83.8550256, 28.4155904],
          [83.8549926, 28.41592],
          [83.8550189, 28.4161307],
          [83.8551118, 28.4163124],
          [83.8553942, 28.4165976],
          [83.8555655, 28.4168799],
          [83.8559946, 28.4173937],
          [83.8561341, 28.4173841],
          [83.8562143, 28.4174877],
          [83.8561282, 28.417537],
          [83.8562481, 28.4177228],
          [83.8564577, 28.4178476],
          [83.8565238, 28.4181215],
          [83.8565531, 28.418311],
          [83.8566777, 28.4184956],
          [83.8566899, 28.4185702],
          [83.8567641, 28.4187353],
          [83.8569196, 28.4188438],
          [83.857063, 28.4190527],
          [83.8572634, 28.4191497],
          [83.8573838, 28.4193171],
          [83.8574541, 28.4193486],
          [83.85754, 28.4194939],
          [83.8575842, 28.4196404],
          [83.8576969, 28.4197137],
          [83.8578574, 28.4198562],
          [83.8579362, 28.4199687],
          [83.8579433, 28.4200945],
          [83.8580273, 28.4203293],
          [83.8581786, 28.4204683],
          [83.8583295, 28.4206468],
          [83.8584698, 28.4208334],
          [83.8585765, 28.4208839],
          [83.8587282, 28.4210306],
          [83.8589184, 28.4211984],
          [83.8589805, 28.4212767],
          [83.8591427, 28.4213493],
          [83.859282, 28.4217313],
          [83.8593569, 28.4218578],
          [83.8593027, 28.4220102],
          [83.8593096, 28.4220897],
          [83.859592, 28.422487],
          [83.859651, 28.4226543],
          [83.8597652, 28.422885],
          [83.8599449, 28.4230238],
          [83.8599443, 28.4231838],
          [83.860182, 28.4235058],
          [83.8602796, 28.4237775],
          [83.8602077, 28.4239079],
          [83.8602718, 28.4241409],
          [83.8603168, 28.4243555],
          [83.8604417, 28.4244214],
          [83.8606019, 28.4244334],
          [83.8607695, 28.4246407],
          [83.8609435, 28.4247446],
          [83.8610217, 28.4247485],
          [83.8610653, 28.424845],
          [83.8609638, 28.4249857],
          [83.86088, 28.4251037],
          [83.8608439, 28.4252863],
          [83.8608779, 28.425466],
          [83.8609482, 28.4255376],
          [83.8611265, 28.4256064],
          [83.861342, 28.4257294],
          [83.8616004, 28.4257908],
          [83.8617918, 28.426081],
          [83.8619875, 28.4262217],
          [83.8621294, 28.4264524],
          [83.8621669, 28.4266269],
          [83.8623711, 28.4268819],
          [83.8625605, 28.4271232],
          [83.8625908, 28.427261],
          [83.86284, 28.4274487],
          [83.8629375, 28.4276098],
          [83.8629838, 28.4277506],
          [83.8631269, 28.4278451],
          [83.8631721, 28.4278952],
          [83.8631344, 28.4279198],
          [83.8631463, 28.4279716],
          [83.8632882, 28.4280169],
          [83.8634123, 28.4281793],
          [83.8636597, 28.4283133],
          [83.8639699, 28.42854],
          [83.8641306, 28.4287178],
          [83.8642503, 28.4289057],
          [83.864395, 28.4290547],
          [83.8645306, 28.4292338],
          [83.8646628, 28.4293446],
          [83.8647553, 28.4294056],
          [83.8648338, 28.4294493],
          [83.86491, 28.4295212],
          [83.865012, 28.4295684],
          [83.8650403, 28.4296819],
          [83.8650405, 28.4298322],
          [83.8650696, 28.4302168],
          [83.8650844, 28.4303777],
          [83.8652392, 28.4305006],
          [83.8653039, 28.4306904],
          [83.865426, 28.4308518],
          [83.865545, 28.430944],
          [83.8655859, 28.4310762],
          [83.8655569, 28.4310912],
          [83.8655252, 28.431138],
          [83.8655062, 28.4312477],
          [83.8655882, 28.4313396],
          [83.8655387, 28.4314578],
          [83.8656472, 28.4316196],
          [83.8656104, 28.4316975],
          [83.8659354, 28.4320827],
          [83.8660321, 28.43216],
          [83.8662236, 28.4323171],
          [83.8665696, 28.4326753],
          [83.8667412, 28.4327748],
          [83.8668781, 28.432802],
          [83.8670204, 28.4328997],
          [83.867157, 28.4330403],
          [83.8672312, 28.4330551],
          [83.8672653, 28.4331032],
          [83.867406, 28.4331966],
          [83.867477, 28.4333116],
          [83.8676185, 28.433336],
          [83.8676874, 28.4333417],
          [83.8677679, 28.4334471],
          [83.867913, 28.4335447],
          [83.8679964, 28.4335588],
          [83.8680267, 28.433619],
          [83.8681638, 28.4336872],
          [83.8684252, 28.4338436],
          [83.8685443, 28.4338978],
          [83.8686859, 28.4339682],
          [83.8687443, 28.4339729],
          [83.8688237, 28.4339756],
          [83.8689645, 28.4339805],
          [83.8691949, 28.4340231],
          [83.8694399, 28.4340609],
          [83.869561, 28.4341907],
          [83.8697818, 28.4343591],
          [83.8698944, 28.4344418],
          [83.8700417, 28.4344504],
          [83.8700844, 28.4345714],
          [83.8701417, 28.4347642],
          [83.870266, 28.4348302],
          [83.8704076, 28.4349237],
          [83.8707248, 28.4349677],
          [83.8709421, 28.4351889],
          [83.8710399, 28.4353251],
          [83.8716132, 28.4356182],
          [83.8710774, 28.4357209],
          [83.8712192, 28.4358242],
          [83.8716432, 28.4360513],
          [83.8717456, 28.4362421],
          [83.8717689, 28.4364517],
          [83.8717234, 28.4365485],
          [83.8718018, 28.4368321],
          [83.8720328, 28.4369557],
          [83.8721719, 28.4369948],
          [83.872448, 28.4371527],
          [83.8728109, 28.4373957],
          [83.8729645, 28.4374768],
          [83.8730153, 28.4376184],
          [83.8730767, 28.4376653],
          [83.8731944, 28.4376643],
          [83.8733733, 28.4376711],
          [83.8735076, 28.437823],
          [83.8734802, 28.4379764],
          [83.8735579, 28.4380245],
          [83.8736424, 28.4380243],
          [83.8737739, 28.4379426],
          [83.8738871, 28.4379276],
          [83.8739722, 28.4379963],
          [83.8740533, 28.4380522],
          [83.8740866, 28.438132],
          [83.8741806, 28.4381664],
          [83.8742914, 28.4382247],
          [83.8744561, 28.4382503],
          [83.8747064, 28.4383072],
          [83.874807, 28.4383589],
          [83.8748873, 28.4383804],
          [83.8748821, 28.4384727],
          [83.8749419, 28.4386016],
          [83.8750898, 28.438746],
          [83.8749864, 28.4388309],
          [83.8747726, 28.4388524],
          [83.8744654, 28.438873],
          [83.8742434, 28.4389635],
          [83.8740856, 28.4389524],
          [83.8739389, 28.4389872],
          [83.8736486, 28.4389556],
          [83.8733516, 28.4389235],
          [83.8731411, 28.4388098],
          [83.8729008, 28.4387359],
          [83.8727285, 28.4386982],
          [83.8725505, 28.4387571],
          [83.8725686, 28.4388468],
          [83.8726317, 28.4388796],
          [83.8726085, 28.4390113],
          [83.8726401, 28.4391208],
          [83.8726985, 28.4392711],
          [83.8727862, 28.4393332],
          [83.8728491, 28.4394483],
          [83.8729955, 28.4395793],
          [83.8731488, 28.4396105],
          [83.8735264, 28.4399898],
          [83.873839, 28.4402472],
          [83.8741845, 28.4405757],
          [83.8742276, 28.4407664],
          [83.874263, 28.4411116],
          [83.8741379, 28.4413046],
          [83.8742289, 28.4415036],
          [83.8742012, 28.4417959],
          [83.8743284, 28.4420298],
          [83.8744474, 28.4421374],
          [83.8747424, 28.4424588],
          [83.8750695, 28.4427725],
          [83.8751168, 28.4428988],
          [83.8752817, 28.4430333],
          [83.875471, 28.4430722],
          [83.8755067, 28.443177],
          [83.8755822, 28.4432541],
          [83.8756294, 28.4432263],
          [83.8757377, 28.4434049],
          [83.8757391, 28.4436108],
          [83.8758602, 28.4437884],
          [83.8760397, 28.4438474],
          [83.876153, 28.4439724],
          [83.876148, 28.4440477],
          [83.876118, 28.4444974],
          [83.8761429, 28.4447273],
          [83.8762101, 28.4449406],
          [83.8762718, 28.4452048],
          [83.876136, 28.4452165],
          [83.8762621, 28.4453369],
          [83.8761641, 28.4453772],
          [83.8767384, 28.4464065],
          [83.8768951, 28.4464718],
          [83.8766691, 28.4465393],
          [83.8768016, 28.4466194],
          [83.8769479, 28.4466335],
          [83.8771354, 28.4466979],
          [83.8768204, 28.4470027],
          [83.8768746, 28.4472131],
          [83.8768886, 28.4474863],
          [83.8766837, 28.4476863],
          [83.8767151, 28.4479261],
          [83.8768758, 28.4481971],
          [83.8769971, 28.448618],
          [83.877655, 28.4489064],
          [83.878285, 28.4495194],
          [83.8784199, 28.4499139],
          [83.8784143, 28.4504297],
          [83.8784284, 28.4506369],
          [83.8784905, 28.4508229],
          [83.8785213, 28.451217],
          [83.8785249, 28.4512634],
          [83.879471, 28.4522929],
          [83.8797697, 28.4527004],
          [83.880197, 28.4530867],
          [83.8803706, 28.4531382],
          [83.8805209, 28.4532854],
          [83.8807735, 28.4535446],
          [83.8809577, 28.4536286],
          [83.8810972, 28.4536152],
          [83.8811666, 28.4538843],
          [83.8813009, 28.4538298],
          [83.8813562, 28.4540655],
          [83.8814543, 28.4540619],
          [83.8814515, 28.4542127],
          [83.881623, 28.4542265],
          [83.8816319, 28.4543413],
          [83.8818041, 28.4544104],
          [83.8819708, 28.4547162],
          [83.8821839, 28.4548563],
          [83.8822778, 28.4548592],
          [83.8822899, 28.4549081],
          [83.8824147, 28.4549408],
          [83.8825716, 28.4550804],
          [83.8827034, 28.4552198],
          [83.8830867, 28.4554127],
          [83.8831688, 28.4554541],
          [83.8832336, 28.455553],
          [83.8834093, 28.4556243],
          [83.8835495, 28.4556794],
          [83.8836951, 28.4557213],
          [83.8839345, 28.455896],
          [83.8841101, 28.456035],
          [83.8842799, 28.4560806],
          [83.8842793, 28.4561593],
          [83.8843131, 28.4562463],
          [83.8843846, 28.4563067],
          [83.8844896, 28.4564036],
          [83.8846541, 28.4564735],
          [83.8847417, 28.4564384],
          [83.8848259, 28.4564986],
          [83.8848491, 28.4565831],
          [83.8851029, 28.4567086],
          [83.8853584, 28.456846],
          [83.8855015, 28.4569559],
          [83.8856464, 28.4569696],
          [83.8858567, 28.4570456],
          [83.8861835, 28.4570513],
          [83.8863248, 28.4569731],
          [83.8863954, 28.4570054],
          [83.886491, 28.456976],
          [83.8871318, 28.4570425],
          [83.8875378, 28.4570333],
          [83.8877103, 28.4570384],
          [83.8878817, 28.4570987],
          [83.8881076, 28.4572284],
          [83.8882766, 28.4573037],
          [83.8886679, 28.4575435],
          [83.8890386, 28.4578178],
          [83.8893113, 28.4579175],
          [83.8898026, 28.4579658],
          [83.8904023, 28.4582788],
          [83.8906481, 28.4583074],
          [83.890688, 28.4585359],
          [83.8907641, 28.4586069],
          [83.8909885, 28.4584766],
          [83.8912786, 28.4586434],
          [83.8920897, 28.4588693],
          [83.8926891, 28.4587807],
          [83.8929205, 28.4587452],
          [83.8931098, 28.4588179],
          [83.8931948, 28.4591294],
          [83.8936016, 28.459469],
          [83.8939707, 28.4595133],
          [83.8942727, 28.4597246],
          [83.8946592, 28.4597966],
          [83.8950267, 28.4599914]
        ]
      },
      "id": "relation/19267496"
    }
  ]
}
