{
  "type": "FeatureCollection",
  "features": [
    {
      "type": "Feature",
      "properties": {},
      "geometry": {
        "type": "LineString",
        "coordinates": [
          [84.24236, 28.55048],
          [84.24247, 28.55049],
          [84.24264, 28.5505],
          [84.2429, 28.55059],
          [84.24309, 28.55058],
          [84.24318, 28.55057],
          [84.24344, 28.55054],
          [84.24344, 28.55054],
          [84.24344, 28.55056],
          [84.24348, 28.55072],
          [84.2435, 28.55081],
          [84.24348, 28.55098],
          [84.24341, 28.55104],
          [84.24334, 28.5511],
          [84.24324, 28.55123],
          [84.24314, 28.55132],
          [84.24299, 28.55139],
          [84.24291, 28.55141],
          [84.24285, 28.55142],
          [84.24282, 28.55145],
          [84.24279, 28.55153],
          [84.24276, 28.55156],
          [84.24261, 28.55159],
          [84.24235, 28.55165],
          [84.24229, 28.55165],
          [84.24204, 28.55169],
          [84.24187, 28.55171],
          [84.24173, 28.55173],
          [84.24173, 28.55173],
          [84.24144, 28.55184],
          [84.24132, 28.55189],
          [84.24108, 28.55197],
          [84.24095, 28.55201],
          [84.24092, 28.55207],
          [84.24092, 28.55213],
          [84.24098, 28.55235],
          [84.24099, 28.55238],
          [84.24098, 28.55242],
          [84.24095, 28.55244],
          [84.2409, 28.55246],
          [84.2409, 28.55246],
          [84.24085, 28.5525],
          [84.2407, 28.55256],
          [84.24065, 28.55258],
          [84.24056, 28.55262],
          [84.24045, 28.55265],
          [84.24045, 28.55265],
          [84.24038, 28.55272],
          [84.24034, 28.5528],
          [84.24013, 28.553],
          [84.23986, 28.55308],
          [84.23964, 28.55318],
          [84.23948, 28.55325],
          [84.23933, 28.55331],
          [84.23897, 28.55342],
          [84.23877, 28.55347],
          [84.23847, 28.55354],
          [84.23787, 28.55371],
          [84.23766, 28.55376],
          [84.23732, 28.55382],
          [84.23694, 28.55383],
          [84.23637, 28.55384],
          [84.23588, 28.55395],
          [84.23548, 28.55406],
          [84.23465, 28.55442],
          [84.2339, 28.55459],
          [84.23312, 28.55504],
          [84.23251, 28.5552],
          [84.23199, 28.5553],
          [84.23159, 28.55545],
          [84.23121, 28.55557],
          [84.2307, 28.55566],
          [84.2304, 28.55575],
          [84.23019, 28.55582],
          [84.23007, 28.55587],
          [84.22985, 28.55581],
          [84.22938, 28.55579],
          [84.22912, 28.55579],
          [84.2289, 28.55575],
          [84.22867, 28.5556],
          [84.2285, 28.55556],
          [84.22842, 28.55557],
          [84.22834, 28.55559],
          [84.22823, 28.55564],
          [84.22808, 28.55572],
          [84.2277, 28.55597],
          [84.22752, 28.55607],
          [84.22728, 28.55612],
          [84.22698, 28.55619],
          [84.22672, 28.55633],
          [84.22645, 28.5565],
          [84.22636, 28.55659],
          [84.22627, 28.55666],
          [84.2261, 28.55681],
          [84.22553, 28.55721],
          [84.22507, 28.5575],
          [84.22484, 28.55767],
          [84.22461, 28.55779],
          [84.22444, 28.55788],
          [84.22428, 28.55793],
          [84.22404, 28.55795],
          [84.22385, 28.55795],
          [84.22356, 28.55792],
          [84.22315, 28.55787],
          [84.22294, 28.55789],
          [84.22279, 28.55792],
          [84.22269, 28.55797],
          [84.22257, 28.55804],
          [84.22251, 28.55809],
          [84.22251, 28.55809],
          [84.22252, 28.5583],
          [84.2225, 28.55857],
          [84.22192, 28.55894],
          [84.22142, 28.55921],
          [84.22124, 28.55923],
          [84.22088, 28.55952],
          [84.22066, 28.55948],
          [84.22014, 28.55977],
          [84.21995, 28.55975],
          [84.21951, 28.56007],
          [84.21919, 28.56041],
          [84.21885, 28.56077],
          [84.21861, 28.56111],
          [84.21788, 28.56154],
          [84.2171, 28.56183],
          [84.21677, 28.56209],
          [84.21653, 28.56252],
          [84.21614, 28.56298],
          [84.21575, 28.56327],
          [84.21565, 28.56338],
          [84.21559, 28.56346],
          [84.21554, 28.56373],
          [84.21532, 28.56393],
          [84.21494, 28.56412],
          [84.21475, 28.56414],
          [84.2146, 28.56425],
          [84.21441, 28.56431],
          [84.21404, 28.56429],
          [84.21381, 28.56437],
          [84.21354, 28.5644],
          [84.21328, 28.56457],
          [84.21299, 28.56499],
          [84.21267, 28.56539],
          [84.21172, 28.56584],
          [84.21157, 28.5662],
          [84.21141, 28.56646],
          [84.21132, 28.56673],
          [84.21101, 28.56701],
          [84.21073, 28.56712],
          [84.20988, 28.56759],
          [84.20988, 28.56759],
          [84.20982, 28.5676],
          [84.2096, 28.56773],
          [84.2093, 28.56782],
          [84.20899, 28.56787],
          [84.20885, 28.56786],
          [84.2087, 28.56783],
          [84.20852, 28.56789],
          [84.20824, 28.56806],
          [84.208, 28.56822],
          [84.20785, 28.56826],
          [84.20754, 28.56843],
          [84.20725, 28.56851],
          [84.20695, 28.56854],
          [84.20674, 28.56857],
          [84.20634, 28.56864],
          [84.2059, 28.56867],
          [84.20537, 28.5687],
          [84.20486, 28.56869],
          [84.20439, 28.5687],
          [84.20418, 28.56867],
          [84.20395, 28.56858],
          [84.2036, 28.5687],
          [84.20325, 28.56867],
          [84.20287, 28.56853],
          [84.20267, 28.56839],
          [84.20236, 28.56822],
          [84.2021, 28.56814],
          [84.20188, 28.56811],
          [84.20164, 28.56814],
          [84.20133, 28.56817],
          [84.20104, 28.5682],
          [84.2009, 28.56823],
          [84.2007, 28.5684],
          [84.20039, 28.56854],
          [84.20019, 28.56863],
          [84.20003, 28.56868],
          [84.19981, 28.56869],
          [84.19957, 28.56877],
          [84.19912, 28.56896],
          [84.19893, 28.56906],
          [84.19873, 28.5692],
          [84.19848, 28.56956],
          [84.19843, 28.56984],
          [84.19834, 28.57013],
          [84.1982, 28.5703],
          [84.19801, 28.5704],
          [84.19772, 28.57057],
          [84.19735, 28.57072],
          [84.19701, 28.5709],
          [84.19668, 28.57099],
          [84.19643, 28.57103],
          [84.19616, 28.57109],
          [84.19583, 28.57107],
          [84.19561, 28.57106],
          [84.19547, 28.57107],
          [84.19524, 28.57102],
          [84.19514, 28.57103],
          [84.19508, 28.57104],
          [84.19502, 28.57109],
          [84.19502, 28.57116],
          [84.19509, 28.57118],
          [84.1952, 28.57112],
          [84.19532, 28.57112],
          [84.19542, 28.57113],
          [84.19557, 28.57119],
          [84.19569, 28.57121],
          [84.19573, 28.57125],
          [84.19575, 28.5713],
          [84.19571, 28.57133],
          [84.19565, 28.57134],
          [84.1955, 28.57133],
          [84.19533, 28.57138],
          [84.19522, 28.57146],
          [84.19508, 28.57164],
          [84.19488, 28.5718],
          [84.19466, 28.57197],
          [84.19438, 28.57214],
          [84.19414, 28.57219],
          [84.19408, 28.57221],
          [84.19358, 28.57227],
          [84.19306, 28.57241],
          [84.19198, 28.57268],
          [84.19133, 28.57279],
          [84.19102, 28.57284],
          [84.19022, 28.573],
          [84.19011, 28.57298],
          [84.18938, 28.57311],
          [84.18917, 28.57313],
          [84.18897, 28.57317],
          [84.18879, 28.5732],
          [84.18859, 28.57322],
          [84.1882, 28.57323],
          [84.18769, 28.57425],
          [84.18741, 28.57489],
          [84.18714, 28.57551],
          [84.18683, 28.57603],
          [84.18681, 28.57646],
          [84.18649, 28.57659],
          [84.18612, 28.57695],
          [84.18587, 28.57732],
          [84.18549, 28.57798],
          [84.18485, 28.57896],
          [84.1845, 28.57993],
          [84.18451, 28.58025],
          [84.18435, 28.58044],
          [84.18424, 28.58051],
          [84.18403, 28.58052],
          [84.18388, 28.58083],
          [84.18376, 28.58108],
          [84.18369, 28.58123],
          [84.18358, 28.58139],
          [84.18352, 28.58147],
          [84.18344, 28.5816],
          [84.18347, 28.58168],
          [84.18359, 28.5817],
          [84.18365, 28.58162],
          [84.18376, 28.58158],
          [84.18386, 28.58156],
          [84.18393, 28.58156],
          [84.18397, 28.5816],
          [84.18394, 28.58167],
          [84.18388, 28.58172],
          [84.18382, 28.58176],
          [84.18376, 28.58181],
          [84.18361, 28.58186],
          [84.18356, 28.58198],
          [84.18356, 28.5822],
          [84.18364, 28.58233],
          [84.18364, 28.58233],
          [84.1836, 28.58248],
          [84.18362, 28.58258],
          [84.18373, 28.58276],
          [84.18386, 28.58276],
          [84.18386, 28.58276],
          [84.18386, 28.58301],
          [84.18388, 28.58313],
          [84.18409, 28.58327],
          [84.18418, 28.58336],
          [84.1845, 28.58364],
          [84.18502, 28.58425],
          [84.18502, 28.58425],
          [84.18501, 28.58454],
          [84.18499, 28.58465],
          [84.18485, 28.58473],
          [84.18489, 28.58484],
          [84.18494, 28.58489],
          [84.18482, 28.58508],
          [84.18485, 28.58517],
          [84.18504, 28.5853],
          [84.18532, 28.58554],
          [84.1859, 28.58564],
          [84.18604, 28.58587],
          [84.18617, 28.58595],
          [84.18617, 28.58595],
          [84.18667, 28.58617],
          [84.18728, 28.5865],
          [84.18749, 28.58674],
          [84.18757, 28.58684],
          [84.18762, 28.58701],
          [84.1873, 28.58728],
          [84.18722, 28.58731],
          [84.18729, 28.5874],
          [84.18741, 28.58753],
          [84.18753, 28.58765],
          [84.18762, 28.58777],
          [84.18767, 28.58788],
          [84.18774, 28.58797],
          [84.1879, 28.5882],
          [84.18795, 28.5883],
          [84.18798, 28.58842],
          [84.18794, 28.58854],
          [84.18795, 28.58868],
          [84.188, 28.58889],
          [84.18802, 28.58921],
          [84.18806, 28.58934],
          [84.18805, 28.5895],
          [84.18803, 28.58968],
          [84.18803, 28.58982],
          [84.18801, 28.58997],
          [84.18796, 28.59015],
          [84.18796, 28.59026],
          [84.18789, 28.59025],
          [84.18785, 28.59016],
          [84.18784, 28.59],
          [84.18779, 28.58984],
          [84.18775, 28.58971],
          [84.18777, 28.58954],
          [84.18772, 28.58939],
          [84.18763, 28.58931],
          [84.18744, 28.58904],
          [84.18712, 28.58879],
          [84.18674, 28.5887],
          [84.18662, 28.58868],
          [84.18645, 28.58871],
          [84.18624, 28.58886],
          [84.18568, 28.58904],
          [84.18524, 28.58892],
          [84.18492, 28.58867],
          [84.1846, 28.58846],
          [84.18439, 28.5884],
          [84.18438, 28.58851],
          [84.18449, 28.58872],
          [84.1846, 28.58887],
          [84.18475, 28.58908],
          [84.18478, 28.58928],
          [84.18482, 28.58952],
          [84.18491, 28.58973],
          [84.18499, 28.58993],
          [84.18498, 28.59015],
          [84.18481, 28.59041],
          [84.18471, 28.59069],
          [84.18464, 28.59135],
          [84.18452, 28.59182],
          [84.18452, 28.59211],
          [84.1846, 28.59239],
          [84.18475, 28.59251],
          [84.18495, 28.59263],
          [84.18515, 28.5927],
          [84.18538, 28.59286],
          [84.18556, 28.59302],
          [84.18584, 28.59459],
          [84.18578, 28.59538],
          [84.18571, 28.59558],
          [84.18566, 28.59572],
          [84.18565, 28.59617],
          [84.18563, 28.5965],
          [84.18554, 28.59661],
          [84.18517, 28.59694],
          [84.18494, 28.59733],
          [84.1848, 28.59756],
          [84.18475, 28.59776],
          [84.18471, 28.59782],
          [84.18457, 28.59801],
          [84.18444, 28.59824],
          [84.18426, 28.59871],
          [84.18419, 28.59882],
          [84.18399, 28.59889],
          [84.18341, 28.59895],
          [84.183, 28.59901],
          [84.18248, 28.59927],
          [84.18222, 28.59956],
          [84.18171, 28.60056],
          [84.18129, 28.60123],
          [84.18093, 28.60155],
          [84.18056, 28.60181],
          [84.18031, 28.60196],
          [84.18015, 28.60207],
          [84.17995, 28.60224],
          [84.17971, 28.60234],
          [84.17948, 28.60238],
          [84.17931, 28.60234],
          [84.17909, 28.60228],
          [84.17887, 28.6023],
          [84.17861, 28.60231],
          [84.17814, 28.60235],
          [84.1777, 28.60246],
          [84.17743, 28.60262],
          [84.1773, 28.60264],
          [84.17716, 28.60259],
          [84.17716, 28.60259],
          [84.17706, 28.60266],
          [84.17669, 28.60272],
          [84.17624, 28.60288],
          [84.17585, 28.60299],
          [84.17551, 28.60315],
          [84.17509, 28.60332],
          [84.17483, 28.60348],
          [84.17454, 28.60375],
          [84.17444, 28.60384],
          [84.17427, 28.60398],
          [84.17381, 28.60413],
          [84.17347, 28.60424],
          [84.17316, 28.60436],
          [84.1728, 28.60438],
          [84.17265, 28.60442],
          [84.17244, 28.60446],
          [84.17228, 28.60452],
          [84.17176, 28.60474],
          [84.1717, 28.60478],
          [84.1717, 28.60504],
          [84.17169, 28.60511],
          [84.17158, 28.60514],
          [84.17155, 28.60525],
          [84.17156, 28.60531],
          [84.17157, 28.60564],
          [84.17162, 28.60601],
          [84.17163, 28.60634],
          [84.17155, 28.60677],
          [84.17145, 28.60694],
          [84.1712, 28.60713],
          [84.17098, 28.60726],
          [84.17078, 28.60742],
          [84.17052, 28.60757],
          [84.17021, 28.60762],
          [84.16996, 28.60768],
          [84.16949, 28.60766],
          [84.16886, 28.60757],
          [84.16866, 28.6075],
          [84.16848, 28.60757],
          [84.16829, 28.60768],
          [84.16803, 28.60775],
          [84.16765, 28.60784],
          [84.16725, 28.60769],
          [84.16706, 28.6077],
          [84.16685, 28.60777],
          [84.16678, 28.60777],
          [84.16659, 28.60768],
          [84.16606, 28.6078],
          [84.1652, 28.60785],
          [84.16473, 28.60795],
          [84.16432, 28.60811],
          [84.1637, 28.60815],
          [84.16323, 28.60823],
          [84.16298, 28.6084],
          [84.16278, 28.60846],
          [84.16217, 28.60857],
          [84.16159, 28.60866],
          [84.16089, 28.60883],
          [84.16034, 28.60902],
          [84.15991, 28.60916],
          [84.15967, 28.60919],
          [84.15934, 28.60934],
          [84.15908, 28.60953],
          [84.15885, 28.60975],
          [84.15847, 28.61001],
          [84.15845, 28.61018],
          [84.15848, 28.61054],
          [84.1586, 28.6109],
          [84.15864, 28.61113],
          [84.15865, 28.6115],
          [84.15864, 28.61165],
          [84.15862, 28.61184],
          [84.15854, 28.61198],
          [84.15815, 28.61215],
          [84.15783, 28.61221],
          [84.15735, 28.61243],
          [84.15713, 28.61247],
          [84.15699, 28.61255],
          [84.15668, 28.61272],
          [84.15636, 28.61296],
          [84.15604, 28.61312],
          [84.15556, 28.61329],
          [84.15524, 28.61342],
          [84.15475, 28.61359],
          [84.15419, 28.61375],
          [84.15359, 28.61376],
          [84.1534, 28.61371],
          [84.15326, 28.61364],
          [84.15315, 28.61357],
          [84.15296, 28.61348],
          [84.15286, 28.61348],
          [84.15261, 28.61359],
          [84.15221, 28.61374],
          [84.15214, 28.61378],
          [84.15205, 28.61387],
          [84.15193, 28.61395],
          [84.15177, 28.6141],
          [84.15173, 28.61424],
          [84.15151, 28.61446],
          [84.15146, 28.61449],
          [84.15127, 28.61459],
          [84.151, 28.61473],
          [84.15089, 28.61479],
          [84.15078, 28.61485],
          [84.1506, 28.61492],
          [84.15046, 28.61506],
          [84.15032, 28.61515],
          [84.15012, 28.61523],
          [84.14997, 28.61533],
          [84.14993, 28.61532],
          [84.14983, 28.61537],
          [84.14974, 28.61539],
          [84.14958, 28.61547],
          [84.14949, 28.61549],
          [84.14903, 28.61549],
          [84.14886, 28.61549],
          [84.14871, 28.61547],
          [84.14857, 28.61545],
          [84.14853, 28.61546],
          [84.14848, 28.61547],
          [84.14832, 28.61557],
          [84.14829, 28.61559],
          [84.14816, 28.6156],
          [84.14811, 28.6156],
          [84.14808, 28.61558],
          [84.14806, 28.61557],
          [84.14804, 28.61557],
          [84.14799, 28.61556],
          [84.1478, 28.61556],
          [84.14775, 28.61556],
          [84.14772, 28.61556],
          [84.14772, 28.61559],
          [84.14768, 28.61564],
          [84.14761, 28.61575],
          [84.14752, 28.61582],
          [84.14745, 28.61587],
          [84.14738, 28.61589],
          [84.14731, 28.6159],
          [84.14727, 28.6159],
          [84.14726, 28.61594],
          [84.14696, 28.61609],
          [84.14687, 28.61616],
          [84.14683, 28.61624],
          [84.14679, 28.6163],
          [84.14677, 28.61633],
          [84.14677, 28.61637],
          [84.1468, 28.61643],
          [84.14685, 28.61656],
          [84.14676, 28.61677],
          [84.14659, 28.61684],
          [84.14653, 28.61686],
          [84.14578, 28.61724],
          [84.1454, 28.61746],
          [84.14528, 28.61747],
          [84.14508, 28.61747],
          [84.14508, 28.61747],
          [84.14433, 28.61837],
          [84.14358, 28.61871],
          [84.1434, 28.61878],
          [84.14317, 28.61895],
          [84.14235, 28.61898],
          [84.14224, 28.61899],
          [84.1419, 28.61904],
          [84.14172, 28.61907],
          [84.14151, 28.61908],
          [84.14129, 28.61908],
          [84.14092, 28.61909],
          [84.14073, 28.61909],
          [84.14055, 28.61912],
          [84.14035, 28.61919],
          [84.13999, 28.61931],
          [84.13968, 28.6195],
          [84.13877, 28.62007],
          [84.13877, 28.62007],
          [84.13847, 28.62001],
          [84.13791, 28.62007],
          [84.13757, 28.62043],
          [84.13743, 28.62062],
          [84.13723, 28.62074],
          [84.1371, 28.621],
          [84.1371, 28.621],
          [84.13663, 28.62157],
          [84.13615, 28.62217],
          [84.13592, 28.62234],
          [84.13527, 28.62269],
          [84.13499, 28.62304],
          [84.13507, 28.62321],
          [84.13499, 28.6234],
          [84.1343, 28.62414],
          [84.13341, 28.62494],
          [84.13301, 28.62555],
          [84.13223, 28.62635],
          [84.13197, 28.62681],
          [84.13135, 28.62707],
          [84.1311, 28.6274],
          [84.13114, 28.62762],
          [84.13092, 28.62779],
          [84.12985, 28.62812],
          [84.12933, 28.62856],
          [84.12849, 28.62923],
          [84.12835, 28.62934],
          [84.12827, 28.6293],
          [84.12823, 28.62922],
          [84.12833, 28.62903],
          [84.12846, 28.62889],
          [84.12851, 28.62885],
          [84.12852, 28.6288],
          [84.1285, 28.62878],
          [84.12846, 28.62878],
          [84.12829, 28.62891],
          [84.12795, 28.62925],
          [84.12786, 28.62944],
          [84.1278, 28.62971],
          [84.12749, 28.63058],
          [84.12717, 28.63095],
          [84.12704, 28.63091],
          [84.12696, 28.63081],
          [84.12689, 28.63035],
          [84.12671, 28.63009],
          [84.1264, 28.62993],
          [84.12644, 28.63001],
          [84.12659, 28.63016],
          [84.1267, 28.63038],
          [84.12665, 28.63064],
          [84.1266, 28.63097],
          [84.12666, 28.63159],
          [84.1267, 28.63178],
          [84.12659, 28.63178],
          [84.12648, 28.63179],
          [84.12642, 28.63162],
          [84.1263, 28.63136],
          [84.12564, 28.6312],
          [84.12532, 28.63127],
          [84.12476, 28.63131],
          [84.12382, 28.63161],
          [84.12281, 28.63199],
          [84.12197, 28.63244],
          [84.12088, 28.63289],
          [84.1197, 28.63323],
          [84.11933, 28.63317],
          [84.11878, 28.63327],
          [84.11749, 28.63337],
          [84.11655, 28.63339],
          [84.11583, 28.63346],
          [84.11455, 28.63345],
          [84.11358, 28.6335],
          [84.11318, 28.6336],
          [84.11265, 28.63371],
          [84.11196, 28.63378],
          [84.11094, 28.63383],
          [84.11001, 28.63394],
          [84.10914, 28.63396],
          [84.10828, 28.63408],
          [84.10734, 28.63416],
          [84.10733, 28.63416],
          [84.10659, 28.63423],
          [84.10555, 28.63435],
          [84.10555, 28.63435],
          [84.10553, 28.63433],
          [84.10551, 28.63433],
          [84.10546, 28.63431],
          [84.1054, 28.63428],
          [84.10535, 28.63424],
          [84.10527, 28.6342],
          [84.10516, 28.63415],
          [84.10506, 28.63415],
          [84.10496, 28.63414],
          [84.10478, 28.63417],
          [84.10469, 28.63417],
          [84.10447, 28.63424],
          [84.10426, 28.63429],
          [84.10415, 28.63435],
          [84.10406, 28.6344],
          [84.10404, 28.63441],
          [84.10393, 28.63444],
          [84.10385, 28.63444],
          [84.10371, 28.63446],
          [84.10355, 28.63448],
          [84.10342, 28.63451],
          [84.10337, 28.63457],
          [84.10337, 28.63457],
          [84.10279, 28.63464],
          [84.10251, 28.63465],
          [84.10204, 28.63472],
          [84.10163, 28.63478],
          [84.10118, 28.63481],
          [84.09998, 28.63487],
          [84.09954, 28.63481],
          [84.09905, 28.63493],
          [84.09871, 28.63502],
          [84.0968, 28.63554],
          [84.09543, 28.636],
          [84.0947, 28.63627],
          [84.09381, 28.63662],
          [84.09368, 28.63668],
          [84.0933, 28.63683],
          [84.09271, 28.63702],
          [84.09254, 28.6371],
          [84.09247, 28.63718],
          [84.09241, 28.63722],
          [84.09221, 28.63728],
          [84.092, 28.63736],
          [84.0916, 28.63753],
          [84.0908, 28.63788],
          [84.09009, 28.6382],
          [84.08987, 28.63832],
          [84.08879, 28.63893],
          [84.08811, 28.63932],
          [84.08771, 28.63959],
          [84.08769, 28.6396],
          [84.08762, 28.63964],
          [84.08704, 28.64009],
          [84.08679, 28.64033],
          [84.08654, 28.64059],
          [84.08631, 28.64078],
          [84.0853, 28.64153],
          [84.0849, 28.64167],
          [84.08378, 28.642],
          [84.08301, 28.64234],
          [84.08275, 28.64245],
          [84.08251, 28.64251],
          [84.08228, 28.64254],
          [84.08192, 28.6427],
          [84.08151, 28.64305],
          [84.08095, 28.64341],
          [84.08049, 28.64369],
          [84.07963, 28.6443],
          [84.07926, 28.64461],
          [84.07884, 28.64473],
          [84.07837, 28.64504],
          [84.07788, 28.64536],
          [84.07751, 28.64553],
          [84.07715, 28.64556],
          [84.07606, 28.64537],
          [84.07561, 28.64527],
          [84.07391, 28.64502],
          [84.07278, 28.64489],
          [84.07202, 28.64485],
          [84.07154, 28.64491],
          [84.07095, 28.64512],
          [84.07067, 28.64523],
          [84.07039, 28.64523],
          [84.07022, 28.6452],
          [84.07011, 28.64535],
          [84.07024, 28.64552],
          [84.07026, 28.64561],
          [84.07016, 28.64569],
          [84.06992, 28.64569],
          [84.06963, 28.64555],
          [84.06885, 28.6452],
          [84.06859, 28.64509],
          [84.06819, 28.64498],
          [84.06767, 28.64492],
          [84.06705, 28.64493],
          [84.06626, 28.64493],
          [84.06584, 28.64486],
          [84.06519, 28.64487],
          [84.06473, 28.64496],
          [84.06423, 28.64498],
          [84.06302, 28.64513],
          [84.06245, 28.64518],
          [84.06195, 28.64521],
          [84.06075, 28.64522],
          [84.05841, 28.64521],
          [84.05742, 28.64531],
          [84.05607, 28.64576],
          [84.05486, 28.64624],
          [84.05483, 28.64635],
          [84.05494, 28.64654],
          [84.05493, 28.64663],
          [84.05484, 28.6467],
          [84.05465, 28.6468],
          [84.05434, 28.64798],
          [84.05398, 28.64846],
          [84.0535, 28.64903],
          [84.05305, 28.64952],
          [84.05257, 28.64999],
          [84.0524, 28.65015],
          [84.0523, 28.65023],
          [84.0521, 28.65036],
          [84.05189, 28.65054],
          [84.05167, 28.65076],
          [84.05131, 28.65096],
          [84.05102, 28.65108],
          [84.05069, 28.651],
          [84.04994, 28.65111],
          [84.0495, 28.6513],
          [84.04915, 28.65149],
          [84.04872, 28.65163],
          [84.04818, 28.65187],
          [84.04788, 28.65204],
          [84.04756, 28.65224],
          [84.04725, 28.65235],
          [84.04681, 28.65245],
          [84.0461, 28.65275],
          [84.04578, 28.65284],
          [84.04512, 28.6531],
          [84.0444, 28.65339],
          [84.04353, 28.65381],
          [84.04272, 28.65451],
          [84.04256, 28.65464],
          [84.04252, 28.65468],
          [84.04232, 28.65486],
          [84.04172, 28.65554],
          [84.04118, 28.65614],
          [84.04093, 28.65633],
          [84.04078, 28.6565],
          [84.04061, 28.65666],
          [84.04028, 28.65692],
          [84.03981, 28.65711],
          [84.03954, 28.65725],
          [84.03924, 28.65746],
          [84.03897, 28.65768],
          [84.03884, 28.65779],
          [84.03826, 28.65807],
          [84.0368, 28.65878],
          [84.03612, 28.659],
          [84.03536, 28.65915],
          [84.03466, 28.65908],
          [84.03414, 28.65908],
          [84.03372, 28.65919],
          [84.03288, 28.65953],
          [84.03235, 28.65969],
          [84.03159, 28.66028],
          [84.0314, 28.6604],
          [84.0314, 28.6604],
          [84.0305, 28.66056],
          [84.02949, 28.66082],
          [84.02888, 28.66105],
          [84.0284, 28.66117],
          [84.02794, 28.6613],
          [84.02742, 28.66135],
          [84.02726, 28.66136],
          [84.0266, 28.66153],
          [84.02653, 28.66158],
          [84.02646, 28.66157],
          [84.02627, 28.6616],
          [84.02586, 28.66169],
          [84.0255, 28.66183],
          [84.02531, 28.66185],
          [84.02487, 28.66201],
          [84.02463, 28.66217],
          [84.02447, 28.66231],
          [84.02431, 28.66253],
          [84.02387, 28.66281],
          [84.02374, 28.66286],
          [84.02344, 28.66293],
          [84.02313, 28.66309],
          [84.02281, 28.66334],
          [84.02244, 28.66361],
          [84.02229, 28.66373],
          [84.02204, 28.66393],
          [84.0218, 28.66412],
          [84.02162, 28.6643],
          [84.02139, 28.66449],
          [84.02103, 28.6647],
          [84.0208, 28.66491],
          [84.02063, 28.66498],
          [84.02053, 28.66505],
          [84.02042, 28.66516],
          [84.02024, 28.66527],
          [84.02018, 28.66534],
          [84.02012, 28.66549],
          [84.01994, 28.66572],
          [84.01985, 28.66583],
          [84.0198, 28.66604],
          [84.01976, 28.66618],
          [84.01974, 28.66638],
          [84.01975, 28.66668],
          [84.01975, 28.66668],
          [84.01899, 28.66661],
          [84.01847, 28.66655],
          [84.01768, 28.66631],
          [84.01748, 28.66625],
          [84.01738, 28.66624],
          [84.01729, 28.66624],
          [84.01717, 28.66627],
          [84.01707, 28.66632],
          [84.01696, 28.66643],
          [84.01686, 28.66651],
          [84.01675, 28.66654],
          [84.01636, 28.66612],
          [84.01636, 28.66612],
          [84.01627, 28.66619],
          [84.01618, 28.66609],
          [84.01599, 28.66598],
          [84.01569, 28.66583],
          [84.01555, 28.66578],
          [84.01537, 28.66572],
          [84.0152, 28.66559],
          [84.01464, 28.66533],
          [84.01417, 28.66518],
          [84.01331, 28.66495],
          [84.01269, 28.66473],
          [84.0123, 28.66478],
          [84.0119, 28.66495],
          [84.01184, 28.66502],
          [84.01174, 28.66514],
          [84.01135, 28.66542],
          [84.01099, 28.66555],
          [84.01055, 28.66575],
          [84.00972, 28.66601],
          [84.00927, 28.66611],
          [84.00876, 28.6663],
          [84.00817, 28.66645],
          [84.0073, 28.66661],
          [84.00622, 28.66693],
          [84.00525, 28.66713],
          [84.00434, 28.66681],
          [84.00459, 28.66673],
          [84.00378, 28.66618],
          [84.00284, 28.66642],
          [84.00316, 28.66662],
          [84.00271, 28.66664],
          [84.00296, 28.66673],
          [84.0024, 28.66673],
          [84.00216, 28.6666],
          [84.00175, 28.66622],
          [84.00143, 28.66642],
          [84.00056, 28.66632],
          [84.00008, 28.66636],
          [83.99987, 28.66625],
          [83.99928, 28.66652],
          [83.99855, 28.66673],
          [83.99833, 28.66687],
          [83.99827, 28.66715],
          [83.99802, 28.66727],
          [83.99549, 28.66786],
          [83.99427, 28.66818],
          [83.99343, 28.66806],
          [83.99185, 28.66781],
          [83.99026, 28.66814],
          [83.98992, 28.66821],
          [83.98898, 28.66811],
          [83.98876, 28.66795],
          [83.98832, 28.66787],
          [83.98815, 28.66792],
          [83.98803, 28.66785],
          [83.9875, 28.66758],
          [83.98731, 28.66756],
          [83.98726, 28.66739],
          [83.98694, 28.66698],
          [83.98662, 28.66678],
          [83.98641, 28.667],
          [83.98604, 28.66685],
          [83.98561, 28.66663],
          [83.98527, 28.66671],
          [83.98391, 28.66622],
          [83.9837, 28.66627],
          [83.98332, 28.6663],
          [83.9831, 28.6664],
          [83.98174, 28.66627],
          [83.98069, 28.66664],
          [83.97993, 28.66668],
          [83.97934, 28.66657],
          [83.97874, 28.66667],
          [83.97684, 28.66628],
          [83.97671, 28.667],
          [83.97734, 28.66735],
          [83.97698, 28.66777],
          [83.97706, 28.66792],
          [83.97682, 28.66807],
          [83.97698, 28.6684],
          [83.97649, 28.66873],
          [83.9759, 28.66883],
          [83.97577, 28.66878],
          [83.97523, 28.66875],
          [83.97509, 28.66884],
          [83.97493, 28.66896],
          [83.9748, 28.66902],
          [83.97459, 28.66905],
          [83.97452, 28.66909],
          [83.97445, 28.66912],
          [83.97445, 28.66912],
          [83.97441, 28.66919],
          [83.97445, 28.66938],
          [83.97451, 28.66952],
          [83.97437, 28.66958],
          [83.97414, 28.66972],
          [83.97414, 28.66972],
          [83.97403, 28.66963],
          [83.97403, 28.66963],
          [83.97393, 28.66967],
          [83.97379, 28.66979],
          [83.97364, 28.66991],
          [83.97358, 28.66997],
          [83.97355, 28.67005],
          [83.97301, 28.67011],
          [83.97282, 28.67005],
          [83.97276, 28.67002],
          [83.97263, 28.67008],
          [83.97262, 28.67012],
          [83.97262, 28.67012],
          [83.97257, 28.67019],
          [83.97249, 28.67031],
          [83.97227, 28.67034],
          [83.97185, 28.67029],
          [83.97147, 28.67026],
          [83.97132, 28.67037],
          [83.9713, 28.67061],
          [83.97115, 28.67107],
          [83.97103, 28.67125],
          [83.97076, 28.67138],
          [83.97055, 28.67148],
          [83.97032, 28.67159],
          [83.97003, 28.67164],
          [83.96986, 28.67171],
          [83.9697, 28.67178],
          [83.96949, 28.6719],
          [83.96932, 28.67199],
          [83.96905, 28.67216],
          [83.96887, 28.67227],
          [83.96869, 28.67233],
          [83.96849, 28.67237],
          [83.96835, 28.67245],
          [83.9681, 28.67284],
          [83.96799, 28.67287],
          [83.96756, 28.67293],
          [83.9672, 28.67322],
          [83.96714, 28.67333],
          [83.96719, 28.67372],
          [83.9672, 28.67383],
          [83.96706, 28.67394],
          [83.96671, 28.67386],
          [83.96654, 28.6739],
          [83.96615, 28.67397],
          [83.96574, 28.67422],
          [83.96569, 28.67439],
          [83.96563, 28.67446],
          [83.96551, 28.67442],
          [83.96537, 28.67431],
          [83.96516, 28.67433],
          [83.96477, 28.67447],
          [83.96456, 28.67459],
          [83.96365, 28.67494],
          [83.9634, 28.67509],
          [83.96268, 28.67553],
          [83.96259, 28.67574],
          [83.96244, 28.67583],
          [83.96237, 28.67614],
          [83.96208, 28.67645],
          [83.96179, 28.67678],
          [83.96141, 28.67734],
          [83.9613, 28.67739],
          [83.96126, 28.67741],
          [83.96118, 28.67737],
          [83.96098, 28.67727],
          [83.95964, 28.6776],
          [83.95915, 28.67792],
          [83.95888, 28.6779],
          [83.95835, 28.67842],
          [83.95735, 28.67899],
          [83.95636, 28.67969],
          [83.9559, 28.67997],
          [83.95536, 28.68025],
          [83.95508, 28.68052],
          [83.95456, 28.6809],
          [83.9544, 28.68085],
          [83.95437, 28.68082],
          [83.95442, 28.68075],
          [83.95431, 28.68067],
          [83.95412, 28.68049],
          [83.95388, 28.68042],
          [83.95366, 28.68032],
          [83.95355, 28.68028],
          [83.95336, 28.68022],
          [83.95313, 28.68016],
          [83.95299, 28.68023],
          [83.95292, 28.68023],
          [83.95283, 28.68023],
          [83.95262, 28.68021],
          [83.95238, 28.68015],
          [83.95211, 28.68004],
          [83.95177, 28.68013],
          [83.95155, 28.68013],
          [83.95117, 28.68026],
          [83.95079, 28.68027],
          [83.94987, 28.68027],
          [83.94922, 28.68006],
          [83.9489, 28.68024],
          [83.94837, 28.68024],
          [83.94769, 28.68044],
          [83.94694, 28.68041],
          [83.94676, 28.68036],
          [83.94664, 28.68044],
          [83.94656, 28.68042],
          [83.94647, 28.68048],
          [83.94622, 28.68045],
          [83.94604, 28.68058],
          [83.9457, 28.68064],
          [83.94547, 28.6805],
          [83.94527, 28.68051],
          [83.94507, 28.68057],
          [83.94507, 28.68057],
          [83.94483, 28.68057],
          [83.9446, 28.68046],
          [83.94443, 28.68048],
          [83.944, 28.68052],
          [83.94357, 28.68056],
          [83.94325, 28.68051],
          [83.94299, 28.68026],
          [83.94271, 28.67994],
          [83.9425, 28.67981],
          [83.94221, 28.67952],
          [83.94198, 28.67951],
          [83.94159, 28.6795],
          [83.94126, 28.67952],
          [83.94095, 28.6796],
          [83.94071, 28.67953],
          [83.94056, 28.67949],
          [83.94009, 28.67951],
          [83.93974, 28.67964],
          [83.93946, 28.67983],
          [83.93914, 28.67994],
          [83.93873, 28.6801],
          [83.93844, 28.68024],
          [83.93812, 28.68049],
          [83.93786, 28.68066],
          [83.93756, 28.68074],
          [83.93721, 28.68078],
          [83.93679, 28.68089],
          [83.9364, 28.68096],
          [83.93591, 28.68105],
          [83.93541, 28.68112],
          [83.935, 28.68116],
          [83.93457, 28.68119],
          [83.9343, 28.68123],
          [83.93405, 28.68127],
          [83.93389, 28.68143],
          [83.93379, 28.68159],
          [83.93343, 28.68174],
          [83.93329, 28.68187],
          [83.93308, 28.68182],
          [83.93288, 28.68189],
          [83.9327, 28.6819],
          [83.93241, 28.68185],
          [83.93217, 28.68181],
          [83.93204, 28.68167],
          [83.93194, 28.6816],
          [83.93188, 28.68165],
          [83.9318, 28.68172],
          [83.93168, 28.68172],
          [83.93161, 28.68161],
          [83.93153, 28.68151],
          [83.93129, 28.68146],
          [83.93104, 28.68158],
          [83.93086, 28.68163],
          [83.93044, 28.68163],
          [83.93044, 28.68163],
          [83.93034, 28.68156],
          [83.93034, 28.68156],
          [83.93042, 28.68135],
          [83.93036, 28.68132],
          [83.93028, 28.68128],
          [83.93014, 28.68124],
          [83.93, 28.68122],
          [83.92987, 28.68123],
          [83.9298, 28.68122],
          [83.92966, 28.68124],
          [83.92955, 28.68126],
          [83.9294, 28.6813],
          [83.92931, 28.68132],
          [83.92921, 28.68132],
          [83.92912, 28.6813],
          [83.92904, 28.6813],
          [83.92892, 28.68133],
          [83.92882, 28.68135],
          [83.92867, 28.68132],
          [83.92854, 28.68131],
          [83.92842, 28.68133],
          [83.92827, 28.68137],
          [83.92816, 28.68141],
          [83.92813, 28.68145],
          [83.92816, 28.68152],
          [83.9282, 28.68161],
          [83.92819, 28.68165],
          [83.92815, 28.68171],
          [83.92808, 28.68177],
          [83.92808, 28.68186],
          [83.92804, 28.68191],
          [83.92795, 28.682],
          [83.92794, 28.68205],
          [83.92789, 28.6821],
          [83.92786, 28.68216],
          [83.92781, 28.68219],
          [83.92785, 28.68224],
          [83.9278, 28.6823],
          [83.92777, 28.68233],
          [83.92769, 28.68226],
          [83.92765, 28.68213],
          [83.92757, 28.68205],
          [83.92748, 28.68202],
          [83.9275, 28.68192],
          [83.92733, 28.68182],
          [83.92722, 28.6818],
          [83.92716, 28.68187],
          [83.92696, 28.68196],
          [83.9269, 28.68202],
          [83.9268, 28.68207],
          [83.92655, 28.68213],
          [83.92616, 28.68232],
          [83.92599, 28.68232],
          [83.92576, 28.68204],
          [83.92544, 28.68184],
          [83.92498, 28.68138],
          [83.92473, 28.68115],
          [83.92449, 28.68105],
          [83.92404, 28.68094],
          [83.9239, 28.67993],
          [83.9235, 28.6795],
          [83.92319, 28.67909],
          [83.92309, 28.67875],
          [83.9232, 28.6782],
          [83.92286, 28.67802],
          [83.92258, 28.67764],
          [83.9222, 28.67732],
          [83.9214, 28.67672],
          [83.92088, 28.67632],
          [83.92063, 28.67608],
          [83.92048, 28.67563],
          [83.9204, 28.6753],
          [83.92029, 28.67499],
          [83.92018, 28.67462],
          [83.91995, 28.67431],
          [83.92001, 28.67408],
          [83.91966, 28.67368],
          [83.91968, 28.67346],
          [83.9197, 28.67325],
          [83.91906, 28.6729],
          [83.91844, 28.6725],
          [83.91775, 28.67255],
          [83.91706, 28.67248],
          [83.91666, 28.67242],
          [83.91619, 28.67243],
          [83.91547, 28.67279],
          [83.91484, 28.67336],
          [83.91417, 28.67389],
          [83.91371, 28.67484],
          [83.91313, 28.67569],
          [83.9126, 28.67642],
          [83.91224, 28.67668],
          [83.91202, 28.67696],
          [83.91137, 28.67739],
          [83.91103, 28.67756],
          [83.91047, 28.67788],
          [83.91015, 28.67801],
          [83.90965, 28.67844],
          [83.90923, 28.67881],
          [83.90885, 28.67915],
          [83.90839, 28.67936],
          [83.90753, 28.67977],
          [83.90721, 28.68],
          [83.90692, 28.6801],
          [83.90662, 28.68015],
          [83.90643, 28.68003],
          [83.90641, 28.67997],
          [83.90625, 28.67957],
          [83.90613, 28.67958],
          [83.90591, 28.67965],
          [83.90569, 28.67985],
          [83.90541, 28.67996],
          [83.90511, 28.68],
          [83.90481, 28.67996],
          [83.90456, 28.67983],
          [83.904, 28.67955],
          [83.90425, 28.67943],
          [83.90388, 28.67934],
          [83.90412, 28.67924],
          [83.90342, 28.67907],
          [83.9008, 28.67858],
          [83.8999, 28.6783],
          [83.89904, 28.67795],
          [83.89813, 28.6778],
          [83.89723, 28.67744],
          [83.89561, 28.67696],
          [83.89507, 28.67668],
          [83.89403, 28.67581],
          [83.89357, 28.67556],
          [83.89313, 28.67512],
          [83.89305, 28.67444],
          [83.89279, 28.6742],
          [83.89241, 28.6741],
          [83.88994, 28.67206],
          [83.88964, 28.67197],
          [83.88972, 28.67241],
          [83.88907, 28.67205],
          [83.88857, 28.67169],
          [83.88799, 28.67161],
          [83.88769, 28.67123],
          [83.88764, 28.67107],
          [83.88736, 28.67091],
          [83.88712, 28.67127],
          [83.88706, 28.67108],
          [83.88689, 28.67119],
          [83.88691, 28.67137],
          [83.88665, 28.67152],
          [83.88622, 28.67127],
          [83.88621, 28.67143],
          [83.88619, 28.67153],
          [83.88596, 28.67164],
          [83.88567, 28.67145],
          [83.88553, 28.6716],
          [83.88537, 28.67147],
          [83.88514, 28.6715],
          [83.88507, 28.67169],
          [83.88467, 28.67166],
          [83.88455, 28.67178],
          [83.88345, 28.67173],
          [83.88347, 28.6719],
          [83.88277, 28.67174],
          [83.88277, 28.67186],
          [83.88228, 28.67187],
          [83.88232, 28.67213],
          [83.88192, 28.672],
          [83.88196, 28.67235],
          [83.88156, 28.67215],
          [83.88132, 28.67226],
          [83.88119, 28.67232],
          [83.88127, 28.67266],
          [83.88093, 28.67247],
          [83.881, 28.6728],
          [83.881, 28.6728],
          [83.88088, 28.67278],
          [83.88066, 28.67262],
          [83.88066, 28.67262],
          [83.88039, 28.67278],
          [83.88022, 28.67295],
          [83.88, 28.67308],
          [83.87987, 28.67324],
          [83.87978, 28.67335],
          [83.87969, 28.67344],
          [83.87959, 28.6735],
          [83.8794, 28.67353],
          [83.87954, 28.67375],
          [83.87909, 28.67362],
          [83.8789, 28.67323],
          [83.87844, 28.6728],
          [83.87796, 28.67253],
          [83.87734, 28.67246],
          [83.87728, 28.67255],
          [83.87633, 28.67197],
          [83.87561, 28.67209],
          [83.87473, 28.67219],
          [83.87378, 28.67188],
          [83.87362, 28.67178],
          [83.87333, 28.67182],
          [83.87307, 28.67182],
          [83.87271, 28.67175],
          [83.87218, 28.67173],
          [83.87152, 28.67197],
          [83.86942, 28.67249],
          [83.86931, 28.67262],
          [83.86884, 28.67301],
          [83.86825, 28.67316],
          [83.86793, 28.67356],
          [83.86641, 28.67431],
          [83.86575, 28.67483],
          [83.86545, 28.6754],
          [83.86509, 28.67582],
          [83.86468, 28.67675],
          [83.86468, 28.67675],
          [83.86411, 28.67684],
          [83.8638, 28.67698],
          [83.86373, 28.67724],
          [83.86394, 28.67751],
          [83.86429, 28.67761],
          [83.86453, 28.67784],
          [83.86453, 28.67784],
          [83.86473, 28.67778],
          [83.86549, 28.6781],
          [83.86604, 28.67791],
          [83.8668, 28.67812],
          [83.86725, 28.67811],
          [83.86744, 28.67802],
          [83.86764, 28.67803],
          [83.86775, 28.67817],
          [83.86779, 28.67842],
          [83.86808, 28.67894],
          [83.86821, 28.67931],
          [83.86823, 28.67974],
          [83.8682, 28.68008],
          [83.86788, 28.68192],
          [83.86785, 28.68223],
          [83.86763, 28.68263],
          [83.86716, 28.68314],
          [83.86664, 28.68349],
          [83.86599, 28.68405],
          [83.86582, 28.68445],
          [83.86579, 28.68471],
          [83.86579, 28.68471]
        ]
      }
    }
  ]
}